{"type": "Feature", "geometry": {"type": "Point", "coordinates": [-1.033155, 51.472227]}, "properties": {"resource": "1ebc73d8061d28fa5ff47325ad0e37405cadea4c4ad8bf72d13a3ecf22e4a1fc", "site-address": "1025-1027 Oxford Road, Tilehurst, Reading", "deliverable": "", "end-date": "", "entry-date": "2019-12-16", "hazardous-substances": "", "hectares": "0.19", "maximum-net-dwellings": "12", "minimum-net-dwellings": "12", "notes": "061080 was original outline permission. 070937 is reserved matters permission. Existing dwellings on site have been demolished.. Demolish existing dwellings and erect 2 no. buildings containing 12 no. apartments.", "organisation": "local-authority-eng:RDG", "ownership-status": "not owned by a public authority", "planning-permission-date": "2007-10-11", "planning-permission-history": "", "planning-permission-status": "permissioned", "planning-permission-type": "reserved matters approval", "point": "POINT(-1.033155 51.472227)", "site": "BL4015", "site-plan-url": "https://www.reading.gov.uk/media/8108/Brownfield-Register-Maps-BL4001-4025/pdf/Brownfield_Land_Register_Maps_2019_4001_to_4025.pdf", "start-date": "2017-12-15", "id": "BL4015"}}