{"type": "Feature", "geometry": {"type": "Point", "coordinates": [-2.107537, 53.542429]}, "properties": {"resource": "525f39c89244d18d060245336a883f8429b79f0e816177245ef6365e90b18c7b", "site-address": "157 Egerton Street, Oldham, OL1 3QJ", "deliverable": "", "end-date": "", "entry-date": "2018-11-22", "hazardous-substances": "", "hectares": "0.03", "maximum-net-dwellings": "7", "minimum-net-dwellings": "7", "notes": "Potential site identified as suitable, available and achievable in the published SHLAA", "organisation": "local-authority-eng:OLD", "ownership-status": "not owned by a public authority", "planning-permission-date": "", "planning-permission-history": "", "planning-permission-status": "not permissioned", "planning-permission-type": "", "point": "POINT(-2.107537 53.542429)", "site": "SHA2049", "site-plan-url": "http://maps.oldham.gov.uk/WebMapLayers8/?x=391780.623753397&y=405043.490402522&resolution=0.2&MapName=Brownfield", "start-date": "2017-12-22", "id": "SHA2049"}}