{"type": "Feature", "geometry": {"type": "Point", "coordinates": [-1.683331, 52.182076]}, "properties": {"resource": "d3a3166d06459a494d581986b58f338769405207a5838eddb38948ba0837326d", "site-address": "Naunton Lodge, 203 Banbury Road, Stratford-upon-Avon, CV37 7HT''", "deliverable": "yes", "end-date": "", "entry-date": "2020-01-13", "hazardous-substances": "", "hectares": "0.19", "maximum-net-dwellings": "5", "minimum-net-dwellings": "5", "notes": "Demolition of existing dwelling and erection of building containing 5 apartments, widening of access, and all associated works", "organisation": "local-authority-eng:STR", "ownership-status": "not owned by a public authority", "planning-permission-date": "2018-01-26", "planning-permission-history": "https://apps.stratford.gov.uk/eplanning/AppDetail.aspx?appkey=P0ACAVPMITY00", "planning-permission-status": "permissioned", "planning-permission-type": "full planning permission", "point": "POINT(-1.683331 52.182076)", "site": "SDC00060", "site-plan-url": "https://apps.stratford.gov.uk/eplanning/Map.aspx", "start-date": "2020-01-13", "id": "d3a3166d06459a494d581986b58f338769405207a5838eddb38948ba0837326d:44736"}}