{"type": "Feature", "geometry": {"type": "Point", "coordinates": [-2.249989, 51.86021]}, "properties": {"resource": "4ebbf80c15a14ea35ed19f9799ab3682d0bf4aa2e33d8590929342402486749f", "site-address": "6 Spa Road, former RAF Club Building, Westgate", "deliverable": "yes", "end-date": "", "entry-date": "2017-12-01", "hazardous-substances": "", "hectares": "0.1", "maximum-net-dwellings": "14", "minimum-net-dwellings": "14", "notes": "housing development permitted", "organisation": "local-authority-eng:GLO", "ownership-status": "not owned by a public authority", "planning-permission-date": "2015-07-09", "planning-permission-history": "http://glcstrplnng12.co.uk/online-applications/propertyDetails.do?activeTab=relatedCases&keyVal=0010HWHMLI000", "planning-permission-status": "permissioned", "planning-permission-type": "full planning permission", "point": "POINT(-2.249989 51.86021)", "site": "GLOSBR032", "site-plan-url": "http://www.gloucester.gov.uk/Documents/GLOSBR032%20%206%20Spa%20Road.pdf", "start-date": "2017-12-01", "id": "GLOSBR032"}}