{"type": "Feature", "geometry": {"type": "Point", "coordinates": [-1.77935, 53.66067]}, "properties": {"deliverable": "yes", "site-address": "Land North of Flint Street, Fartown, Huddersfield", "hectares": "1.29", "maximum-net-dwellings": "45", "notes": "Currently in use as office accommodation, potentially suitable for housing-led redevelopment.", "organisation": "local-authority-eng:KIR", "planning-permission-status": "not permissioned", "site": "BLR_024", "site-plan-url": "https://mapping.kirklees.gov.uk/connect/analyst/mobile/#/main?mapcfg=Kirklees%20Brownfield%20Land%20Register", "point": "POINT(-1.77935 53.66067)", "ownership-status": "owned by a public authority", "minimum-net-dwellings": "45", "name": "BLR_024", "start-date": "2017-12-20", "slug": "/brownfield-land/local-authority-eng/KIR/BLR-024", "entity": 485116, "entry-date": "2020-11-30"}}