{"type": "Feature", "geometry": {"type": "Point", "coordinates": [-2.74815, 54.665852]}, "properties": {"resource": "9d9a0457ea5f34e841b7f25a3da5c99ddb2176075946f7a3049a015849763c91", "site-address": "Former car park, Brentfield Way, Penrith", "deliverable": "yes", "end-date": "", "entry-date": "2018-05-22", "hazardous-substances": "", "hectares": "0.14", "maximum-net-dwellings": "7", "minimum-net-dwellings": "7", "notes": "", "organisation": "local-authority-eng:EDN", "ownership-status": "not owned by a public authority", "planning-permission-date": "2017-02-22", "planning-permission-history": "http://eforms.eden.gov.uk/fastweb/detail.asp?AltRef=16/0739&ApplicationNumber=16%2F0739&AddressPrefix=&Postcode=&Submit=Search\u2502http://eforms.eden.gov.uk/fastweb/detail.asp?AltRef=16/0950&ApplicationNumber=16%2F0950&AddressPrefix=&Postcode=&Submit=Search\u2502http://eforms.eden.gov.uk/fastweb/detail.asp?AltRef=17/0158&ApplicationNumber=17%2F0158&AddressPrefix=&Postcode=&Submit=Search\u2502http://eforms.eden.gov.uk/fastweb/detail.asp?AltRef=17/0167&ApplicationNumber=17%2F0167&AddressPrefix=&Postcode=&Submit=Search", "planning-permission-status": "permissioned", "planning-permission-type": "full planning permission", "point": "POINT(-2.74815 54.665852)", "site": "17/PEN/0012", "site-plan-url": "http://eforms.eden.gov.uk/fastweb_upload/2016%20Planning%20Applications/16-0950/16-0950-Location%20Plan.pdf", "start-date": "", "id": "17-PEN-0012"}}