{"type": "Feature", "geometry": {"type": "Point", "coordinates": [-0.201117, 53.61819]}, "properties": {"resource": "626c5e7fe3c98f251ad067e699b8f2a8b58916650cca4409d81cd54e2b1e135f", "site-address": "Tower Place, Waterworks Street, Immingham", "deliverable": "yes", "end-date": "", "entry-date": "2017-10-18", "hazardous-substances": "", "hectares": "0.8", "maximum-net-dwellings": "32", "minimum-net-dwellings": "32", "notes": "'Developer/Owner of the site is currently pursuing the discharge of conditions for the sites planning consent. This application was validated on 2015-02-02 and is pending consideration.''. Erect 31 houses and 1 apartment", "organisation": "local-authority-eng:NEL", "ownership-status": "not owned by a public authority", "planning-permission-date": "2010-08-06", "planning-permission-history": "http://planninganddevelopment.nelincs.gov.uk/online-applications/applicationDetails.do?activeTab=summary&keyVal=ZZZZVJLJXB209", "planning-permission-status": "permissioned", "planning-permission-type": "full planning permission", "point": "POINT(-0.201117 53.61819)", "site": "BS0001", "site-plan-url": "", "start-date": "2017-10-18", "id": "626c5e7fe3c98f251ad067e699b8f2a8b58916650cca4409d81cd54e2b1e135f:25326"}}