{"type": "Feature", "geometry": {"type": "Point", "coordinates": [-6.224367, 54.370065]}, "properties": {"resource": "c25f8b97bd93f47ed272489a7be50e98514ec5affb1f9879fe434b1dde03b00e", "site-address": "Clark's Yard, Billingshurst Road, Wisborough Green", "deliverable": "", "end-date": "", "entry-date": "2017-12-31", "hazardous-substances": "", "hectares": "0.6", "maximum-net-dwellings": "11", "minimum-net-dwellings": "11", "notes": "", "organisation": "local-authority-eng:CHI", "ownership-status": "not owned by a public authority", "planning-permission-date": "", "planning-permission-history": "", "planning-permission-status": "not permissioned", "planning-permission-type": "", "point": "POINT(-6.224367 54.370065)", "site": "BLR0015", "site-plan-url": "http://www.chichester.gov.uk/CHttpHandler.ashx?id=30986", "start-date": "2017-12-31", "id": "c25f8b97bd93f47ed272489a7be50e98514ec5affb1f9879fe434b1dde03b00e:50822"}}