{"type": "Feature", "geometry": {"type": "Point", "coordinates": [-1.603437, 53.736272]}, "properties": {"resource": "a3efc12b4374fc4d186f7998987cd390c269ce1c99ff3e43995a864ffa0cd03e", "site-address": "Former Site of Barfield House, Britannia Road, Morley", "deliverable": "yes", "end-date": "", "entry-date": "2017-12-19", "hazardous-substances": "", "hectares": "0.21", "maximum-net-dwellings": "8", "minimum-net-dwellings": "8", "notes": "Residential development for 8 houses", "organisation": "local-authority-eng:LDS", "ownership-status": "not owned by a public authority", "planning-permission-date": "2016-04-11", "planning-permission-history": "", "planning-permission-status": "permissioned", "planning-permission-type": "full planning permission", "point": "POINT(-1.603437 53.736272)", "site": "SHL01869", "site-plan-url": "https://leedscc.maps.arcgis.com/apps/webappviewer/index.html?id=612532561dc547fa93e683a5fca73079&find=SHL01869", "start-date": "2017-12-19", "id": "SHL01869"}}