{"type": "Feature", "geometry": {"type": "Point", "coordinates": [-2.269272, 53.591558]}, "properties": {"point": "POINT(-2.269272 53.591558)", "site-address": "Land To Rear Of 62 - 82 ,Bury New Road,Heywood", "planning-permission-status": "permissioned", "hectares": "0.52", "organisation": "local-authority-eng:RCH", "start-date": "2017-11-28", "minimum-net-dwellings": "9", "deliverable": "yes", "site": "SH 2205", "maximum-net-dwellings": "9", "name": "SH 2205", "slug": "/brownfield-land/local-authority-eng/RCH/SH-2205", "entry-date": "2018-12-05", "site-plan-url": "https://mappinggm.org.uk/gmodin/?lyrs=brownfield_2018_gm#os_maps_light/19/53.591558/-2.2692718"}}