{"type": "Feature", "geometry": {"type": "Point", "coordinates": [0.055888, 51.40774]}, "properties": {"resource": "291b6038921e171a6e061c6860089277811cb8deb14ad68db16550310dfb0c13", "site-address": "63-65 Chislehurst Road, BR7 5NP", "deliverable": "yes", "end-date": "", "entry-date": "2019-10-20", "hazardous-substances": "", "hectares": "0.035", "maximum-net-dwellings": "5", "minimum-net-dwellings": "5", "notes": "", "organisation": "local-authority-eng:BRY", "ownership-status": "", "planning-permission-date": "2016-09-14", "planning-permission-history": "", "planning-permission-status": "permissioned", "planning-permission-type": "full planning permission", "point": "POINT(0.055888 51.40774)", "site": "BLR31", "site-plan-url": "", "start-date": "", "id": "291b6038921e171a6e061c6860089277811cb8deb14ad68db16550310dfb0c13:8071"}}