{"type": "Feature", "geometry": {"type": "Point", "coordinates": [-1.657853, 54.955565]}, "properties": {"maximum-net-dwellings": "45", "ownership-status": "owned by a public authority", "start-date": "2017-12-21", "deliverable": "yes", "point": "POINT(-1.657853 54.955565)", "site-address": "Play area, Wolseley Close, Teams, Gateshead", "name": "HLH13", "site": "HLH13", "planning-permission-status": "not permissioned", "site-plan-url": "https://gis.gateshead.gov.uk/gatesheadmaps/BFR20/app.html", "minimum-net-dwellings": "18", "organisation": "local-authority-eng:GAT", "hectares": "0.9", "slug": "/brownfield-land/local-authority-eng/GAT/HLH13", "entity": 482779, "entry-date": "2017-12-21"}}