{"type": "Feature", "geometry": {"type": "Point", "coordinates": [0.538541, 51.374929]}, "properties": {"resource": "fcc3eadb11e1c253374bfe1cfd7f58e1826292203dfc96f234a6dfff99ed3c28", "site-address": "Between 142 & 152 Luton Road, Chatham", "deliverable": "yes", "end-date": "", "entry-date": "2020-03-05", "hazardous-substances": "", "hectares": "0.08", "maximum-net-dwellings": "14", "minimum-net-dwellings": "14", "notes": "", "organisation": "local-authority-eng:MDW", "ownership-status": "not owned by a public authority", "planning-permission-date": "2017-05-18", "planning-permission-history": "https://publicaccess1.medway.gov.uk/online-applications/applicationDetails.do?activeTab=documents&keyVal=ZZZZP4KNPM407", "planning-permission-status": "permissioned", "planning-permission-type": "full planning permission", "point": "POINT(0.538541 51.374929)", "site": "680", "site-plan-url": "https://maps.medway.gov.uk/webmaplayersext/map.aspx", "start-date": "2020-03-05", "id": "680"}}