{"type": "Feature", "geometry": {"type": "Point", "coordinates": [-0.062984, 51.302796]}, "properties": {"deliverable": "yes", "planning-permission-type": "full planning permission", "notes": "Demolition of existing dwelling. Erection of 3 dwellings. http://www.cartogold.co.uk/tandridgelocalplan/", "site": "2017/198", "planning-permission-status": "permissioned", "planning-permission-date": "2017-06-02", "minimum-net-dwellings": "2", "ownership-status": "not owned by a public authority", "site-address": "21 Westhall Park, Warlingham CR6 9HS", "hectares": "0.27", "site-plan-url": "https://www.tandridge.gov.uk/Planning-and-building/Planning-strategies-and-policies/Local-Plan-2033-emerging-planning-policies/Local-Plan-2033/Housing-and-Economic-Land-Availability-Assessment-HELAA-and-Brownfield-Register", "maximum-net-dwellings": "2", "organisation": "local-authority-eng:TAN", "point": "POINT(-0.062984 51.302796)", "name": "2017/198", "start-date": "2017-10-23", "slug": "/brownfield-land/local-authority-eng/TAN/2017-198", "entry-date": "2019-11-21"}}