{"type": "Feature", "geometry": {"type": "Point", "coordinates": [-2.17152, 53.8581]}, "properties": {"resource": "c678ceef732f4e8f84b8e87c34b0a88fc4468d6fce72db91c35a84357d9a20d2", "site-address": "Land at Bright Street, Colne", "deliverable": "yes", "end-date": "", "entry-date": "2017-12-14", "hazardous-substances": "", "hectares": "0.29", "maximum-net-dwellings": "12", "minimum-net-dwellings": "6", "notes": "This site is within the Settlement Boundary for Colne. The site was cleared as part of the Housing Market Renewal Initiative, however, no new development has yet taken place on the site. The Council's viability model suggests that this type of site is unlikely to be viable to develop. This site is owned by Pendle Borough Council. The Council and its development partner are looking at bringing this site forward in the future once a viable scheme can be prepared.", "organisation": "local-authority-eng:PEN", "ownership-status": "owned by a public authority", "planning-permission-date": "", "planning-permission-history": "", "planning-permission-status": "not permissioned", "planning-permission-type": "", "point": "POINT(-2.17152 53.8581)", "site": "P167", "site-plan-url": "http://www.pendle.gov.uk/downloads/file/10027/site_plan_p167_-_land_at_bright_street_colne", "start-date": "2017-12-14", "id": "c678ceef732f4e8f84b8e87c34b0a88fc4468d6fce72db91c35a84357d9a20d2:52330"}}