{"type": "Feature", "geometry": {"type": "Point", "coordinates": [-2.341725, 54.911168]}, "properties": {"resource": "51fd36daf72b8b22fcaff19185e18c31456457ac8116b866c28959be3c69eb1a", "site-address": "Bearsbridge Sawmill (brownfield parcel)", "deliverable": "", "end-date": "", "entry-date": "2017-12-17", "hazardous-substances": "", "hectares": "0.49", "maximum-net-dwellings": "5", "minimum-net-dwellings": "5", "notes": "Saved Tynedale Local Plan allocation for 10 dwellings covers part of site", "organisation": "local-authority-eng:NBL", "ownership-status": "", "planning-permission-date": "", "planning-permission-history": "", "planning-permission-status": "not permissioned", "planning-permission-type": "", "point": "POINT(-2.341725 54.911168)", "site": "2379x", "site-plan-url": "http://northumberland.maps.arcgis.com/apps/webappviewer/index.html?id=c1b801d50f8040efbf8c9bc9f916cfae", "start-date": "2017-12-17", "slug": "local-authority-eng/NBL/2379x"}}