{"type": "Feature", "geometry": {"type": "Point", "coordinates": [-5.706, 54.348]}, "properties": {"organisation": "local-authority-eng:WOI", "site-plan-url": "http://www.woking2027.info/ldfregisters", "hectares": "0.1", "name": "SHLAACAN009", "start-date": "2017-12-20", "point": "POINT(-5.706 54.348)", "minimum-net-dwellings": "10", "ownership-status": "not owned by a public authority", "site": "SHLAACAN009", "planning-permission-status": "not permissioned", "site-address": "82-86 Walton Road, Woking, GU21 5DW", "maximum-net-dwellings": "10", "notes": "No planning history to date.", "slug": "/brownfield-land/local-authority-eng/WOI/SHLAACAN009", "entry-date": "2017-12-20"}}