{"type": "Feature", "geometry": {"type": "Point", "coordinates": [-2.99259, 51.35398]}, "properties": {"resource": "0f2521abd23633c27eae03cc4e8ed3d8405e8ecd27e5c94beb9ed11fe9d288fa", "site-address": "8 Claremont Crescent Weston-super-Mare", "deliverable": "yes", "end-date": "", "entry-date": "2019-12-31", "hazardous-substances": "", "hectares": "0.02", "maximum-net-dwellings": "5", "minimum-net-dwellings": "5", "notes": "16/P/2152/F", "organisation": "local-authority-eng:NSM", "ownership-status": "not owned by a public authority", "planning-permission-date": "2016-12-05", "planning-permission-history": "https://planning.n-somerset.gov.uk/online-applications/", "planning-permission-status": "permissioned", "planning-permission-type": "full planning permission", "point": "POINT(-2.99259 51.35398)", "site": "NSBR0055", "site-plan-url": "http://map.n-somerset.gov.uk/map/Aurora.svc/run?embedded=true&nocache=0.5788848812441214&script=%5cAurora%5cBrownfieldSiteRegister.AuroraScript%24&x=330980.984&y=162109.084&scale=1024", "start-date": "2017-12-31", "id": "0f2521abd23633c27eae03cc4e8ed3d8405e8ecd27e5c94beb9ed11fe9d288fa:28803"}}