{"type": "Feature", "geometry": {"type": "Point", "coordinates": [-0.17653, 51.551011]}, "properties": {"resource": "3e78936ef74bb70a45e871fcc3cf4345fb845c54dc5d3b437b7f039770a61431", "site-address": "51 Fitzjohn's Avenue London NW3 6PH", "deliverable": "yes", "end-date": "", "entry-date": "2019-09-15", "hazardous-substances": "", "hectares": "0.15", "maximum-net-dwellings": "8", "minimum-net-dwellings": "8", "notes": "Basement excavation with associated alterations, removal of rear conservatories, extension at 5th floor, replacement of dormer window with door, alterations to fenestration and conversion from 13 to 21 flats (7x1 bed, 12x2 bed,2x3 bed).", "organisation": "local-authority-eng:CMD", "ownership-status": "", "planning-permission-date": "2015-03-30", "planning-permission-history": "http://planningrecords.camden.gov.uk/Northgate/PlanningExplorer17/Generic/StdResults.aspx?PT=Planning%20Applications%20On-Line&SC=Application%20Number%20is%202013/7379/P%20and%20Date%20Validated%20is%20between%2001%20January%201927%20and%2031%20December%202017&FT=Planning%20Application%20Search%20Results&XMLSIDE=/Northgate/PlanningExplorer17/SiteFiles/Skins/Camden/Menus/PL.xml&XSLTemplate=/Northgate/PlanningExplorer17/SiteFiles/Skins/Camden/xslt/PL/PLResults.xslt&PS=10&XMLLoc=/Northgate/PlanningExplorer17/generic/XMLtemp/xtcpr1jw2rbnjc55fab2yvay/e4fda094-09eb-47bb-8907-6dc0f252b8b0.xml", "planning-permission-status": "permissioned", "planning-permission-type": "full planning permission", "point": "POINT(-0.17653 51.551011)", "site": "LBCBLR037", "site-plan-url": "https://opendata.camden.gov.uk/Environment/Brownfield-Land-Register-Map/g8xk-ktap", "start-date": "2017-12-22", "id": "3e78936ef74bb70a45e871fcc3cf4345fb845c54dc5d3b437b7f039770a61431:58015"}}