{"type": "Feature", "geometry": {"type": "Point", "coordinates": [-0.118773, 51.328885]}, "properties": {"site-plan-url": "http://publicaccess2.croydon.gov.uk/online-applications/applicationDetails.do?activeTab=summary&keyVal=OEXPJDJLIXH00", "minimum-net-dwellings": "7", "planning-permission-status": "permissioned", "deliverable": "yes", "start-date": "2018-11-30", "hectares": "0.1", "point": "POINT(-0.118773 51.328885)", "organisation": "local-authority-eng:CRY", "name": "16/05287/FUL", "ownership-status": "not owned by a public authority", "planning-permission-date": "2017-03-24", "maximum-net-dwellings": "7", "site": "16/05287/FUL", "site-address": "32a, Reedham Drive", "notes": "Demolition of existing building and erection of four storey building comprising 4 two bedroom and 3 three bedroom flats, associated parking and refuse store. http://publicaccess2.croydon.gov.uk/online-applications/applicationDetails.do?activeTab=summary&keyVal=OEXPJDJLIXH00", "planning-permission-history": "http://publicaccess2.croydon.gov.uk/online-applications/applicationDetails.do?activeTab=summary&keyVal=OEXPJDJLIXH00", "planning-permission-type": "full planning permission", "slug": "/brownfield-land/local-authority-eng/CRY/16-05287-FUL", "entry-date": "2018-11-30"}}