{"type": "Feature", "geometry": {"type": "Point", "coordinates": [-2.604983, 51.770688]}, "properties": {"site-address": "Adj The Laurels Sling", "name": "35", "site-plan-url": "https://maps.fdean.gov.uk/map/Aurora.svc/run?script=%5cAurora%5cFoDDC+-+SHLAA.AuroraScript%24&nocache=1347652503&resize=always&inspect_query=Brownfield_Land_Registery&inspect_value=Aurora34&scale=1024", "notes": "former builders yard and premises suitable for redevelopment 2019 update- no residential permissions.suitable for new housing or conversion", "minimum-net-dwellings": "12", "organisation": "local-authority-eng:FOE", "hectares": "0.48", "site": "35", "planning-permission-status": "not permissioned", "ownership-status": "not owned by a public authority", "point": "POINT(-2.604983 51.770688)", "start-date": "2017-10-31", "maximum-net-dwellings": "15", "slug": "/brownfield-land/local-authority-eng/FOE/35", "entity": 482663, "entry-date": "2020-02-05"}}