{"type": "Feature", "geometry": {"type": "Point", "coordinates": [-0.58515, 51.508351]}, "properties": {"hectares": "1.25", "organisation": "local-authority-eng:SLG", "notes": "SSA16. Residential or mixed use: business and residential.. http://webarchive.nationalarchives.gov.uk/20140328084622/http:/publications.environment-agency.gov.uk/pdf/SCHO0195BJKX-e-e.pdf", "maximum-net-dwellings": "0", "point": "POINT(-0.58515 51.508351)", "site-address": "Royal Mail Delivery Office, Wellington Street", "start-date": "2017-12-01", "site-plan-url": "http://www.slough.gov.uk/connect/analyst/mobile/#/main?mapcfg=public_brownfield_register", "name": "br3", "planning-permission-status": "not permissioned", "minimum-net-dwellings": "0", "site": "br3", "slug": "/brownfield-land/local-authority-eng/SLG/br3", "entry-date": "2019-12-06", "ownership-status": "not owned by a public authority"}}