{"type": "Feature", "geometry": {"type": "Point", "coordinates": [-0.081921, 51.457787]}, "properties": {"name": "16-AP-3035", "notes": "Demolition of existing 1960's two-storey building consisting of 4 flats (Class C3) and the erection of four-storey residential building plus lower ground level to include 9 residential units (Class C", "organisation": "local-authority-eng:SWK", "planning-permission-status": "permissioned", "site": "16-AP-3035", "deliverable": "yes", "minimum-net-dwellings": "0", "planning-permission-date": "2016-09-16", "hectares": "0.04", "planning-permission-type": "full planning permission", "start-date": "2017-12-20", "point": "POINT(-0.081921 51.457787)", "site-address": "117-119 East Dulwich Grove SE22 8PU", "maximum-net-dwellings": "0", "slug": "/brownfield-land/local-authority-eng/SWK/16-AP-3035", "entry-date": "2017-12-20"}}