{"type": "Feature", "geometry": {"type": "Point", "coordinates": [-1.130466, 52.786503]}, "properties": {"site-plan-url": "https://www.charnwood.gov.uk/pages/strategic_housing_and_employment_land_availability_assessments_2014", "organisation": "local-authority-eng:CHA", "name": "PSH373", "deliverable": "yes", "planning-permission-date": "2015-08-20", "minimum-net-dwellings": "6", "planning-permission-type": "full planning permission", "site-address": "Seymour House Seymour Road LE12 5AH", "planning-permission-status": "permissioned", "planning-permission-history": "http://portal.charnwood.gov.uk/Northgate/PlanningExplorerAA/Home.aspx", "start-date": "2017-11-16", "point": "POINT(-1.130466 52.786503)", "site": "PSH373", "ownership-status": "not owned by a public authority", "notes": "Conversion of dwelling and outbuildings to form six dwellings.", "hectares": "0.3", "maximum-net-dwellings": "6", "slug": "/brownfield-land/local-authority-eng/CHA/PSH373", "entry-date": "2019-12-19"}}