{"type": "Feature", "geometry": {"type": "Point", "coordinates": [-0.764962, 51.248897]}, "properties": {"organisation": "local-authority-eng:RUH", "notes": "Proposals would need to be built upon the existing fabric of the building, and active ground floor and town centre uses would be expected to support the viability and vitality of the town centre", "deliverable": "yes", "site": "SHELAA ID: 577", "name": "SHELAA ID: 577", "start-date": "2017-12-11", "point": "POINT(-0.764962 51.248897)", "maximum-net-dwellings": "25", "ownership-status": "owned by a public authority", "minimum-net-dwellings": "25", "site-address": "The Wellington Centre, Victoria Road, Aldershot", "hectares": "0.93", "planning-permission-status": "not permissioned", "site-plan-url": "http://www.rushmoor.gov.uk/article/10524/Brownfield-land-register", "slug": "/brownfield-land/local-authority-eng/RUH/-577", "entry-date": "2019-12-09"}}