{"type": "Feature", "geometry": {"type": "Point", "coordinates": [-0.61758, 51.18917]}, "properties": {"resource": "cd8c6b4aa33cb32a9a1107e1c3806900d377c0e2bb24621109aba5897c37c567", "site-address": "Westbrook Mills, Borough Road, Godalming", "deliverable": "yes", "end-date": "", "entry-date": "2018-12-12", "hazardous-substances": "", "hectares": "1.2", "maximum-net-dwellings": "128", "minimum-net-dwellings": "128", "notes": "Prior approval required and granted for the change of use from office (Use Class B1a) to residential (Use Class C3) to provide 128 dwellings with an additional prior approval required and granted for the change of use from office (Use class B1a) to residential (Use Class C3) to provide an additional 29 dwellings", "organisation": "local-authority-eng:WAE", "ownership-status": "not owned by a public authority", "planning-permission-date": "", "planning-permission-history": "http://planning360.waverley.gov.uk/planning/search-applications?civica.query.FullTextSearch=CR%2F2018%2F0017#VIEW?RefType=GFPlanning&KeyNo=325871&KeyText=Subject|http://planning360.waverley.gov.uk/planning/search-applications?civica.query.FullTextSearch=CR%2F2018%2F0011#VIEW?RefType=GFPlanning&KeyNo=321590&KeyText=Subject|http://planning360.waverley.gov.uk/planning/search-applications?civica.query.FullTextSearch=cr%2F2018%2F0007#VIEW?RefType=GFPlanning&KeyNo=319608&KeyText=Subject", "planning-permission-status": "not permissioned", "planning-permission-type": "", "point": "POINT(-0.61758 51.18917)", "site": "772", "site-plan-url": "http://85.92.197.215/ishare5.4.web/atsolomap_brownfieldreg.html", "start-date": "2018-12-12", "id": "cd8c6b4aa33cb32a9a1107e1c3806900d377c0e2bb24621109aba5897c37c567:60152"}}