{"type": "Feature", "geometry": {"type": "Point", "coordinates": [-1.908916, 53.710273]}, "properties": {"resource": "eb66e4540be788a73765aa6254fd0da1f961c9e902c0301a2cef2a7bbe9f402f", "site-address": "Church View Development Site, Church View, Sowerby Bridge.", "deliverable": "", "end-date": "", "entry-date": "2020-05-31", "hazardous-substances": "", "hectares": "1.23", "maximum-net-dwellings": "44", "minimum-net-dwellings": "44", "notes": "17/01345/OUT - Residential development of 44 houses (Outline). Granted 27.07.18. This site is also allocated as a New Housing Site in the Local Plan Publication Draft, LP1654.", "organisation": "local-authority-eng:CLD", "ownership-status": "mixed ownership", "planning-permission-date": "2018-07-27", "planning-permission-history": "https://portal.calderdale.gov.uk/online-applications/search.do?action=advanced", "planning-permission-status": "permissioned", "planning-permission-type": "outline planning permission", "point": "POINT(-1.908916 53.710273)", "site": "BLR128", "site-plan-url": "https://maps.calderdale.gov.uk/map/Aurora.svc/run?script=%5CAurora%5CScripts%5CBrownfield%20Land%20Register%202020.AuroraScript%24&nocache=b3a8172e-c974-a20b-e60c-877a0098b807&resize=always&inspect_query=BLR2020&inspect_value=BLR128", "start-date": "2020-05-31", "id": "eb66e4540be788a73765aa6254fd0da1f961c9e902c0301a2cef2a7bbe9f402f:62511"}}