{"type": "Feature", "geometry": {"type": "Point", "coordinates": [-2.189408, 53.001621]}, "properties": {"resource": "94136556187523fd3317532075e3676acfbb588aa3c4e937bd696c18c567a104", "site-address": "Former Falcon Works, Sturgess Street, Stoke-on-Trent, ST4 7QH", "deliverable": "yes", "end-date": "", "entry-date": "2017-12-31", "hazardous-substances": "", "hectares": "0.62", "maximum-net-dwellings": "43", "minimum-net-dwellings": "43", "notes": "", "organisation": "local-authority-eng:STE", "ownership-status": "not owned by a public authority", "planning-permission-date": "2014-11-12", "planning-permission-history": "", "planning-permission-status": "permissioned", "planning-permission-type": "full planning permission", "point": "POINT(-2.189408 53.001621)", "site": "56801", "site-plan-url": "https://webmaplayers.stoke.gov.uk/webmaplayers8/Map.aspx?MapName=SHLAA", "start-date": "2017-12-31", "id": "94136556187523fd3317532075e3676acfbb588aa3c4e937bd696c18c567a104:41412"}}