{"type": "Feature", "geometry": {"type": "Point", "coordinates": [-1.604294, 55.287938]}, "properties": {"resource": "aed5c6f79471ef3168d5210dbf8f7da13619f4238de52f4629dce0b92dafcda6", "name": "3207", "site-address": "Garage Site, Main Street, Red Row", "deliverable": "", "end-date": "17/11/2020", "entry-date": "2020-12-17", "hazardous-substances": "", "hectares": "0.35", "maximum-net-dwellings": "0", "minimum-net-dwellings": "0", "notes": "Site of a former petrol station, commercial garage and an associated bungalow. An application for construction of 8 homes was permitted in 2006 (CM/06/D/395). The site was vacant at the time of this proposal, demolition and clearance having already taken place. Development of 8 dwellings completed in 2019/20.", "organisation": "local-authority-eng:NBL", "ownership-status": "not owned by a public authority", "planning-permission-date": "2006-07-19", "planning-permission-history": "https://publicaccess.northumberland.gov.uk/online-applications/applicationDetails.do?activeTab=summary&keyVal=ZZZYSKLWXC836", "planning-permission-status": "permissioned", "planning-permission-type": "full planning permission", "point": "POINT(-1.604294 55.287938)", "site": "3207", "site-plan-url": "http://northumberland.maps.arcgis.com/apps/webappviewer/index.html?id=c1b801d50f8040efbf8c9bc9f916cfae", "start-date": "2017-12-17", "slug": "/brownfield-land/local-authority-eng/NBL/3207", "href": "local-authority-eng/NBL/3207"}}