{"type": "Feature", "geometry": {"type": "Point", "coordinates": [-0.727799, 51.244202]}, "properties": {"resource": "7699b2e8b2c443162c13445e32f32bc35c51be4d256d6845581c5fa1f70f9af8", "site-address": "Land to the rear of 2 Ash Street and at 4a Ash Street, Aldershot, Guildford, GU12 6LT", "deliverable": "yes", "end-date": "", "entry-date": "2019-11-01", "hazardous-substances": "", "hectares": "0.18", "maximum-net-dwellings": "10", "minimum-net-dwellings": "10", "notes": "Application ref. 17/P/02286. First floor roof extension and ground floor extensions to existing building at 4a Ash Street, Ash and conversion to create six flats; demolition of existing buildings to the rear of 2 Ash Street and erection of four flats with associated parking, cycle/bin storage, amenity space and landscaping.", "organisation": "local-authority-eng:GRT", "ownership-status": "not owned by a public authority", "planning-permission-date": "2018-10-23", "planning-permission-history": "http://www2.guildford.gov.uk/publicaccess/applicationDetails.do?activeTab=documents&keyVal=_GUILD_DCAPR_179854", "planning-permission-status": "permissioned", "planning-permission-type": "full planning permission", "point": "POINT(-0.727799 51.244202)", "site": "BLR_078", "site-plan-url": "https://www2.guildford.gov.uk/ishare5.2.web/atsolomap_brownfield_land_register.html", "start-date": "2019-11-01", "slug": "local-authority-eng/GRT/BLR-078"}}