{"type": "Feature", "geometry": {"type": "Point", "coordinates": [-0.578936, 54.019326]}, "properties": {"notes": "12/01304/PLF lapsed", "hectares": "0.2", "organisation": "local-authority-eng:ERY", "planning-permission-history": "https://newplanningaccess.eastriding.gov.uk/newplanningaccess/PLAN/12/01304/PLF", "minimum-net-dwellings": "5", "site-plan-url": "https://newplanningaccess.eastriding.gov.uk/newplanningaccess/PLAN/12/01304/PLF", "maximum-net-dwellings": "5", "planning-permission-status": "not permissioned", "site-address": "Land North Of 30 Main Street, Wetwang", "point": "POINT(-0.578936 54.019326)", "site": "BF/181", "start-date": "2016-07-12", "ownership-status": "not owned by a public authority", "name": "BF/181", "slug": "/brownfield-land/local-authority-eng/ERY/BF-181", "entry-date": "2021-03-31"}}