{"type": "Feature", "geometry": {"type": "Point", "coordinates": [-2.125841, 52.588463]}, "properties": {"point": "POINT(-2.125841 52.588463)", "planning-permission-status": "permissioned", "organisation": "local-authority-eng:WLV", "site": "39940", "site-address": "Central Taxis 38 Thornley Street Wolverhampton West Midlands WV1 1JP", "name": "39940", "start-date": "2018-01-01", "hectares": "0.006", "slug": "/brownfield-land/local-authority-eng/WLV/39940", "entity": 501705, "entry-date": "2018-01-01"}}