{"type": "Feature", "geometry": {"type": "Point", "coordinates": [-2.238139, 53.463547]}, "properties": {"point": "POINT(-2.238139 53.463547)", "site-address": "McDougall Centre, Burlington Street (STUDENT)", "site": "Hulm1903", "hectares": "0.39", "minimum-net-dwellings": "200", "name": "Hulm1903", "maximum-net-dwellings": "200", "start-date": "2019-12-31", "notes": "Approx 'MinNetDwellings' expected however proposals for a higher number of dwellings will be considered. No maximum has been set but all proposals must be in line with the Council's design quality requirements and any relevant Council-endorsed planning framework or masterplan", "site-plan-url": "https://mappinggm.org.uk/gmodin/", "organisation": "local-authority-eng:MAN", "slug": "/brownfield-land/local-authority-eng/MAN/Hulm1903", "entity": 487318, "entry-date": "2020-12-31", "planning-permission-status": "not permissioned", "planning-permission-history": "http://pa.manchester.gov.uk/online-applications/"}}