{"type": "Feature", "geometry": {"type": "Point", "coordinates": [-2.343, 53.732]}, "properties": {"hectares": "0.4", "hazardous-substances": "yes", "ownership-status": "not owned by a public authority", "site-address": "Former Service Station, Land off Manchester Road, Baxenden", "organisation": "local-authority-eng:HYN", "minimum-net-dwellings": "12", "name": "104", "start-date": "2016-06-27", "planning-permission-history": "http://planning.hyndburnbc.gov.uk/WAM/searchsubmit/performOption.do?action=search&appType=Planning", "point": "POINT(-2.343 53.732)", "site": "104", "maximum-net-dwellings": "12", "planning-permission-status": "Not Permissioned", "notes": "Deliverable - No - SHLAA C2. https://www.hyndburnbc.gov.uk/search-for-planning-information-using-online-mapping-2/11/", "site-plan-url": "https://www.hyndburnbc.gov.uk/download-package/brownfield-register-siteplans/", "slug": "/brownfield-land/local-authority-eng/HYN/104", "entry-date": "2017-12-06"}}