{"type": "Feature", "geometry": {"type": "Point", "coordinates": [-2.245531, 53.491953]}, "properties": {"site-plan-url": "https://mappinggm.org.uk/gmodin/", "name": "110944/P3OPA/2016/N1", "deliverable": "yes", "organisation": "local-authority-eng:MAN", "notes": "Notification of prior approval for change of use of ground to 3rd floor from office (class B1a) to 20 apartments (Class C3)", "start-date": "2017-12-31", "hectares": "0.05", "planning-permission-date": "2016-04-07", "site": "110944/P3OPA/2016/N1", "minimum-net-dwellings": "20", "planning-permission-status": "permissioned", "planning-permission-type": "full planning permission", "point": "POINT(-2.245531 53.491953)", "maximum-net-dwellings": "20", "site-address": "Ground to third floors, Globe House 30- 34 Southall Street Cheetham", "planning-permission-history": "http://pa.manchester.gov.uk/online-applications/", "slug": "/brownfield-land/local-authority-eng/MAN/110944-P3OPA-2016-N1", "entity": 501020, "entry-date": "2017-12-31"}}