{"type": "Feature", "geometry": {"type": "Point", "coordinates": [-2.601915, 53.394611]}, "properties": {"site-address": "56-58 Bewsey Road, Bewsey, Warrington, WA2 7LS", "point": "POINT(-2.601915 53.394611)", "minimum-net-dwellings": "13", "organisation": "local-authority-eng:WRT", "site": "1821.0", "notes": "Not applicable", "planning-permission-status": "Not Permissioned", "maximum-net-dwellings": "13", "start-date": "2018-12-01", "name": "1821.0", "hectares": "0.1", "slug": "/brownfield-land/local-authority-eng/WRT/1821-0", "entity": 499700, "entry-date": "2018-12-01"}}