{"type": "Feature", "geometry": {"type": "Point", "coordinates": [-2.165912, 53.02308]}, "properties": {"start-date": "2017-12-31", "organisation": "local-authority-eng:STE", "minimum-net-dwellings": "34", "planning-permission-type": "full planning permission", "name": "0153", "hectares": "2.91", "planning-permission-status": "permissioned", "site": "0153", "site-plan-url": "https://webmaplayers.stoke.gov.uk/webmaplayers8/Map.aspx?MapName=SHLAA", "maximum-net-dwellings": "34", "notes": "Planning Reference 58689. Erection of 111 dwelling houses with associated landscaping, road works and parking", "ownership-status": "not owned by a public authority", "point": "POINT(-2.165912 53.02308)", "planning-permission-date": "2015-11-25", "site-address": "City Waterside", "deliverable": "yes", "slug": "/brownfield-land/local-authority-eng/STE/0153", "entity": 501197, "entry-date": "2017-12-31"}}