{"type": "Feature", "geometry": {"type": "Point", "coordinates": [0.15753, 52.220859]}, "properties": {"organisation": "local-authority-eng:CAB", "planning-permission-date": "2017-08-21", "name": "16/0617/FUL", "hectares": "0.42", "point": "POINT(0.15753 52.220859)", "start-date": "2017-12-15", "minimum-net-dwellings": "13", "deliverable": "yes", "site-address": "Hayling House, Fen Road", "notes": "Erection of 14 flats. https://idox.cambridge.gov.uk/online-applications/", "planning-permission-status": "permissioned", "planning-permission-history": "https://idox.cambridge.gov.uk/online-applications/", "site-plan-url": "https://www.cambridge.gov.uk/sites/default/files/brownfield-site-16-0617-ful.pdf", "planning-permission-type": "full planning permission", "ownership-status": "not owned by a public authority", "maximum-net-dwellings": "13", "site": "16/0617/FUL", "slug": "/brownfield-land/local-authority-eng/CAB/16-0617-FUL", "entry-date": "2017-12-15"}}