{"type": "Feature", "geometry": {"type": "Point", "coordinates": [-4.428591, 53.203509]}, "properties": {"resource": "51a4645f1ec17bc96ce5977764db8ba4f8080e5d79f11a39394286a8380a67f8", "site-address": "Birch Vale Industrial Estate", "deliverable": "", "end-date": "", "entry-date": "2019-12-18", "hazardous-substances": "", "hectares": "4.4", "maximum-net-dwellings": "100", "minimum-net-dwellings": "100", "notes": "", "organisation": "local-authority-eng:HIG", "ownership-status": "not owned by a public authority", "planning-permission-date": "", "planning-permission-history": "", "planning-permission-status": "not permissioned", "planning-permission-type": "", "point": "POINT(-4.428591 53.203509)", "site": "BV002", "site-plan-url": "https://www.highpeak.gov.uk/media/4697/Brownfield-Register-2019/pdf/HPBC_Brownfield_Register_2019_Maps.pdf?m=1576509189877", "start-date": "2017-11-30", "id": "51a4645f1ec17bc96ce5977764db8ba4f8080e5d79f11a39394286a8380a67f8:19146"}}