{"type": "Feature", "geometry": {"type": "Point", "coordinates": [-0.111671, 51.371774]}, "properties": {"resource": "c9efead8107b7fdb58be9dd4117badd72df58f56a9137ea12110b570fd200003", "site-address": "1-3 Bridge Brigade, Waddon Road", "deliverable": "yes", "end-date": "", "entry-date": "2018-11-30", "hazardous-substances": "", "hectares": "0.037", "maximum-net-dwellings": "9", "minimum-net-dwellings": "9", "notes": "Alterations; conversion to form 2 two bedroom and 7 one bedroom flats and construction of first floor level with dormer extensions. Provision of amenity space and bike storage. http://publicaccess2.croydon.gov.uk/online-applications/applicationDetails.do?activeTab=summary&keyVal=OCS5WNJLHDO00", "organisation": "local-authority-eng:CRY", "ownership-status": "not owned by a public authority", "planning-permission-date": "2016-11-09", "planning-permission-history": "http://publicaccess2.croydon.gov.uk/online-applications/applicationDetails.do?activeTab=summary&keyVal=OCS5WNJLHDO00", "planning-permission-status": "permissioned", "planning-permission-type": "full planning permission", "point": "POINT(-0.111671 51.371774)", "site": "16/04519/FUL", "site-plan-url": "http://publicaccess2.croydon.gov.uk/online-applications/applicationDetails.do?activeTab=summary&keyVal=OCS5WNJLHDO00", "start-date": "2018-11-30", "id": "16-04519-FUL"}}