{"type": "Feature", "geometry": {"type": "Point", "coordinates": [-2.441186, 50.558978]}, "properties": {"site": "WP/UNDE/002", "minimum-net-dwellings": "3", "planning-permission-status": "not permissioned", "start-date": "2017-12-31", "point": "POINT(-2.441186 50.558978)", "maximum-net-dwellings": "3", "notes": "https://webapps.westdorset-weymouth.gov.uk/ShelaaWebsite/pages/Site.aspx?i=445", "site-address": "Land to the West of Fortuneswell", "site-plan-url": "https://westdorsetdc.maps.arcgis.com/apps/webappviewer/index.html?id=9c2ae08ea4bf4b47b1aaa284d709b407&level=19&center=368845,73340,27700", "organisation": "local-authority-eng:WEY", "ownership-status": "owned by a public authority", "hectares": "0.04", "name": "WP/UNDE/002", "slug": "/brownfield-land/local-authority-eng/WEY/WP-UNDE-002", "entry-date": "2017-12-15"}}