{"type": "Feature", "geometry": {"type": "Point", "coordinates": [-0.040992, 51.491197]}, "properties": {"site-address": "Croft Street Depot", "hectares": "0.47", "maximum-net-dwellings": "47", "name": "NSP79", "site": "NSP79", "organisation": "local-authority-eng:SWK", "planning-permission-status": "not permissioned", "minimum-net-dwellings": "47", "point": "POINT(-0.040992 51.491197)", "start-date": "2020-03-25", "slug": "/brownfield-land/local-authority-eng/SWK/NSP79", "entry-date": "2020-03-25"}}