{"type": "Feature", "geometry": {"type": "Point", "coordinates": [-2.563472, 51.50763]}, "properties": {"resource": "447b5bde61e45607272c92a29d3b033d282a8c5bc778e2c87153baacefb125f1", "site-address": "Land Rear Of 160-166 Station Road Filton Bristol South Gloucestershire BS34 7JW", "deliverable": "yes", "end-date": "", "entry-date": "2018-12-31", "hazardous-substances": "", "hectares": "0.20", "maximum-net-dwellings": "9", "minimum-net-dwellings": "9", "notes": "New development of 9 new dwellings with new access and associated works", "organisation": "local-authority-eng:SGC", "ownership-status": "not owned by a public authority", "planning-permission-date": "2016-04-22", "planning-permission-history": "https://developments.southglos.gov.uk/online-applications/applicationDetails.do?activeTab=summary&keyVal=O100OMOKGEM00", "planning-permission-status": "permissioned", "planning-permission-type": "full planning permission", "point": "POINT(-2.563472 51.50763)", "site": "86", "site-plan-url": "https://developments.southglos.gov.uk/online-applications/applicationDetails.do?activeTab=map&keyVal=O100OMOKGEM00", "start-date": "2017-12-31", "id": "447b5bde61e45607272c92a29d3b033d282a8c5bc778e2c87153baacefb125f1:35992"}}