{"type": "Feature", "geometry": {"type": "Point", "coordinates": [-2.237164, 53.494235]}, "properties": {"resource": "cda594071d5691a5427f7128107ea9c4ac744c9a9668436f7dbb95cfc1885190", "site-address": "13 Stanley Street Cheetham", "deliverable": "yes", "end-date": "", "entry-date": "2019-12-31", "hazardous-substances": "", "hectares": "0.038569", "maximum-net-dwellings": "7", "minimum-net-dwellings": "7", "notes": "Notification for prior approval to change the use of the building from offices (Class B1a) to 7 apartments (Class C3)", "organisation": "local-authority-eng:MAN", "ownership-status": "", "planning-permission-date": "2019-01-29", "planning-permission-history": "http://pa.manchester.gov.uk/online-applications/", "planning-permission-status": "permissioned", "planning-permission-type": "full planning permission", "point": "POINT(-2.237164 53.494235)", "site": "122031/P3OPA/2018", "site-plan-url": "https://mappinggm.org.uk/gmodin/?lyrs=brownfield_2019_gm#os_maps_light/18/53.494235/-2.237164", "start-date": "2019-12-31", "id": "122031-P3OPA-2018"}}