{"type": "Feature", "geometry": {"type": "Point", "coordinates": [-1.425759, 52.226382]}, "properties": {"resource": "9d0b2a97d543bc415e79c2b01029253764c04249c56b2147c2c64ac89f3b7adb", "site-address": "Former Harbury Cement Works, Station Road, Bishops Itchington.''", "deliverable": "yes", "end-date": "", "entry-date": "2018-12-05", "hazardous-substances": "", "hectares": "3.7", "maximum-net-dwellings": "80", "minimum-net-dwellings": "80", "notes": "Erection of up to 80 dwellings with associated public open space and play facilities, access, drainage, infrastructure and parking.", "organisation": "local-authority-eng:STR", "ownership-status": "not owned by a public authority", "planning-permission-date": "2016-09-23", "planning-permission-history": "https://apps.stratford.gov.uk/eplanning/PropDetail.aspx?ref=O0IUELPM0H200", "planning-permission-status": "permissioned", "planning-permission-type": "outline planning permission", "point": "POINT(-1.425759 52.226382)", "site": "SDC00024", "site-plan-url": "https://apps.stratford.gov.uk/eplanning/Map.aspx", "start-date": "2017-12-08", "id": "9d0b2a97d543bc415e79c2b01029253764c04249c56b2147c2c64ac89f3b7adb:43382"}}