{"type": "Feature", "geometry": {"type": "Point", "coordinates": [0.427087, 50.84433]}, "properties": {"resource": "41305fbf719dd834f732759e7ce28756eb086e7cecfc6c974052ec539e02f6d9", "site-address": "45-47 Barnhorn Road, Bexhill", "deliverable": "", "end-date": "", "entry-date": "2019-10-01", "hazardous-substances": "", "hectares": "0.06", "maximum-net-dwellings": "6", "minimum-net-dwellings": "6", "notes": "This brownfield site is part of a larger site that includes greenfield land. The minimum net dwellings figure of 6 relates only to the brownfield part of this site, the whole site, including the greenfield part, has a permission for 8 dwellings (RR/2016/2430/P - Proposed demolition of two existing large dwelling houses and construction of eight 2 bedroom apartments and two 3 bedroom apartments across two blocks with associated parking and landscaping).", "organisation": "local-authority-eng:ROH", "ownership-status": "not owned by a public authority", "planning-permission-date": "2017-09-20", "planning-permission-history": "http://planweb01.rother.gov.uk/OcellaWeb/planningDetails?reference=RR/2016/2430/P&from=planningSearch|http://planweb01.rother.gov.uk/OcellaWeb/planningDetails?reference=RR/2012/2115/P&from=planningSearch", "planning-permission-status": "permissioned", "planning-permission-type": "full planning permission", "point": "POINT(0.427087 50.84433)", "site": "RDCBLR0014", "site-plan-url": "https://www.rother.gov.uk/wp-content/uploads/2020/07/brownfieldlandregister_siteplan_rdcblr0014_011019.pdf", "start-date": "2017-10-01", "id": "41305fbf719dd834f732759e7ce28756eb086e7cecfc6c974052ec539e02f6d9:13502"}}