{"type": "Feature", "geometry": {"type": "Point", "coordinates": [-4.79327, 50.340048]}, "properties": {"resource": "a2308e58ac12fd150bbd8b34eff1a29552a88e5d0a84abee6ed79048d25d183c", "site-address": "Sedgemoor Centre Priory Road St Austell PL25 5AB", "deliverable": "yes", "end-date": "", "entry-date": "2017-12-12", "hazardous-substances": "", "hectares": "1.39", "maximum-net-dwellings": "65", "minimum-net-dwellings": "65", "notes": "Prior Notification for the change of use of offices (Class B1a) to form 65 apartments.", "organisation": "local-authority-eng:CON", "ownership-status": "not owned by a public authority", "planning-permission-date": "2017-01-03", "planning-permission-history": "http://planning.cornwall.gov.uk/online-applications/", "planning-permission-status": "permissioned", "planning-permission-type": "other", "point": "POINT(-4.79327 50.340048)", "site": "BR27", "site-plan-url": "https://map.cornwall.gov.uk/website/ccmap/?zoomlevel=1&xcoord=166583&ycoord=63854&wsName=ccmap&layerName=Brownfield%20register", "start-date": "2017-12-12", "id": "a2308e58ac12fd150bbd8b34eff1a29552a88e5d0a84abee6ed79048d25d183c:34561"}}