{"type": "Feature", "geometry": {"type": "Point", "coordinates": [-0.303648, 51.307354]}, "properties": {"start-date": "2018-12-18", "notes": "Under Construction", "minimum-net-dwellings": "8", "site-address": "Whitefriars, Ottways Lane, Ashtead, Surrey, KT21 2PB", "point": "POINT(-0.303648 51.307354)", "ownership-status": "not owned by a public authority", "organisation": "local-authority-eng:MOL", "name": "BLR22", "planning-permission-date": "2018-09-07", "planning-permission-type": "full planning permission", "deliverable": "yes", "maximum-net-dwellings": "8", "site": "BLR22", "site-plan-url": "https://molevalley.cloudmappin.com/mmv/", "planning-permission-status": "permissioned", "planning-permission-history": "http://www.molevalley.gov.uk/swiftlg/apas/run/WPHAPPDETAIL.DisplayUrl?theApnID=MO/2018/0500", "hectares": "0.2", "slug": "/brownfield-land/local-authority-eng/MOL/BLR22", "entity": 487748, "entry-date": "2020-01-14", "end-date": "2020-01-14"}}