{"type": "Feature", "geometry": {"type": "Point", "coordinates": [-0.081688, 51.487383]}, "properties": {"resource": "69584001774ee43f8bc3e6df5517c2b8eb3109bcb6db5e1e5103e9ff594f2c22", "site-address": "109,Kinglake Street,,SE17 2RD", "deliverable": "", "end-date": "", "entry-date": "2020-03-24", "hazardous-substances": "", "hectares": "0.019", "maximum-net-dwellings": "1", "minimum-net-dwellings": "1", "notes": "Erection of fourth floor roof extension to provide two bed, three person unit; installation of roof terrace at fourth floor", "organisation": "local-authority-eng:SWK", "ownership-status": "", "planning-permission-date": "2019-05-31", "planning-permission-history": "", "planning-permission-status": "", "planning-permission-type": "", "point": "POINT(-0.081688 51.487383)", "site": "18-AP-1798", "site-plan-url": "", "start-date": "2020-03-24", "id": "18-AP-1798"}}