{"type": "Feature", "geometry": {"type": "Point", "coordinates": [-1.5655, 53.798806]}, "properties": {"planning-permission-date": "2016-07-14", "maximum-net-dwellings": "1010", "name": "SHL00065", "site-address": "Land at Kirkstall Road and land off Wellington Road", "site-plan-url": "https://leedscc.maps.arcgis.com/apps/webappviewer/index.html?id=612532561dc547fa93e683a5fca73079&find=SHL00065", "organisation": "local-authority-eng:LDS", "notes": "Outline application for mixed use development comprising residential (C3/C4), student accommodation (C3/C4), A1-A5, B1, D1 and D2 units, public open space, landscaping, pedestrian river bridge, alterations to site access and highway improvements", "ownership-status": "not owned by a public authority", "point": "POINT(-1.5655 53.798806)", "planning-permission-status": "permissioned", "minimum-net-dwellings": "1010", "site": "SHL00065", "planning-permission-type": "outline planning permission", "deliverable": "yes", "hectares": "2.08", "start-date": "2016-11-07", "slug": "/brownfield-land/local-authority-eng/LDS/SHL00065", "entity": 485558, "entry-date": "2016-11-07"}}