{"type": "Feature", "geometry": {"type": "Point", "coordinates": [-1.727523, 53.795899]}, "properties": {"resource": "45943bab01aef31a1c8c60cb8eb9a9385275b491a3dc6d4f2d0572902c54d0e9", "site-address": "Folkestone Street, Bradford Moor", "deliverable": "yes", "end-date": "", "entry-date": "2018-11-01", "hazardous-substances": "", "hectares": "0.07", "maximum-net-dwellings": "0", "minimum-net-dwellings": "0", "notes": "Former garage site with detailed permission for 8 units", "organisation": "local-authority-eng:BRD", "ownership-status": "not owned by a public authority", "planning-permission-date": "2016-04-14", "planning-permission-history": "https://planning.bradford.gov.uk/online-applications/applicationDetails.do?keyVal=9600537OUT&activeTab=summary|https://planning.bradford.gov.uk/online-applications/applicationDetails.do?keyVal=LCE8R8DH0I700&activeTab=summary|https://planning.bradford.gov", "planning-permission-status": "permissioned", "planning-permission-type": "full planning permission", "point": "POINT(-1.727523 53.795899)", "site": "NE/111", "site-plan-url": "http://cbmdc.maps.arcgis.com/apps/webappviewer/index.html?id=2134938ccf5843649ef0e555c0926dae&extent=418024.6,433307.4,418065.9869,433335.2353,27700", "start-date": "2017-11-01", "id": "NE-111"}}