{"type": "Feature", "geometry": {"type": "Point", "coordinates": [-2.213947, 53.06318]}, "properties": {"resource": "652e2cd8d2bcd59541c71dbece4d6630f62b34625b907055254f560619dba11d", "site-address": "Former pottery, Parsonage Street, Tunstall", "deliverable": "", "end-date": "", "entry-date": "2018-12-31", "hazardous-substances": "", "hectares": "0.49", "maximum-net-dwellings": "28", "minimum-net-dwellings": "28", "notes": "", "organisation": "local-authority-eng:STE", "ownership-status": "", "planning-permission-date": "", "planning-permission-history": "", "planning-permission-status": "not permissioned", "planning-permission-type": "", "point": "POINT(-2.213947 53.06318)", "site": "0222", "site-plan-url": "https://webmaplayers.stoke.gov.uk/webmaplayers8/Map.aspx?MapName=SHLAA", "start-date": "2017-12-31", "id": "652e2cd8d2bcd59541c71dbece4d6630f62b34625b907055254f560619dba11d:25784"}}