{"type": "Feature", "geometry": {"type": "Point", "coordinates": [-0.095449, 51.446624]}, "properties": {"resource": "53ff7410d03797e7747d4df128ca450bbe808f4eacc79d0e2d18623ab4a99554", "site-address": "Land Rear Of 144a Croxted Road Aka Garage No 3 Turney Road SE21 8NW", "deliverable": "yes", "end-date": "", "entry-date": "2017-12-20", "hazardous-substances": "", "hectares": "0.01", "maximum-net-dwellings": "0", "minimum-net-dwellings": "0", "notes": "Demolition of existing single storey garage building and construction of a two bedroom dwelling over two storeys", "organisation": "local-authority-eng:SWK", "ownership-status": "", "planning-permission-date": "2016-11-09", "planning-permission-history": "", "planning-permission-status": "permissioned", "planning-permission-type": "full planning permission", "point": "POINT(-0.095449 51.446624)", "site": "16-AP-2773", "site-plan-url": "", "start-date": "2017-12-20", "id": "53ff7410d03797e7747d4df128ca450bbe808f4eacc79d0e2d18623ab4a99554:38872"}}