{"type": "Feature", "geometry": {"type": "Point", "coordinates": [-0.138699, 51.524497]}, "properties": {"resource": "86dee119f806d0c7f62295e6aae502851827e848202c4e43e833126ed62773db", "site-address": "Allgood Plc 297 Euston Road London NW1 3AQ", "deliverable": "yes", "end-date": "", "entry-date": "2018-10-12", "hazardous-substances": "", "hectares": "0.029999999999999999", "maximum-net-dwellings": "7", "minimum-net-dwellings": "7", "notes": "Change of use of 2nd to 5th floors from offices (Use Class B1) to 7 x residential units (Use Class C3) with extension at roof level, alterations to front and rear fenestration and formation of a light", "organisation": "local-authority-eng:CMD", "ownership-status": "", "planning-permission-date": "2014-10-06", "planning-permission-history": "http://planningrecords.camden.gov.uk/Northgate/PlanningExplorer17/Generic/StdResults.aspx?PT=Planning%20Applications%20On-Line&SC=Application%20Number%20is%202013/8136/P%20and%20Date%20Validated%20is%", "planning-permission-status": "permissioned", "planning-permission-type": "full planning permission", "point": "POINT(-0.138699 51.524497)", "site": "LBCBLR038", "site-plan-url": "https://opendata.camden.gov.uk/Environment/Camden-Brownfield-Register-Polygons/wi65-z696/data", "start-date": "2018-10-12", "id": "86dee119f806d0c7f62295e6aae502851827e848202c4e43e833126ed62773db:36577"}}