{"type": "Feature", "geometry": {"type": "Point", "coordinates": [1.706893, 52.510028]}, "properties": {"start-date": "2017-12-01", "point": "POINT(1.706893 52.510028)", "planning-permission-status": "permissioned", "planning-permission-history": "http://publicaccess.eastsuffolk.gov.uk/online-applications/applicationDetails.do?activeTab=summary&keyVal=O7OBW6QX01F00", "site": "ES021", "deliverable": "yes", "hectares": "9.86", "name": "ES021", "organisation": "local-authority-eng:ESK", "minimum-net-dwellings": "130", "planning-permission-date": "2016-06-30", "ownership-status": "not owned by a public authority", "site-address": "Former H M Prison Blundeston Lakeside Rise Blundeston Suffolk", "planning-permission-type": "full planning permission", "maximum-net-dwellings": "130", "notes": "Owned by a developer and expected to complete by 2025", "site-plan-url": "http://eastsuffolk.maps.arcgis.com/apps/MapJournal/index.html?appid=6eb61ef7c03744668814fba6f1587f4e", "slug": "/brownfield-land/local-authority-eng/ESK/ES021", "entry-date": "2017-12-01"}}