{"type": "Feature", "geometry": {"type": "Point", "coordinates": [-2.913837, 54.187027]}, "properties": {"resource": "37c12dfb931e781d57d4fcd5bff61adf0a61fc093e03e3530a4ffc1b9af874de", "site-address": "Mixed use allocation at Berners Pool, Grange", "deliverable": "yes", "end-date": "", "entry-date": "2017-12-01", "hazardous-substances": "", "hectares": "0.61", "maximum-net-dwellings": "40", "minimum-net-dwellings": "20", "notes": "", "organisation": "local-authority-eng:SLA", "ownership-status": "owned by a public authority", "planning-permission-date": "", "planning-permission-history": "", "planning-permission-status": "not permissioned", "planning-permission-type": "", "point": "POINT(-2.913837 54.187027)", "site": "BLR10", "site-plan-url": "https://my.southlakeland.gov.uk/mysouthlakeland.aspx?SouthLakes/MyMapsSouthLakes&SearchLayer=Brownfield&SearchField=site_ref&SearchValue=BLR10", "start-date": "2017-12-01", "id": "37c12dfb931e781d57d4fcd5bff61adf0a61fc093e03e3530a4ffc1b9af874de:57554"}}