{"type": "Feature", "geometry": {"type": "Point", "coordinates": [-3.034107, 53.631352]}, "properties": {"resource": "9910dd4103ad4bbffccde59fb625d80a09c83657cb0444afa08725ed48746097", "site-address": "18-20, Granville Road, Southport", "deliverable": "yes", "end-date": "", "entry-date": "2019-11-01", "hazardous-substances": "", "hectares": "0.47", "maximum-net-dwellings": "0", "minimum-net-dwellings": "0", "notes": "Various permissions - Partial brownfield. The site is in a Conservation Area and as such design standards apply. Minimum figure based on there being a number of apartments.. Site of detached properties and rear gardens.", "organisation": "local-authority-eng:SFT", "ownership-status": "not owned by a public authority", "planning-permission-date": "2017-07-21", "planning-permission-history": "", "planning-permission-status": "permissioned", "planning-permission-type": "full planning permission", "point": "POINT(-3.034107 53.631352)", "site": "S0247", "site-plan-url": "", "start-date": "2017-10-17", "id": "9910dd4103ad4bbffccde59fb625d80a09c83657cb0444afa08725ed48746097:64137"}}