{"type": "Feature", "geometry": {"type": "Point", "coordinates": [0.187189, 51.479865]}, "properties": {"site": "BLR105", "planning-permission-status": "not permissioned", "ownership-status": "not owned by a public authority", "hectares": "0.07", "start-date": "2017-12-07", "maximum-net-dwellings": "5", "notes": "See Manor Road (North West) Site F Planning Brief (1996) and UDP Policy TS5", "name": "BLR105", "point": "POINT(0.187189 51.479865)", "site-plan-url": "http://www.bexley.gov.uk/sites/bexley-cms/files/2017-12/Abbey-Car-Breakers-Wheatley-Terrace-Road-Erith.pdf", "site-address": "Abbey Car Breakers, Wheatley Terrace Road, Erith (Balance Site F)", "organisation": "local-authority-eng:BEX", "minimum-net-dwellings": "5", "planning-permission-history": "http://pa.bexley.gov.uk/online-applications/spatialDisplay.do?action=display&searchType=Application", "slug": "/brownfield-land/local-authority-eng/BEX/BLR105", "entity": 475596, "entry-date": "2017-12-07"}}