{"type": "Feature", "geometry": {"type": "Point", "coordinates": [-0.077382, 51.469681]}, "properties": {"resource": "86dee119f806d0c7f62295e6aae502851827e848202c4e43e833126ed62773db", "site-address": "97 Azenby Road SE15 5AJ", "deliverable": "yes", "end-date": "", "entry-date": "2017-12-20", "hazardous-substances": "", "hectares": "0", "maximum-net-dwellings": "0", "minimum-net-dwellings": "0", "notes": "Change of use of a vacant shop unit (A1 Class) to a studio flat (Use Class C3a)", "organisation": "local-authority-eng:SWK", "ownership-status": "", "planning-permission-date": "2015-09-09", "planning-permission-history": "", "planning-permission-status": "permissioned", "planning-permission-type": "full planning permission", "point": "POINT(-0.077382 51.469681)", "site": "15-AP-1900", "site-plan-url": "", "start-date": "2017-12-20", "id": "86dee119f806d0c7f62295e6aae502851827e848202c4e43e833126ed62773db:36277"}}