{"type": "Feature", "geometry": {"type": "Point", "coordinates": [1.117255, 51.371409]}, "properties": {"resource": "da787466995e063f8e2c510c82b805cd1e28e229227540cc63287abe00bd2a18", "site-address": "St Benedict Nursing Home, 22-23 St George's Terrace, Herne Bay, CT6 8RH", "deliverable": "yes", "end-date": "", "entry-date": "2019-12-09", "hazardous-substances": "", "hectares": "0.09", "maximum-net-dwellings": "10", "minimum-net-dwellings": "10", "notes": "Proposed change of use from care home to residential; together with two-storey rear and roof extension, to provide 10 apartments.", "organisation": "local-authority-eng:CAT", "ownership-status": "", "planning-permission-date": "2017-10-03", "planning-permission-history": "", "planning-permission-status": "permissioned", "planning-permission-type": "full planning permission", "point": "POINT(1.117255 51.371409)", "site": "BR-088", "site-plan-url": "https://mapping.canterbury.gov.uk/webapps/Brownfield_Sites/?center=617063,168206,27700&scale=500", "start-date": "2017-11-01", "id": "da787466995e063f8e2c510c82b805cd1e28e229227540cc63287abe00bd2a18:58027"}}