{"type": "Feature", "geometry": {"type": "Point", "coordinates": [0.206079, 52.695569]}, "properties": {"resource": "fde09388a71ca5cac45a73d86e108565aa8fba070227ce07e655ead4e347e6a6", "site-address": "239 Salts Road, West Walton", "deliverable": "yes", "end-date": "", "entry-date": "2017-11-16", "hazardous-substances": "", "hectares": "0.96", "maximum-net-dwellings": "20", "minimum-net-dwellings": "20", "notes": "12/00294/RMM - Reserved Matters Application - Construction of 26 dwellings", "organisation": "local-authority-eng:KIN", "ownership-status": "not owned by a public authority", "planning-permission-date": "2012-10-05", "planning-permission-history": "https://online.west-norfolk.gov.uk/online-applications/applicationDetails.do?activeTab=documents&keyVal=LZXUVAIV39000", "planning-permission-status": "permissioned", "planning-permission-type": "full planning permission", "point": "POINT(0.206079 52.695569)", "site": "26", "site-plan-url": "https://www.west-norfolk.gov.uk/downloads/download/582/brownfield_site_maps", "start-date": "2017-11-16", "id": "fde09388a71ca5cac45a73d86e108565aa8fba070227ce07e655ead4e347e6a6:66598"}}