{"type": "Feature", "geometry": {"type": "Point", "coordinates": [-1.53197, 53.136632]}, "properties": {"point": "POINT(-1.53197 53.136632)", "deliverable": "yes", "organisation": "local-authority-eng:DEB", "start-date": "2017-12-06", "minimum-net-dwellings": "42", "planning-permission-history": "https://planning.derbyshiredales.gov.uk/online-applications/applicationDetails.do?activeTab=summary&keyVal=JYNIPIFU02L00", "planning-permission-type": "full planning permission", "site-plan-url": "http://www.derbyshiredales.gov.uk/images/documents/B/Brownfield_Land_Register_Part_One_SHLAA80_-_Tansley_Wood_Mills.pdf", "site": "SHLAA80", "planning-permission-date": "2013-03-27", "notes": "08/00261/FUL Redevelopment of site to include conversion of former textile mill building to create 17 no. residential units, erection of 19 no. new build residential units, erection of 8 no. new build commercial units, 4 no. office units including 6 no. loft apartments, conversion of existing garneting sheds into 4 no. live/craftwork units, erection of 3 no. new build live/craftwork units and 1 no. stand alone craft unit. Conversion of old forge building into cafe/bar/restaurant with B & B accommodation. Demolition of remaining structures, site decontamination works, restoration of watercourses and associated access alterations.", "maximum-net-dwellings": "42", "site-address": "Tansley Wood Mills, Lumsdale Road", "planning-permission-status": "permissioned", "hectares": "3.52", "ownership-status": "not owned by a public authority", "name": "SHLAA80", "slug": "/brownfield-land/local-authority-eng/DEB/SHLAA80", "entry-date": "2017-12-06"}}