{"type": "Feature", "geometry": {"type": "Point", "coordinates": [-2.109798, 53.610362]}, "properties": {"resource": "34e3c37538889673a7227716ccb0faca6e1b1ffa6a0b8bc7807294d8d144577a", "site-address": "Land Adjacent To The Ladybarn ,Harbour Lane,Milnrow", "deliverable": "", "end-date": "", "entry-date": "2018-12-05", "hazardous-substances": "", "hectares": "0.54", "maximum-net-dwellings": "37", "minimum-net-dwellings": "37", "notes": "", "organisation": "local-authority-eng:RCH", "ownership-status": "", "planning-permission-date": "", "planning-permission-history": "", "planning-permission-status": "permissioned", "planning-permission-type": "", "point": "POINT(-2.109798 53.610362)", "site": "SH 2285", "site-plan-url": "https://mappinggm.org.uk/gmodin/?lyrs=brownfield_2018_gm#os_maps_light/19/53.60812/-2.11346", "start-date": "2017-11-29", "id": "SH2285"}}