{"type": "Feature", "geometry": {"type": "Point", "coordinates": [-1.911056, 52.418184]}, "properties": {"ownership-status": "owned by a public authority", "site": "S65", "hectares": "0.09", "planning-permission-status": "Not Permissioned", "site-address": "Newick Grove (adj 14), Brandwood & King's Heath", "point": "POINT(-1.911056 52.418184)", "notes": "Identified by City Council Officers", "minimum-net-dwellings": "2", "maximum-net-dwellings": "2", "site-plan-url": "https://maps.birmingham.gov.uk/webapps/shlaa/", "organisation": "local-authority-eng:BIR", "name": "S65", "start-date": "2017-12-19", "slug": "/brownfield-land/local-authority-eng/BIR/S65", "entry-date": "2019-12-31"}}