{"type": "Feature", "geometry": {"type": "Point", "coordinates": [-0.958127, 51.453277]}, "properties": {"point": "POINT(-0.958127 51.453277)", "deliverable": "yes", "notes": "Alternative permission 171521 is for demolition for landscaping.. Demolish Mulberry House (D1) and erect part 3, part 5 storey building for 7 (3x1 & 4x2-bed) dwellings, 5 parking spaces.", "minimum-net-dwellings": "7", "hectares": "0.08", "site": "BL2045", "planning-permission-date": "2019-03-27", "start-date": "2019-12-16", "site-plan-url": "https://www.reading.gov.uk/media/8107/Brownfield-Register-Maps-BL2001-2051/pdf/Brownfield_Land_Register_Maps_2019_2001_to_2051.pdf", "planning-permission-status": "permissioned", "site-address": "Mulberry House, 1a Eldon Road, Reading", "ownership-status": "not owned by a public authority", "name": "BL2045", "maximum-net-dwellings": "7", "planning-permission-type": "full planning permission", "organisation": "local-authority-eng:RDG", "slug": "/brownfield-land/local-authority-eng/RDG/BL2045", "entry-date": "2019-12-16"}}