{"type": "Feature", "geometry": {"type": "Point", "coordinates": [-1.907355, 50.717532]}, "properties": {"minimum-net-dwellings": "14", "ownership-status": "not owned by a public authority", "organisation": "local-authority-eng:BPC", "name": "P/BLR/0078", "site-address": "42-44 Tower Road", "start-date": "2017-01-12", "point": "POINT(-1.907355 50.717532)", "maximum-net-dwellings": "14", "site": "P/BLR/0078", "site-plan-url": "https://www.bournemouth.gov.uk/planningbuilding/PlanningPolicy/PlanningPolicyFiles/brownfieldlandregister/blr-2019-site-plans-reduced.pdf", "hectares": "0.380478", "planning-permission-status": "Not permissioned", "slug": "/brownfield-land/local-authority-eng/BPC/P-BLR-0078", "entry-date": "2017-01-12"}}