{"type": "Feature", "geometry": {"type": "Point", "coordinates": [-0.19066, 51.502496]}, "properties": {"site-address": "62-70 Kensington High Street W8 4PE", "planning-permission-status": "permissioned", "point": "POINT(-0.19066 51.502496)", "site-plan-url": "https://lbhf.maps.arcgis.com/apps/webappviewer/index.html?id=931fa3b3294b4147a518648579b12d4a", "deliverable": "yes", "planning-permission-history": "https://www.rbkc.gov.uk/PP/12/04434", "start-date": "2017-12-31", "maximum-net-dwellings": "11", "ownership-status": "not owned by a public authority", "organisation": "local-authority-eng:KEC", "planning-permission-type": "full planning permission", "planning-permission-date": "2013-05-30", "minimum-net-dwellings": "11", "hectares": "0.07", "name": "RBKC011", "site": "RBKC011", "slug": "/brownfield-land/local-authority-eng/KEC/RBKC011", "entry-date": "2018-12-31", "notes": "Change of use from vacant retail ancillary to retail and vacant office space to residential use as 11 self contained flats (Class C3) as set out in the plans referred to in this permission.. PP/12/04434 https://www.rbkc.gov.uk/planning/searches/default.aspx"}}