{"type": "Feature", "geometry": {"type": "Point", "coordinates": [-1.880378, 53.715733]}, "properties": {"name": "BLR056", "planning-permission-type": "full planning permission", "planning-permission-date": "2017-07-07", "site-address": "Junction Hotel, 192 King Cross Road, Halifax", "deliverable": "yes", "planning-permission-status": "permissioned", "hectares": "0.03", "start-date": "2018-12-31", "minimum-net-dwellings": "7", "maximum-net-dwellings": "7", "point": "POINT(-1.880378 53.715733)", "organisation": "local-authority-eng:CLD", "ownership-status": "not owned by a public authority", "site-plan-url": "https://maps.calderdale.gov.uk/map/Aurora.svc/run?script=%5CAurora%5CScripts%5CBrownfield%20Land%20Register%202020.AuroraScript%24&nocache=b3a8172e-c9", "site": "BLR056", "slug": "/brownfield-land/local-authority-eng/CLD/BLR056", "entity": 479946, "entry-date": "2020-05-31", "planning-permission-history": "https://portal.calderdale.gov.uk/online-applications/search.do?action=advanced", "notes": "17/00450/FUL - Conversion of public house with residential above to an A1 retail unit, an A3/A5 restaurant/hot food takeaway and seven apartments, three two bedroomed and four one bedroomed. Granted 07.07.17"}}