{"type": "Feature", "geometry": {"type": "Point", "coordinates": [-3.489359, 54.54016]}, "properties": {"resource": "45c65996a78ce8c60310790c4d7f3c48edd1df15440df4b6186ee49cea554572", "site-address": "Trafalgar Square Yeathouse Road", "deliverable": "yes", "end-date": "", "entry-date": "2017-12-22", "hazardous-substances": "", "hectares": "0.31", "maximum-net-dwellings": "9", "minimum-net-dwellings": "9", "notes": "Outline Application For Erection Of Nine Detached Two Storey Dwellings", "organisation": "local-authority-eng:COP", "ownership-status": "not owned by a public authority", "planning-permission-date": "2017-10-18", "planning-permission-history": "", "planning-permission-status": "permissioned", "planning-permission-type": "reserved matters approval", "point": "POINT(-3.489359 54.54016)", "site": "CBR018", "site-plan-url": "https://www.copeland.gov.uk/sites/default/files/attachments/cbr018_trafalgar_square_frizington.pdf", "start-date": "2017-12-22", "id": "45c65996a78ce8c60310790c4d7f3c48edd1df15440df4b6186ee49cea554572:15830"}}