{"type": "Feature", "geometry": {"type": "Point", "coordinates": [-2.258456, 53.468188]}, "properties": {"planning-permission-status": "permissioned", "hectares": "0.64", "site-address": "Land Bounded By Royce Road, City Road And Chorlton Road Hulme", "site-plan-url": "https://mappinggm.org.uk/gmodin/", "planning-permission-history": "http://pa.manchester.gov.uk/online-applications/", "notes": "Erection of two four storey and one five storey blocks to provide 67 (2 bed) apartments", "name": "110179/FO/2015/S1", "organisation": "local-authority-eng:MAN", "planning-permission-date": "2015-12-31", "minimum-net-dwellings": "67", "point": "POINT(-2.258456 53.468188)", "deliverable": "yes", "planning-permission-type": "full planning permission", "start-date": "2017-12-31", "maximum-net-dwellings": "67", "site": "110179/FO/2015/S1", "slug": "/brownfield-land/local-authority-eng/MAN/110179-FO-2015-S1", "entry-date": "2017-12-31"}}