{"type": "Feature", "geometry": {"type": "Point", "coordinates": [-2.530802, 51.475897]}, "properties": {"name": "12/01827/P", "start-date": "2017-12-19", "site": "12/01827/P", "organisation": "local-authority-eng:BST", "hectares": "1.07", "notes": "50 Dwellings", "minimum-net-dwellings": "50", "site-plan-url": "http://planningonline.bristol.gov.uk/online-applications/applicationDetails.do?activeTab=map&keyVal=M2SCLQDNK8000", "maximum-net-dwellings": "50", "planning-permission-type": "outline planning permission", "planning-permission-date": "2014-04-04", "point": "POINT(-2.530802 51.475897)", "site-address": "Diamonite Industrial Park Goodneston Road Bristol BS16 3JX", "deliverable": "yes", "planning-permission-status": "permissioned", "planning-permission-history": "http://planningonline.bristol.gov.uk/online-applications/applicationDetails.do?activeTab=summary&keyVal=M2SCLQDNK8000", "slug": "/brownfield-land/local-authority-eng/BST/12-01827-P", "entity": 501355, "entry-date": "2017-12-19"}}