{"type": "Feature", "geometry": {"type": "Point", "coordinates": [-0.8383, 51.283972]}, "properties": {"hectares": "0.14", "ownership-status": "not owned by a public authority", "site-address": "115-123 Fleet Road, Fleet", "end-date": "2018-12-20", "planning-permission-type": "other", "point": "POINT(-0.8383 51.283972)", "site": "17/00828/PRIOR", "organisation": "local-authority-eng:HAT", "maximum-net-dwellings": "6", "name": "17/00828/PRIOR", "planning-permission-status": "permissioned", "notes": "Change of use of B1a offices to 6 flats", "minimum-net-dwellings": "6", "planning-permission-date": "2017-05-30", "start-date": "2017-12-22", "site-plan-url": "https://publicaccess.hart.gov.uk/online-applications/", "slug": "/brownfield-land/local-authority-eng/HAT/17-00828-PRIOR", "entry-date": "2017-12-22", "deliverable": "yes"}}