{"type": "Feature", "geometry": {"type": "Point", "coordinates": [-0.074929, 51.427648]}, "properties": {"resource": "53ff7410d03797e7747d4df128ca450bbe808f4eacc79d0e2d18623ab4a99554", "site-address": "13 Sydenham Hill SE26 6SH", "deliverable": "yes", "end-date": "", "entry-date": "2017-12-20", "hazardous-substances": "", "hectares": "0.089999999999999997", "maximum-net-dwellings": "0", "minimum-net-dwellings": "0", "notes": "Demolition of the existing dwellinghouse and the erection of a replacement building (part 3, part 4 storeys) containing 9 flats (8 x two bedroom and 1 x one bedroom units) together with the formation", "organisation": "local-authority-eng:SWK", "ownership-status": "", "planning-permission-date": "2016-02-19", "planning-permission-history": "", "planning-permission-status": "permissioned", "planning-permission-type": "full planning permission", "point": "POINT(-0.074929 51.427648)", "site": "15-AP-5032", "site-plan-url": "", "start-date": "2017-12-20", "id": "53ff7410d03797e7747d4df128ca450bbe808f4eacc79d0e2d18623ab4a99554:20234"}}