{"type": "Feature", "geometry": {"type": "Point", "coordinates": [-2.77891, 51.124115]}, "properties": {"resource": "2849b50ab1aa70b811766dd46b0196f0c55a526079e3dbcad7ea86d39fcaf926", "site-address": "160 Main Street, Walton", "deliverable": "yes", "end-date": "", "entry-date": "2018-11-20", "hazardous-substances": "", "hectares": "0.38", "maximum-net-dwellings": "6", "minimum-net-dwellings": "6", "notes": "Planning Ref 2016/1478/OTA. Construction of 6 dwellings and partial demolition of the Walton Gateway (formerly the Pike and Musket) public house.", "organisation": "local-authority-eng:MEN", "ownership-status": "not owned by a public authority", "planning-permission-date": "2017-01-16", "planning-permission-history": "https://publicaccess.mendip.gov.uk/online-applications/applicationDetails.do?activeTab=summary&keyVal=O8GJC8KP02H00", "planning-permission-status": "permissioned", "planning-permission-type": "outline planning permission", "point": "POINT(-2.77891 51.124115)", "site": "WAL028", "site-plan-url": "http://www.mendip.gov.uk/land", "start-date": "2017-12-20", "id": "2849b50ab1aa70b811766dd46b0196f0c55a526079e3dbcad7ea86d39fcaf926:23213"}}