{"type": "Feature", "geometry": {"type": "Point", "coordinates": [-1.57635, 55.02933]}, "properties": {"name": "277", "organisation": "local-authority-eng:NTY", "site-address": "Stephenson Industrial Estate East", "hectares": "4.88", "notes": "The sites in this location have been subject to a range of applications that include an element of residential development. This includes permitted schemes for 54 units (12/00542/OUT) and 60 units (12/01851/OUT).", "minimum-net-dwellings": "110", "site": "277", "ownership-status": "mixed ownership", "maximum-net-dwellings": "110", "point": "POINT(-1.57635 55.02933)", "site-plan-url": "http://my.northtyneside.gov.uk/category/1134/housing-and-employment", "start-date": "2017-12-22", "planning-permission-status": "not permissioned", "slug": "/brownfield-land/local-authority-eng/NTY/277", "entity": 489779, "entry-date": "2020-04-15"}}