{"type": "Feature", "geometry": {"type": "Point", "coordinates": [-1.150834, 51.355794]}, "properties": {"site-plan-url": "https://planning.basingstoke.gov.uk/online-applications/applicationDetails.do?activeTab=map&keyVal=N9F2VTCRHA500", "start-date": "2017-12-31", "organisation": "local-authority-eng:BAN", "planning-permission-type": "outline planning permission", "planning-permission-date": "2016-03-04", "name": "14/02200/OUT", "site": "14/02200/OUT", "site-address": "Burnham Copse Infant School New Church Road Tadley", "hectares": "1.41", "minimum-net-dwellings": "36", "ownership-status": "not owned by a public authority", "planning-permission-status": "permissioned", "point": "POINT(-1.150834 51.355794)", "maximum-net-dwellings": "36", "planning-permission-history": "https://planning.basingstoke.gov.uk/online-applications/applicationDetails.do?activeTab=relatedCases&keyVal=N9F2VTCRHA500", "deliverable": "yes", "notes": "Outline planning permission for 36 residential units was granted in March 2016 (14/02200/OUT). Aster Communities who are developing the site expect it be complete in 2019/20. Reserved matters application currently being considered and at an advanced stage (18/00524/RES). The site is deliverable within five years.. Redevelopment of former Burnham Copse Infant School site for up to 36 residential units (use classC3)", "slug": "/brownfield-land/local-authority-eng/BAN/14-02200-OUT", "entity": 500536, "entry-date": "2018-12-31"}}