{"type": "Feature", "geometry": {"type": "Point", "coordinates": [-0.395596, 51.876775]}, "properties": {"resource": "2f7c0fef68e882c3acba02073190cf0e6de4e616807f81fd211a0c1b03a10cad", "site-address": "Napier Park, Kimpton Road", "deliverable": "yes", "end-date": "", "entry-date": "2019-11-18", "hazardous-substances": "", "hectares": "24.44", "maximum-net-dwellings": "1395", "minimum-net-dwellings": "1268", "notes": "Other parts of the site also have extant permission (16/01340/REM and 17/00283/FUL", "organisation": "local-authority-eng:LUT", "ownership-status": "", "planning-permission-date": "2017-08-11", "planning-permission-history": "https://planning.luton.gov.uk/online-applications/propertyDetails.do?activeTab=relatedCases&keyVal=MDFQB2KG09600", "planning-permission-status": "permissioned", "planning-permission-type": "full planning permission", "point": "POINT(-0.395596 51.876775)", "site": "SHLAA191", "site-plan-url": "http://www.luton.gov.uk/Environment/Lists/LutonDocuments/PDF/SHLAA-2017/Maps/191-and-192.pdf", "start-date": "2017-12-01", "id": "2f7c0fef68e882c3acba02073190cf0e6de4e616807f81fd211a0c1b03a10cad:2720"}}