{"type": "Feature", "geometry": {"type": "Point", "coordinates": [-1.164984, 52.959814]}, "properties": {"resource": "6b69fd3da198c6993fbe725db0f4e8d850ddeddffb446c29f8f72365e631287d", "site-address": "34 Tennyson Street and Adventure Playground, Nottingham, NG7 4FU", "deliverable": "", "end-date": "", "entry-date": "2019-04-03", "hazardous-substances": "", "hectares": "0.25", "maximum-net-dwellings": "10", "minimum-net-dwellings": "10", "notes": "DevelopmentDescription: Erection of 5 storey student development following demolition of existing building. PREAPP Closed; SiteInformation: N/A; NonHousingDevelopment: N/A; ProposedForPIP: No; Notes: N/A", "organisation": "local-authority-eng:NGM", "ownership-status": "", "planning-permission-date": "", "planning-permission-history": "http://publicaccess.nottinghamcity.gov.uk/online-applications/applicationDetails.do?activeTab=summary&keyVal=PD6O6ALY00M00", "planning-permission-status": "", "planning-permission-type": "", "point": "POINT(-1.164984 52.959814)", "site": "2449", "site-plan-url": "http://maps.nottinghamcity.gov.uk/insightmapping/?l=0.21,9.63&xmin=456166.77699999977&xmax=456245.7999999998&ymin=340555.25&ymax=340617.5999999996", "start-date": "2019-04-03", "id": "local-authority-eng/NGM/2449"}}