{"type": "Feature", "geometry": {"type": "Point", "coordinates": [-1.040217, 52.947351]}, "properties": {"notes": "Planning permission 16/01294/FUL. 2 houses and 1 apartment. https://planningon-line.rushcliffe.gov.uk/online-applications/propertyDetails.do?activeTab=relatedCases&keyVal=000KXLNLLI000", "minimum-net-dwellings": "3", "site-address": "17a Shelford Road, Radcliffe on Trent", "planning-permission-history": "https://planningon-line.rushcliffe.gov.uk/online-applications/propertyDetails.do?activeTab=relatedCases&keyVal=000KXLNLLI000", "planning-permission-type": "full planning permission", "name": "SHLAA892", "site-plan-url": "http://www.rushcliffe.gov.uk/media/1rushcliffe/media/documents/pdf/planningandbuilding/planningpolicy/brownfieldregister/872.pdf", "hectares": "0.37", "maximum-net-dwellings": "3", "site": "SHLAA892", "organisation": "local-authority-eng:RUS", "point": "POINT(-1.040217 52.947351)", "deliverable": "yes", "start-date": "2017-12-12", "planning-permission-status": "permissioned", "planning-permission-date": "2016-07-07", "ownership-status": "not owned by a public authority", "slug": "/brownfield-land/local-authority-eng/RUS/SHLAA892", "entry-date": "2017-12-12"}}