{"type": "Feature", "geometry": {"type": "Point", "coordinates": [-2.300168, 53.093158]}, "properties": {"resource": "344488f9ce3e3a4dc76c357eb07a9b6db2d6c4494a733d43fde68ebb21505813", "site-address": "Alsager Arms Hotel, 4, SANDBACH ROAD SOUTH, ALSAGER, ST7 2LU", "deliverable": "yes", "end-date": "", "entry-date": "2019-11-15", "hazardous-substances": "", "hectares": "0.18", "maximum-net-dwellings": "14", "minimum-net-dwellings": "14", "notes": "Planning permission ref: 16/1024C: Demolition of existing pub hotel building and construction of 14no. apartments ", "organisation": "local-authority-eng:CHE", "ownership-status": "not owned by a public authority", "planning-permission-date": "2017-08-15", "planning-permission-history": "http://planning.cheshireeast.gov.uk/applicationdetails.aspx?pr=16/1024C&query=642e64a1-8b91-4be7-b138-dc69d83315fe", "planning-permission-status": "permissioned", "planning-permission-type": "outline planning permission", "point": "POINT(-2.300168 53.093158)", "site": "5900", "site-plan-url": "http://cheshireeast.gov.uk/planning/spatial_planning/brownfield-register.aspx", "start-date": "2018-10-31", "id": "344488f9ce3e3a4dc76c357eb07a9b6db2d6c4494a733d43fde68ebb21505813:65856"}}