{"type": "Feature", "geometry": {"type": "Point", "coordinates": [-0.089504, 51.494396]}, "properties": {"minimum-net-dwellings": "0", "maximum-net-dwellings": "0", "site": "15-AP-3890", "point": "POINT(-0.089504 51.494396)", "start-date": "2017-12-20", "site-address": "1 Bartholomew Street, SE1 4AJ", "planning-permission-type": "full planning permission", "organisation": "local-authority-eng:SWK", "planning-permission-status": "permissioned", "notes": "Demolition of garage and erection of a three storey dwelling and ancillary landscaping, including minor alterations to the flank wall of 1 Bartholomew Street with the closure of a window-opening.", "name": "15-AP-3890", "deliverable": "yes", "hectares": "0.01", "planning-permission-date": "2015-03-04", "slug": "/brownfield-land/local-authority-eng/SWK/15-AP-3890", "entity": 495566, "entry-date": "2017-12-20"}}