{"type": "Feature", "geometry": {"type": "Point", "coordinates": [-2.9648, 53.488473]}, "properties": {"resource": "9910dd4103ad4bbffccde59fb625d80a09c83657cb0444afa08725ed48746097", "site-address": "Land at Former Bootle High School, Brown's Lane, Bootle", "deliverable": "yes", "end-date": "", "entry-date": "2019-11-01", "hazardous-substances": "", "hectares": "1.75", "maximum-net-dwellings": "0", "minimum-net-dwellings": "0", "notes": "Local Plan allocation. Council owned brownfield site.. Site of former school which has been demolished and cleared.", "organisation": "local-authority-eng:SFT", "ownership-status": "owned by a public authority", "planning-permission-date": "", "planning-permission-history": "", "planning-permission-status": "Not permissioned", "planning-permission-type": "", "point": "POINT(-2.9648 53.488473)", "site": "B0160", "site-plan-url": "", "start-date": "2017-10-17", "id": "9910dd4103ad4bbffccde59fb625d80a09c83657cb0444afa08725ed48746097:64144"}}