{"type": "Feature", "geometry": {"type": "Point", "coordinates": [-1.744905, 51.550565]}, "properties": {"resource": "153dbe1b4a37a3ca5851f37b75bcda0bcaad32015e96747b8861170f809b3a05", "site-address": "Land bounded by Netherton Close/ Cranemore Avenue/ Keswick Road", "deliverable": "yes", "end-date": "", "entry-date": "2019-12-15", "hazardous-substances": "", "hectares": "0.169387", "maximum-net-dwellings": "5", "minimum-net-dwellings": "5", "notes": "", "organisation": "local-authority-eng:SWD", "ownership-status": "owned by a public authority", "planning-permission-date": "", "planning-permission-history": "", "planning-permission-status": "Not permissioned", "planning-permission-type": "", "point": "POINT(-1.744905 51.550565)", "site": "s0082", "site-plan-url": "", "start-date": "", "id": "153dbe1b4a37a3ca5851f37b75bcda0bcaad32015e96747b8861170f809b3a05:49790"}}