{"type": "Feature", "geometry": {"type": "Point", "coordinates": [-0.750026, 53.147488]}, "properties": {"ownership-status": "owned by a public authority", "site-address": "Collingham, Windsor Close (Garage Site)", "planning-permission-history": "https://publicaccess.newark-sherwooddc.gov.uk/online-applications/propertyDetails.do?activeTab=relatedCases&keyVal=KJIYDGLB04O00", "name": "BF0035", "start-date": "2017-11-30", "minimum-net-dwellings": "4", "organisation": "local-authority-eng:NEA", "point": "POINT(-0.750026 53.147488)", "site": "BF0035", "site-plan-url": "http://www.newark-sherwooddc.gov.uk/media/newarkandsherwood/imagesandfiles/planningpolicy/pdfs/brownfieldlandregister/BF0035.pdf", "hectares": "0.26", "planning-permission-date": "2018-02-27", "planning-permission-status": "permissioned", "deliverable": "yes", "maximum-net-dwellings": "4", "planning-permission-type": "full planning permission", "slug": "/brownfield-land/local-authority-eng/NEA/BF0035", "entry-date": "2020-01-20", "notes": "Complete", "end-date": "2020-01-20"}}