{"type": "Feature", "geometry": {"type": "Point", "coordinates": [-0.40513, 53.276082]}, "properties": {"start-date": "2017-12-17", "point": "POINT(-0.40513 53.276082)", "planning-permission-date": "2016-05-23", "planning-permission-status": "permissioned", "planning-permission-type": "reserved matters approval", "site": "25", "deliverable": "yes", "site-plan-url": "https://www.west-lindsey.gov.uk/_resources/assets/attachment/full/0/55645.pdf", "site-address": "George Hotel, 15 Main Road, Langworth", "organisation": "local-authority-eng:WLI", "hectares": "2.02", "name": "25", "maximum-net-dwellings": "23", "minimum-net-dwellings": "23", "slug": "/brownfield-land/local-authority-eng/WLI/25", "entry-date": "2019-03-31", "notes": "Reserved matters approval (133773)"}}