{"type": "Feature", "geometry": {"type": "Point", "coordinates": [-2.748126, 51.409388]}, "properties": {"resource": "da98a951d37e6a2fff10956c22c5fbbc0314e8304a002104a235db896b50fcec", "site-address": "86 West Town Road Backwell", "deliverable": "yes", "end-date": "", "entry-date": "2019-12-31", "hazardous-substances": "", "hectares": "0.32", "maximum-net-dwellings": "7", "minimum-net-dwellings": "7", "notes": "17/P/0430/F", "organisation": "local-authority-eng:NSM", "ownership-status": "not owned by a public authority", "planning-permission-date": "2017-05-17", "planning-permission-history": "https://planning.n-somerset.gov.uk/online-applications/", "planning-permission-status": "permissioned", "planning-permission-type": "full planning permission", "point": "POINT(-2.748126 51.409388)", "site": "NSBR0052", "site-plan-url": "http://map.n-somerset.gov.uk/map/Aurora.svc/run?embedded=true&nocache=0.5788848812441214&script=%5cAurora%5cBrownfieldSiteRegister.AuroraScript%24&x=348100.496&y=168028.778&scale=4096", "start-date": "2017-12-31", "id": "da98a951d37e6a2fff10956c22c5fbbc0314e8304a002104a235db896b50fcec:58182"}}