{"type": "Feature", "geometry": {"type": "Point", "coordinates": [-1.44957, 55.04589]}, "properties": {"notes": "Submission of reserved matters for development of 78 apartments and 16 houses including details of appearance, scale, parking, refuse storage and landscaping pursuant to outline planning permission reference 06/03648/OUT.", "site-address": "Site at Coquet Avenue (Former site of Marine Park and Cocquet Park First School), Whitley Bay", "planning-permission-status": "not permissioned", "planning-permission-date": "2008-01-30", "start-date": "2017-12-22", "hectares": "0.59", "minimum-net-dwellings": "94", "site": "219", "organisation": "local-authority-eng:NTY", "planning-permission-type": "reserved matters approval", "planning-permission-history": "https://idoxpublicaccess.northtyneside.gov.uk/online-applications/applicationDetails.do?activeTab=summary&keyVal=JS4ABDBH09700", "site-plan-url": "http://my.northtyneside.gov.uk/category/1134/housing-and-employment", "name": "219", "ownership-status": "not owned by a public authority", "maximum-net-dwellings": "94", "point": "POINT(-1.44957 55.04589)", "slug": "/brownfield-land/local-authority-eng/NTY/219", "entity": 489772, "entry-date": "2020-04-15"}}