{"type": "Feature", "geometry": {"type": "Point", "coordinates": [1.560871, 52.464464]}, "properties": {"resource": "aa0156de0c16bfcb78fed85a0a63a5a3290763e2654b3d920129044e47d72eea", "site-address": "Derbys Quay Bridge Wharf Gillingham Dam Gillingham Beccles Norfolk NR34 0PA", "deliverable": "yes", "end-date": "", "entry-date": "2017-11-23", "hazardous-substances": "", "hectares": "0.03", "maximum-net-dwellings": "2", "minimum-net-dwellings": "2", "notes": "Planning application number: BA/2013/0171/EXT8W extends time limit for BA/2010/0124/FUL.. Application to extend time limit of previous PP - BA/2010/0124/FUL for the conversion of offices and stores into two first floor holiday studio flats", "organisation": "national-park-authority:Q4972284", "ownership-status": "not owned by a public authority", "planning-permission-date": "2014-08-08", "planning-permission-history": "http://planning.broads-authority.gov.uk/online-applications/applicationDetails.do?activeTab=summary&keyVal=MOJ2UJTB00200", "planning-permission-status": "permissioned", "planning-permission-type": "full planning permission", "point": "POINT(1.560871 52.464464)", "site": "BF000001", "site-plan-url": "http://planning.broads-authority.gov.uk/online-applications/applicationDetails.do?activeTab=map&keyVal=MOJ2UJTB00200", "start-date": "2017-11-23", "id": "aa0156de0c16bfcb78fed85a0a63a5a3290763e2654b3d920129044e47d72eea:8795"}}