{"type": "Feature", "geometry": {"type": "Point", "coordinates": [-0.40479, 51.069762]}, "properties": {"ownership-status": "not owned by a public authority", "site-plan-url": "https://www.horsham.gov.uk/__data/assets/pdf_file/0005/77990/SA655_BLR.pdf", "site": "SA655", "minimum-net-dwellings": "13", "start-date": "2018-12-31", "maximum-net-dwellings": "13", "name": "SA655", "hectares": "0.28", "point": "POINT(-0.40479 51.069762)", "site-address": "The Cobblers, Slinfold", "organisation": "local-authority-eng:HOR", "planning-permission-status": "Not Permissioned", "notes": "This site was allocated for residential development in Policy 10 of the made Slinfold Neighbourhood Plan. The site lies within the built up area boundary of Slinfold and adjacent the Slinfold Conservation Area. The site comprises 17 residential units (which are marketed to 55 year olds) with garages which may impact delivery. Future development would need to take these factors into account as appropriate.", "slug": "/brownfield-land/local-authority-eng/HOR/SA655", "entry-date": "2018-12-31"}}