{"type": "Feature", "geometry": {"type": "Point", "coordinates": [0.692732, 51.538742]}, "properties": {"organisation": "local-authority-eng:SOS", "site": "BR3", "start-date": "2017-03-31", "minimum-net-dwellings": "5", "name": "BR3", "planning-permission-type": "full planning permission", "planning-permission-status": "permissioned", "ownership-status": "not owned by a public authority", "planning-permission-date": "2011-09-30", "hectares": "0.041", "site-plan-url": "http://www.southend.gov.uk/downloads/200160/local_planning_framework", "notes": "4 x 1 Bed Houses and 1 x 1 Bed House", "maximum-net-dwellings": "5", "point": "POINT(0.692732 51.538742)", "deliverable": "yes", "site-address": "67C - 67G Hamlet Court Road, Westcliff-on-Sea, Essex, SS0 7EU", "slug": "/brownfield-land/local-authority-eng/SOS/BR3", "entry-date": "2017-03-31"}}