{"type": "Feature", "geometry": {"type": "Point", "coordinates": [-2.169097, 53.3578]}, "properties": {"name": "SKB0001", "minimum-net-dwellings": "6", "start-date": "2017-12-21", "maximum-net-dwellings": "6", "planning-permission-status": "permissioned", "site": "SKB0001", "site-address": "Mercury Garage, 185 Moss Lane, Bramhall, Stockport, SK7 1BA", "planning-permission-type": "full planning permission", "planning-permission-date": "2017-03-30", "point": "POINT(-2.169097 53.3578)", "site-plan-url": "https://www.stockport.gov.uk/brownfield/brownfield-land-register", "deliverable": "yes", "hectares": "0.14", "ownership-status": "not owned by a public authority", "organisation": "local-authority-eng:SKP", "slug": "/brownfield-land/local-authority-eng/SKP/SKB0001", "entity": 493581, "entry-date": "2017-12-21"}}