{"type": "Feature", "geometry": {"type": "Point", "coordinates": [0.734769, 50.952334]}, "properties": {"hectares": "0.1", "start-date": "2017-10-01", "notes": "Lapsed permission. December 2020 - December 2020 - No changes. An end date will be added to this site in 2022 unless the circumstances concerning the site change.", "site-address": "Tower House, Hilders Cliff, Rye", "ownership-status": "not owned by a public authority", "planning-permission-status": "not permissioned", "organisation": "local-authority-eng:ROH", "site-plan-url": "https://www.rother.gov.uk/wp-content/uploads/2020/12/brownfieldlandregister_siteplans_2020.pdf", "name": "RDCBLR0002", "planning-permission-history": "http://planweb01.rother.gov.uk/OcellaWeb/planningDetails?reference=RR/2010/2676/P&from=planningSearch|http://planweb01.rother.gov.uk/OcellaWeb/planningDetails?reference=RR/2005/2399/P&from=planningSearch|http://planweb01.rother.gov.uk/OcellaWeb/planningDetails?reference=RR/2000/1722/P&from=planningSearch", "minimum-net-dwellings": "6", "maximum-net-dwellings": "6", "site": "RDCBLR0002", "slug": "/brownfield-land/local-authority-eng/ROH/RDCBLR0002", "entry-date": "2020-10-01", "point": "POINT(0.734769 50.952334)"}}