{"type": "Feature", "geometry": {"type": "Point", "coordinates": [0.083894, 52.518014]}, "properties": {"site-address": "Land North Of 3A - 9, Bridge Lane, Wimblington, MARCH, PE15 0RR", "planning-permission-history": "https://www.fenland.gov.uk/publicaccess/applicationDetails.do?activeTab=summary&keyVal=P6Z4STHE06P00", "site": "BLR0032", "notes": "Erection of up to 7 x dwellings involving the demolition of an existing commercial building (Outline application with all matters reserved)", "planning-permission-status": "permissioned", "point": "POINT(0.083894 52.518014)", "hectares": "1.51", "maximum-net-dwellings": "7", "organisation": "local-authority-eng:FEN", "minimum-net-dwellings": "7", "deliverable": "yes", "site-plan-url": "https://fenland.gov.uk/media/16168/Brownfield-Land-Register-2019---Site-Maps/pdf/BLR2019_Atlas.pdf", "ownership-status": "not owned by a public authority", "planning-permission-date": "2018-07-04", "name": "BLR0032", "planning-permission-type": "outline planning permission", "start-date": "2019-12-19", "slug": "/brownfield-land/local-authority-eng/FEN/BLR0032", "entity": 482632, "entry-date": "2019-12-19"}}