{"type": "Feature", "geometry": {"type": "Point", "coordinates": [-2.35554, 51.681142]}, "properties": {"resource": "4a10af24fbc0983c63537d0875f5666f9d6f4cb7c41570745354abc974faca53", "site-address": "The Old Dairy/ Land off Prospect Place, Dursley", "deliverable": "yes", "end-date": "", "entry-date": "2019-12-01", "hazardous-substances": "", "hectares": "0.37", "maximum-net-dwellings": "10", "minimum-net-dwellings": "10", "notes": "DURSLEY|This site could be developed for medium/ high density development, comprising terraced housing and apartments at an average density of about 40 dph, and the suggested yield for a residential scheme across the net developable area is 10 units.", "organisation": "local-authority-eng:STO", "ownership-status": "mixed ownership", "planning-permission-date": "", "planning-permission-history": "https://www.stroud.gov.uk/media/355587/appendix-2.pdf#search=\"DUR017\"|https://www.stroud.gov.uk/info/Draft_Plan_2019.pdf#page=104", "planning-permission-status": "not permissioned", "planning-permission-type": "", "point": "POINT(-2.35554 51.681142)", "site": "BR012", "site-plan-url": "https://stroud.maps.arcgis.com/apps/webappviewer/index.html?id=ce9765b5b8614d88a86d7126329fc614&marker=-2.3555395,51.681142&level=17", "start-date": "2017-12-18", "id": "4a10af24fbc0983c63537d0875f5666f9d6f4cb7c41570745354abc974faca53:16331"}}