{"type": "Feature", "geometry": {"type": "Point", "coordinates": [-2.411581, 53.499522]}, "properties": {"maximum-net-dwellings": "18", "site-address": "Land at Boothstown Basin", "start-date": "2017-12-01", "site": "S/BEL/016", "site-plan-url": "https://map.salford.gov.uk/maps/?lyrs=brownfield_land_register_2017#18/53.499522/-2.411581", "point": "POINT(-2.411581 53.499522)", "notes": "Construction status not started as of 31 March 2017. Planning permission details as of 27 October 2017.", "hectares": "0.74", "name": "S/BEL/016", "planning-permission-status": "not permissioned", "ownership-status": "not owned by a public authority", "minimum-net-dwellings": "18", "organisation": "local-authority-eng:SLF", "slug": "/brownfield-land/local-authority-eng/SLF/S-BEL-016", "entry-date": "2017-12-01"}}