{"type": "Feature", "geometry": {"type": "Point", "coordinates": [-4.36163, 50.638816]}, "properties": {"site-address": "Castle Street Chapel and Former Sunday School Castle Street Launceston Cornwall", "point": "POINT(-4.36163 50.638816)", "planning-permission-history": "http://planning.cornwall.gov.uk/online-applications/", "minimum-net-dwellings": "6", "planning-permission-date": "2018-12-18", "site-plan-url": "https://map.cornwall.gov.uk/website/ccmap/?zoomlevel=1&xcoord=166583&ycoord=63854&wsName=ccmap&layerName=Brownfield%20register", "deliverable": "yes", "organisation": "local-authority-eng:CON", "notes": "PA16/02588 superseded. Conversion of redundant Sunday School building to residential accommodation", "hectares": "0.09", "start-date": "2017-12-12", "ownership-status": "not owned by a public authority", "planning-permission-status": "permissioned", "name": "BR53", "maximum-net-dwellings": "6", "planning-permission-type": "full planning permission", "site": "BR53", "slug": "/brownfield-land/local-authority-eng/CON/BR53", "entry-date": "2020-12-12", "end-date": "2020-01-09"}}