{"type": "Feature", "geometry": {"type": "Point", "coordinates": [-1.853966, 52.439055]}, "properties": {"resource": "77da1087f91eafee42797dbaa9bebef573d2eb759b39d9db130c99d34cbe4ec4", "site-address": "146 to 156 Sarehole Road, Hall Green North", "deliverable": "", "end-date": "", "entry-date": "2017-12-19", "hazardous-substances": "", "hectares": "0.47", "maximum-net-dwellings": "16", "minimum-net-dwellings": "16", "notes": "Expired Planning Permission 2009/02454/PA", "organisation": "local-authority-eng:BIR", "ownership-status": "", "planning-permission-date": "", "planning-permission-history": "", "planning-permission-status": "Not Permissioned", "planning-permission-type": "", "point": "POINT(-1.853966 52.439055)", "site": "S418", "site-plan-url": "https://maps.birmingham.gov.uk/webapps/shlaa/", "start-date": "2017-12-19", "id": "77da1087f91eafee42797dbaa9bebef573d2eb759b39d9db130c99d34cbe4ec4:32057"}}