{"type": "Feature", "geometry": {"type": "Point", "coordinates": [-2.922475, 53.456709]}, "properties": {"resource": "873e9679ba803ab268864133b3ab80c2bdb831ca157e7d77769539fab1c3c467", "name": "4790", "site-address": "LEIGHTON DENE NURSING HOME, LONG LANE", "deliverable": "", "end-date": "", "entry-date": "2018-05-22", "hazardous-substances": "", "hectares": "0.541241", "maximum-net-dwellings": "", "minimum-net-dwellings": "", "notes": "", "organisation": "local-authority-eng:LIV", "ownership-status": "", "planning-permission-date": "", "planning-permission-history": "", "planning-permission-status": "permissioned", "planning-permission-type": "", "point": "POINT(-2.922475 53.456709)", "site": "4790", "site-plan-url": "", "start-date": "", "slug": "/brownfield-land/local-authority-eng/LIV/4790"}}