{"type": "Feature", "geometry": {"type": "Point", "coordinates": [-1.915571, 52.500214]}, "properties": {"planning-permission-type": "full planning permission", "start-date": "2017-12-19", "planning-permission-status": "permissioned", "maximum-net-dwellings": "8", "hectares": "0.15", "minimum-net-dwellings": "8", "organisation": "local-authority-eng:BIR", "planning-permission-date": "2014-10-16", "point": "POINT(-1.915571 52.500214)", "site-plan-url": "https://maps.birmingham.gov.uk/webapps/shlaa/", "deliverable": "yes", "site": "N128", "name": "N128", "notes": "2014/05344/PA", "site-address": "8 Wills Street and adjacent site, Lozells", "slug": "/brownfield-land/local-authority-eng/BIR/N128", "entry-date": "2019-12-31"}}