{"type": "Feature", "geometry": {"type": "Point", "coordinates": [-1.716564, 53.87959]}, "properties": {"start-date": "2016-11-07", "planning-permission-date": "2012-03-27", "minimum-net-dwellings": "1", "planning-permission-status": "permissioned", "deliverable": "yes", "organisation": "local-authority-eng:LDS", "hectares": "5.43", "name": "SHL00320", "ownership-status": "not owned by a public authority", "point": "POINT(-1.716564 53.87959)", "planning-permission-type": "full planning permission", "maximum-net-dwellings": "1", "site-address": "Cromptons, Netherfield Rd, Guiseley", "site": "SHL00320", "notes": "Erection of 74 dwelling houses with public open space", "site-plan-url": "https://leedscc.maps.arcgis.com/apps/webappviewer/index.html?id=612532561dc547fa93e683a5fca73079&find=SHL00320", "slug": "/brownfield-land/local-authority-eng/LDS/SHL00320", "entity": 485641, "entry-date": "2016-11-07"}}