{"type": "Feature", "geometry": {"type": "Point", "coordinates": [-0.156196, 51.238176]}, "properties": {"resource": "8b7de81eef4d65a2129fc0e549b2f7987a16c9604192cafb92294ee26dcd75b2", "site-address": "Former Copyhold Works, Nutfield Road, Redhill", "deliverable": "yes", "end-date": "", "entry-date": "2019-12-31", "hazardous-substances": "", "hectares": "1.68", "maximum-net-dwellings": "35", "minimum-net-dwellings": "35", "notes": "The site is allocated as part of a wider site allocation (DMP site allocation policy ERM2/3). Delivery of the site is dependent upon DMP Policy MLS1 \u201cManaging Land Supply.", "organisation": "local-authority-eng:REI", "ownership-status": "not owned by a public authority", "planning-permission-date": "", "planning-permission-history": "https://planning.reigate-banstead.gov.uk/online-applications/propertyDetails.do?activeTab=relatedCases&keyVal=IEXLSZMVR5000", "planning-permission-status": "Not permissioned", "planning-permission-type": "", "point": "POINT(-0.156196 51.238176)", "site": "RBBCBLR024", "site-plan-url": "http://www.reigate-banstead.gov.uk/downloads/file/3841/rbbcblr024", "start-date": "2017-12-31", "id": "8b7de81eef4d65a2129fc0e549b2f7987a16c9604192cafb92294ee26dcd75b2:39838"}}