{"type": "Feature", "geometry": {"type": "Point", "coordinates": [0.251902, 51.352178]}, "properties": {"name": "BFR90", "planning-permission-history": "https://pa.sevenoaks.gov.uk/online-applications/", "notes": "SE/16/02364 - Completed", "planning-permission-type": "full planning permission", "site-plan-url": "https://maps.sevenoaks.gov.uk/brownfield_register/", "ownership-status": "not owned by a public authority", "minimum-net-dwellings": "5", "organisation": "local-authority-eng:SEV", "site": "BFR90", "site-address": "Millfield, London Road, TN15 6EU", "start-date": "2017-11-01", "maximum-net-dwellings": "5", "hectares": "0.23", "planning-permission-date": "2016-10-06", "point": "POINT(0.251902 51.352178)", "planning-permission-status": "permissioned", "deliverable": "yes", "slug": "/brownfield-land/local-authority-eng/SEV/BFR90", "entry-date": "2021-02-13", "end-date": "2019-12-01"}}