{"type": "Feature", "geometry": {"type": "Point", "coordinates": [-0.050924, 51.541011]}, "properties": {"resource": "64f7e6abdcf67614d513571e3acf6b4a3d011e8f61ee98ca4d0f9f5c76b0ab52", "site-address": "Former Frampton Arms and land adjacent to Sherard and Catesby House 47 Well Street", "deliverable": "", "end-date": "", "entry-date": "2017-12-31", "hazardous-substances": "", "hectares": "0.29", "maximum-net-dwellings": "20", "minimum-net-dwellings": "20", "notes": "", "organisation": "local-authority-eng:HCK", "ownership-status": "", "planning-permission-date": "2017-03-10", "planning-permission-history": "", "planning-permission-status": "permissioned", "planning-permission-type": "full planning permission", "point": "POINT(-0.050924 51.541011)", "site": "2016/1347", "site-plan-url": "https://map.hackney.gov.uk/LBHackneymap/?zoom=14&lon=535264&lat=184257", "start-date": "2017-12-31", "id": "2016-1347"}}