{"type": "Feature", "geometry": {"type": "Point", "coordinates": [-0.166401, 51.428839]}, "properties": {"site-plan-url": "https://maps.wandsworth.gov.uk/map/Aurora.svc/run?script=%5cAurora%5cpublic_Brownfield_Sites.AuroraScript%24&nocache=614915663&resize=always", "ownership-status": "not owned by a public authority", "planning-permission-date": "2016-04-22", "maximum-net-dwellings": "14", "hectares": "0.11", "planning-permission-status": "permissioned", "point": "POINT(-0.166401 51.428839)", "name": "WBR/17/0042", "site-address": "25-29 Tooting High Street", "planning-permission-history": "https://planning1.wandsworth.gov.uk/Northgate/PlanningExplorer/DisplayAppDetails.aspx?AppNo=2014/6050", "minimum-net-dwellings": "14", "organisation": "local-authority-eng:WND", "start-date": "2017-12-13", "planning-permission-type": "full planning permission", "notes": "http://www.wandsworth.gov.uk/downloads/file/11502/local_plan_-_site_specific_allocations_document_ssad_adopted_march_2016", "site": "WBR/17/0042", "deliverable": "yes", "slug": "/brownfield-land/local-authority-eng/WND/WBR-17-0042", "entry-date": "2020-03-31", "end-date": "2020-03-31"}}