{"type": "Feature", "geometry": {"type": "Point", "coordinates": [-1.53313, 55.00154]}, "properties": {"resource": "33df9ace674c23689ecfd37907e4d9bc1e456185b73a1bb73008249d2c1fc5ee", "site-address": "Former Coastways Garage, Coast Road, Wallsend", "deliverable": "", "end-date": "", "entry-date": "2019-12-31", "hazardous-substances": "", "hectares": "0.59", "maximum-net-dwellings": "14", "minimum-net-dwellings": "14", "notes": "", "organisation": "local-authority-eng:NTY", "ownership-status": "not owned by a public authority", "planning-permission-date": "2012-03-02", "planning-permission-history": "https://idoxpublicaccess.northtyneside.gov.uk/online-applications/applicationDetails.do?activeTab=summary&keyVal=LVIOSBBH0GZ00", "planning-permission-status": "permissioned", "planning-permission-type": "full planning permission", "point": "POINT(-1.53313 55.00154)", "site": "339", "site-plan-url": "http://my.northtyneside.gov.uk/category/1134/housing-and-employment", "start-date": "2017-12-22", "id": "33df9ace674c23689ecfd37907e4d9bc1e456185b73a1bb73008249d2c1fc5ee:11692"}}