{"type": "Feature", "geometry": {"type": "Point", "coordinates": [-0.246694, 51.55039]}, "properties": {"resource": "53ff7410d03797e7747d4df128ca450bbe808f4eacc79d0e2d18623ab4a99554", "site-address": "Chancel House, Neasden Lane, NW10", "deliverable": "yes", "end-date": "", "entry-date": "2017-12-15", "hazardous-substances": "", "hectares": "1.95", "maximum-net-dwellings": "135", "minimum-net-dwellings": "400", "notes": "Prior approval for change of use of Chancel House (use class B1(a)) to 135 residential units (use class C3)", "organisation": "local-authority-eng:BEN", "ownership-status": "owned by a public authority", "planning-permission-date": "2016-08-15", "planning-permission-history": "https://pa.brent.gov.uk/online-applications/applicationDetails.do?activeTab=summary&keyVal=DCAPR_128748", "planning-permission-status": "permissioned", "planning-permission-type": "full planning permission", "point": "POINT(-0.246694 51.55039)", "site": "BR00056", "site-plan-url": "https://maps.london.gov.uk/brownfield-site-register", "start-date": "2017-12-15", "id": "BR00056"}}