{"type": "Feature", "geometry": {"type": "Point", "coordinates": [-0.313574, 51.617131]}, "properties": {"ownership-status": "not owned by a public authority", "site-plan-url": "https://maps.london.gov.uk/brownfield-site-register", "start-date": "2017-11-28", "hectares": "0.12", "planning-permission-date": "2014-10-13", "notes": "Redevelopment of the site: Demolition of existing public house; construction of part three/part four storey building to provide 13 flats and commercial floorspace (Flexible Class A1/A2) on the ground floor and part of first floor; basement parking; PV panels on the roof; new boundary treatment and gates; associated landscaping.", "deliverable": "yes", "point": "POINT(-0.313574 51.617131)", "maximum-net-dwellings": "12", "site": "P/2443/14", "site-address": "Church Road, 43, Crazy Horse PH, Stanmore", "minimum-net-dwellings": "12", "organisation": "local-authority-eng:HRW", "name": "P/2443/14", "planning-permission-type": "full planning permission", "planning-permission-status": "permissioned", "slug": "/brownfield-land/local-authority-eng/HRW/P-2443-14", "entity": 484241, "entry-date": "2018-05-22"}}