{"type": "Feature", "geometry": {"type": "Point", "coordinates": [-0.606276, 51.35387]}, "properties": {"hectares": "0.12", "ownership-status": "not owned by a public authority", "maximum-net-dwellings": "7", "point": "POINT(-0.606276 51.35387)", "name": "SHBR130", "deliverable": "yes", "planning-permission-date": "2019-03-25", "planning-permission-history": "https://publicaccess.surreyheath.gov.uk/online-applications/applicationDetails.do?keyVal=ZZZZMOPRDR955&activeTab=summary", "site-address": "79-81 Windsor Road, Chobham, GU24 8LD", "notes": "https://publicaccess.surreyheath.gov.uk/online-applications/applicationDetails.do?keyVal=ZZZZMOPRDR955&activeTab=summary. https://publicaccess.surreyheath.gov.uk/online-applications/applicationDetails.do?keyVal=ZZZZMOPRDR955&activeTab=summary", "planning-permission-status": "Not permissioned", "site": "SHBR130", "organisation": "local-authority-eng:SUR", "site-plan-url": "https://publicaccess.surreyheath.gov.uk/online-applications/applicationDetails.do?keyVal=ZZZZMOPRDR955&activeTab=summary", "start-date": "2019-12-19", "minimum-net-dwellings": "7", "slug": "/brownfield-land/local-authority-eng/SUR/SHBR130", "entity": 495217, "entry-date": "2019-12-19"}}