{"type": "Feature", "geometry": {"type": "Point", "coordinates": [1.26385, 52.06162]}, "properties": {"resource": "d319ddf23371dfa619f399bc6ac231b78dd4cb58f51b3d047551336f50299e03", "site-address": "Foxwood House, 75 Dobbs Lane, Kesgrave", "deliverable": "", "end-date": "", "entry-date": "2019-12-30", "hazardous-substances": "", "hectares": "0.21", "maximum-net-dwellings": "8", "minimum-net-dwellings": "8", "notes": "", "organisation": "local-authority-eng:ESK", "ownership-status": "not owned by a public authority", "planning-permission-date": "2018-04-04", "planning-permission-history": "https://publicaccess.eastsuffolk.gov.uk/online-applications/applicationDetails.do?activeTab=summary&keyVal=P477L3QX0H800", "planning-permission-status": "permissioned", "planning-permission-type": "full planning permission", "point": "POINT(1.26385 52.06162)", "site": "ES056", "site-plan-url": "http://eastsuffolk.maps.arcgis.com/apps/MapJournal/index.html?appid=6eb61ef7c03744668814fba6f1587f4e", "start-date": "2019-12-30", "id": "d319ddf23371dfa619f399bc6ac231b78dd4cb58f51b3d047551336f50299e03:56739"}}