{"type": "Feature", "geometry": {"type": "Point", "coordinates": [-2.244345, 53.474176]}, "properties": {"name": "118033/P3OPA/2017", "minimum-net-dwellings": "90", "site-address": "Barclay House 35 Whitworth Street West", "notes": "Notification for Prior Approval for a Proposed Change of Use of building (excluding basement) from Office Use (Class B1 (a)) to a provide 90 no. residential apartments (Use Class C3)", "site": "118033/P3OPA/2017", "planning-permission-status": "permissioned", "maximum-net-dwellings": "90", "planning-permission-history": "http://pa.manchester.gov.uk/online-applications/", "organisation": "local-authority-eng:MAN", "start-date": "2018-12-31", "hectares": "0.13", "planning-permission-date": "2018-01-31", "planning-permission-type": "full planning permission", "point": "POINT(-2.244345 53.474176)", "site-plan-url": "https://mappinggm.org.uk/gmodin/", "deliverable": "yes", "slug": "/brownfield-land/local-authority-eng/MAN/118033-P3OPA-2017", "entry-date": "2018-12-31"}}