{"type": "Feature", "geometry": {"type": "Point", "coordinates": [0.065939, 51.207234]}, "properties": {"resource": "d8f0bf38a549322049def5c791474eca29e1d3fe5776153bce8e2f0fd5b1fc39", "site-address": "Westerham House, Fircroft Way, TN8 6EL", "deliverable": "yes", "end-date": "", "entry-date": "2020-05-27", "hazardous-substances": "", "hectares": "0.65426736", "maximum-net-dwellings": "36", "minimum-net-dwellings": "36", "notes": "SE/15/00376", "organisation": "local-authority-eng:SEV", "ownership-status": "not owned by a public authority", "planning-permission-date": "", "planning-permission-history": "https://pa.sevenoaks.gov.uk/online-applications/", "planning-permission-status": "permissioned", "planning-permission-type": "full planning permission", "point": "POINT(0.065939 51.207234)", "site": "BFR99", "site-plan-url": "https://maps.sevenoaks.gov.uk/brownfield_register/", "start-date": "", "id": "d8f0bf38a549322049def5c791474eca29e1d3fe5776153bce8e2f0fd5b1fc39:57869"}}