{"type": "Feature", "geometry": {"type": "Point", "coordinates": [0.063042, 51.434341]}, "properties": {"resource": "7b913c52d8f27965df11035d969a9803fa35921c4a2d889867a9e6151681ab8f", "site-address": "\u201c260-262 Green Lane Mottingham\u201c", "deliverable": "yes", "end-date": "2019-12-17", "entry-date": "2019-12-17", "hazardous-substances": "", "hectares": "0.07", "maximum-net-dwellings": "10", "minimum-net-dwellings": "10", "notes": "\u201c16/0273/F. Completed in 2019.", "organisation": "local-authority-eng:GRE", "ownership-status": "not owned by a public authority", "planning-permission-date": "2017-02-24", "planning-permission-history": "https://www.royalgreenwich.gov.uk/info/200193/planning_applications_and_permissions/21/view_planning_applications_decisions_and_appeals", "planning-permission-status": "permissioned", "planning-permission-type": "full planning permission", "point": "POINT(0.063042 51.434341)", "site": "RBG-70", "site-plan-url": "", "start-date": "2017-12-22", "id": "7b913c52d8f27965df11035d969a9803fa35921c4a2d889867a9e6151681ab8f:33610"}}