{"type": "Feature", "geometry": {"type": "Point", "coordinates": [-1.192513, 52.661837]}, "properties": {"site-plan-url": "https://www.charnwood.gov.uk/pages/strategic_housing_and_employment_land_availability_assessments_2014", "planning-permission-status": "permissioned", "site-address": "Gynsill Court Gynsill Lane Anstey", "maximum-net-dwellings": "40", "hectares": "2.8", "start-date": "2017-11-15", "organisation": "local-authority-eng:CHA", "point": "POINT(-1.192513 52.661837)", "site": "SH108", "planning-permission-type": "full planning permission", "deliverable": "yes", "name": "SH108", "notes": "Erection of 40 dwellings. (Reserved matters - outline application P/13/2263/2 refers)", "planning-permission-date": "2017-05-19", "planning-permission-history": "http://portal.charnwood.gov.uk/Northgate/PlanningExplorerAA/Home.aspx", "minimum-net-dwellings": "40", "ownership-status": "not owned by a public authority", "slug": "/brownfield-land/local-authority-eng/CHA/SH108", "entry-date": "2019-12-19"}}