{"type": "Feature", "geometry": {"type": "Point", "coordinates": [-0.07761, 51.336355]}, "properties": {"site": "18/00144/FUL", "deliverable": "yes", "organisation": "local-authority-eng:CRY", "name": "18/00144/FUL", "maximum-net-dwellings": "8", "planning-permission-type": "full planning permission", "start-date": "2020-12-22", "planning-permission-status": "permissioned", "hectares": "0.304", "site-plan-url": "https://publicaccess3.croydon.gov.uk/online-applications/applicationDetails.do?activeTab=details&keyVal=P2FT6CJLM0B00", "site-address": "1, Addington Road", "planning-permission-date": "2019-01-25", "planning-permission-history": "https://publicaccess3.croydon.gov.uk/online-applications/applicationDetails.do?activeTab=details&keyVal=P2FT6CJLM0B00", "minimum-net-dwellings": "8", "point": "POINT(-0.07761 51.336355)", "ownership-status": "not owned by a public authority", "slug": "/brownfield-land/local-authority-eng/CRY/18-00144-FUL", "entity": null, "entry-date": "2020-12-22"}}