{"type": "Feature", "geometry": {"type": "Point", "coordinates": [-0.165058, 51.455176]}, "properties": {"maximum-net-dwellings": "16", "planning-permission-status": "permissioned", "deliverable": "yes", "site-address": "The Northcote Library, Chatham Hall and garages west of Chatham Hall, 155e Northcote Road", "point": "POINT(-0.165058 51.455176)", "ownership-status": "owned by a public authority", "hectares": "0.24", "organisation": "local-authority-eng:WND", "site": "WBR/19/0068", "site-plan-url": "https://maps.wandsworth.gov.uk/map/Aurora.svc/run?script=%5cAurora%5cpublic_Brownfield_Sites.AuroraScript%24&nocache=614915663&resize=always", "minimum-net-dwellings": "16", "name": "WBR/19/0068", "start-date": "2019-03-31", "planning-permission-history": "https://planning1.wandsworth.gov.uk/Northgate/PlanningExplorer/DisplayAppDetails.aspx?AppNo=2018/5833", "slug": "/brownfield-land/local-authority-eng/WND/WBR-19-0068", "entry-date": "2019-03-31", "planning-permission-date": "2020-03-25", "planning-permission-type": "full planning permission"}}