{"type": "Feature", "geometry": {"type": "Point", "coordinates": [-2.516458, 53.4921]}, "properties": {"planning-permission-history": "https://wigan.maps.arcgis.com/apps/webappviewer/index.html?id=ce2e56afe2ad411bacfa8cb6706f8f84&extent=365532.201594,399762.340499,366132.201594,399462.340499,27700", "hectares": "9.866947", "deliverable": "yes", "point": "POINT(-2.516458 53.4921)", "site-plan-url": "https://www.arcgis.com/apps/webappviewer/index.html?id=4c4af404cd73491b8cf8dba6fc465395&query=Wigan_Brownfield_2017_Rev_A_9008_0,SITEREF,SHLAA0200", "name": "SHLAA0200", "planning-permission-date": "2020-03-05", "notes": "A/15/80681 refers", "site": "SHLAA0200", "minimum-net-dwellings": "372", "planning-permission-status": "permissioned", "maximum-net-dwellings": "372", "planning-permission-type": "reserved matters approval", "start-date": "2016-04-01", "site-address": "Bridgewater Business Park West Bridgewater Street Leigh", "organisation": "local-authority-eng:WGN", "ownership-status": "not owned by a public authority", "slug": "/brownfield-land/local-authority-eng/WGN/SHLAA0200", "entity": 497707, "entry-date": "2018-11-01"}}