{"type": "Feature", "geometry": {"type": "Point", "coordinates": [-0.096214, 51.503575]}, "properties": {"resource": "69584001774ee43f8bc3e6df5517c2b8eb3109bcb6db5e1e5103e9ff594f2c22", "site-address": "8 Playhouse Court, 62 Southwark Bridge SE1 0AT", "deliverable": "yes", "end-date": "", "entry-date": "2017-12-20", "hazardous-substances": "", "hectares": "0.03", "maximum-net-dwellings": "0", "minimum-net-dwellings": "0", "notes": "Construction of a 4th and 5th floor extension to create 1x 3 bedrooms self-contained unit on the proposed 4th floor, and a living room and kitchen on the proposed 5th floor.", "organisation": "local-authority-eng:SWK", "ownership-status": "", "planning-permission-date": "2017-06-29", "planning-permission-history": "", "planning-permission-status": "permissioned", "planning-permission-type": "full planning permission", "point": "POINT(-0.096214 51.503575)", "site": "17-AP-1715", "site-plan-url": "", "start-date": "2017-12-20", "id": "69584001774ee43f8bc3e6df5517c2b8eb3109bcb6db5e1e5103e9ff594f2c22:27238"}}