{"type": "Feature", "geometry": {"type": "Point", "coordinates": [-0.282421, 52.615766]}, "properties": {"site-plan-url": "https://planpa.peterborough.gov.uk/online-applications/applicationDetails.do?activeTab=map&keyVal=P0ULTYML0CW00", "maximum-net-dwellings": "5", "point": "POINT(-0.282421 52.615766)", "planning-permission-history": "https://planpa.peterborough.gov.uk/online-applications/applicationDetails.do?activeTab=relatedCases&keyVal=P0ULTYML0CW00", "site-address": "1374 Lincoln Road Peterborough PE4 6LS", "planning-permission-type": "full planning permission", "start-date": "2017-12-19", "planning-permission-status": "permissioned", "minimum-net-dwellings": "5", "name": "PDL/0048/17", "planning-permission-date": "2007-11-01", "hectares": "3.4", "deliverable": "yes", "organisation": "local-authority-eng:PTE", "site": "PDL/0048/17", "slug": "/brownfield-land/local-authority-eng/PTE/PDL-0048-17", "entity": 490748, "entry-date": "2017-12-19"}}