{"type": "Feature", "geometry": {"type": "Point", "coordinates": [0.019476, 51.576895]}, "properties": {"site-plan-url": "https://my.redbridge.gov.uk/map/brownfield-land-register/BRLBR0161", "site-address": "The British Queen, 63 Wanstead", "planning-permission-type": "full planning permission", "hectares": "0.1", "planning-permission-status": "permissioned", "start-date": "2019-07-12", "name": "BRLBR0161", "minimum-net-dwellings": "12", "planning-permission-date": "2017-09-09", "deliverable": "yes", "notes": "Approved Planning Application - 3691/15. Housing. https://www.redbridge.gov.uk", "planning-permission-history": "http://planning.redbridge.gov.uk/swiftlg/apas/run/wphappcriteria.display", "ownership-status": "not owned by a public authority", "organisation": "local-authority-eng:RDB", "maximum-net-dwellings": "12", "point": "POINT(0.019476 51.576895)", "site": "BRLBR0161", "slug": "/brownfield-land/local-authority-eng/RDB/BRLBR0161", "entry-date": "2019-07-12"}}