{"type": "Feature", "geometry": {"type": "Point", "coordinates": [-0.052497, 51.415151]}, "properties": {"organisation": "local-authority-eng:BRY", "site-address": "129 High Street Penge London SE20 7DS", "planning-permission-type": "full planning permission", "planning-permission-date": "2018-07-25", "maximum-net-dwellings": "6", "planning-permission-status": "permissioned", "hectares": "0.018", "deliverable": "yes", "point": "POINT(-0.052497 51.415151)", "minimum-net-dwellings": "6", "site": "BLR84", "name": "BLR84", "slug": "/brownfield-land/local-authority-eng/BRY/BLR84", "entry-date": "2019-10-20"}}