{"type": "Feature", "geometry": {"type": "Point", "coordinates": [-1.189974, 52.909039]}, "properties": {"organisation": "local-authority-eng:NGM", "name": "283", "maximum-net-dwellings": "6", "minimum-net-dwellings": "6", "ownership-status": "not owned by a public authority", "planning-permission-date": "2015-08-21", "hectares": "0.51", "start-date": "2017-12-14", "deliverable": "yes", "planning-permission-history": "http://publicaccess.nottinghamcity.gov.uk/online-applications/applicationDetails.do?activeTab=summary&keyVal=NK9Z74LY01B00", "point": "POINT(-1.189974 52.909039)", "site-address": "Old Rectory, Village Road", "site-plan-url": "http://maps.nottinghamcity.gov.uk/insightmapping/?l=0.21,9.63&xmin=454534.3016999997&xmax=454627.52859999985&ymin=334835.70350000076&ymax=334929.1766999997", "site": "283", "notes": "DevelopmentDescription: Multiple applications POSSIBLY Three new dwellings in grounds of existing property.; SiteInformation: N/A; NonHousingDevelopment: N/A; ProposedForPIP: No; Notes: N/A", "planning-permission-status": "permissioned", "slug": "/brownfield-land/local-authority-eng/NGM/283", "entry-date": "2019-08-12", "planning-permission-type": "full planning permission"}}