{"type": "Feature", "geometry": {"type": "Point", "coordinates": [0.077191, 51.559528]}, "properties": {"resource": "53ff7410d03797e7747d4df128ca450bbe808f4eacc79d0e2d18623ab4a99554", "site-address": "202-224 High Road Ilford", "deliverable": "yes", "end-date": "", "entry-date": "2019-07-12", "hazardous-substances": "", "hectares": "0.10000000000000001", "maximum-net-dwellings": "15", "minimum-net-dwellings": "15", "notes": "Approved Prior Approval Application - 0750/15 - Located within Ilford Housing Zone - Local Plan allocation site number: 26. Housing. https://www.redbridge.gov.uk/media/3988/lbr-2061-revised-appendix-1-development-opportunity-sites-august-2017.pdf", "organisation": "local-authority-eng:RDB", "ownership-status": "", "planning-permission-date": "2017-05-04", "planning-permission-history": "http://planning.redbridge.gov.uk/swiftlg/apas/run/wphappcriteria.display", "planning-permission-status": "permissioned", "planning-permission-type": "full planning permission", "point": "POINT(0.077191 51.559528)", "site": "BRLBR0023", "site-plan-url": "", "start-date": "2019-07-12", "id": "53ff7410d03797e7747d4df128ca450bbe808f4eacc79d0e2d18623ab4a99554:20469"}}