{"type": "Feature", "geometry": {"type": "Point", "coordinates": [-1.161175, 52.956028]}, "properties": {"hectares": "0.02", "planning-permission-status": "permissioned", "name": "'1998", "start-date": "2017-12-14", "notes": "Conversion of existing and four storey extension to side to form 10 apartments.", "point": "POINT(-1.161175 52.956028)", "site": "'1998", "planning-permission-date": "2013-04-26", "planning-permission-history": "http://publicaccess.nottinghamcity.gov.uk/online-applications/applicationDetails.do?activeTab=summary&keyVal=MDGWX6LYCB000", "site-plan-url": "http://maps.nottinghamcity.gov.uk/insightmapping/?l=0.21,9.63&xmin=456447.5999999996&xmax=456471.4000000004&ymin=340171.69999999925&ymax=340187.5", "organisation": "local-authority-eng:NGM", "planning-permission-type": "full planning permission", "minimum-net-dwellings": "12", "site-address": "1, 1A And 3 And 3A Canning Chambers, Canning Circus", "maximum-net-dwellings": "12", "slug": "/brownfield-land/local-authority-eng/NGM/-1998", "entity": 488792, "entry-date": "2017-12-14"}}