{"type": "Feature", "geometry": {"type": "Point", "coordinates": [-2.876752, 53.194638]}, "properties": {"resource": "a28ab5b077b2881b307a9055ca692b548784af55fdeb821da957363d6d356d6b", "site-address": "Land at Premier House, Charterhall Drive, Chester", "deliverable": "", "end-date": "", "entry-date": "2017-12-21", "hazardous-substances": "", "hectares": "2.48", "maximum-net-dwellings": "200", "minimum-net-dwellings": "200", "notes": "12/04895/FUL 14/03317/REM 14/01799/NMA. Full permission for first office building and outline permission for mixed use development comprising office buildings, dwellings, shops, financial and professional services, restaurants and cafes, drinking establishments, hot food takeaways, non residential institutions, assembly and leisure, access, car parking, servicing and landscaping", "organisation": "local-authority-eng:CHW", "ownership-status": "not owned by a public authority", "planning-permission-date": "", "planning-permission-history": "", "planning-permission-status": "permissioned", "planning-permission-type": "reserved matters approval", "point": "POINT(-2.876752 53.194638)", "site": "BOU/0045", "site-plan-url": "http://consult.cheshirewestandchester.gov.uk/portal/cwc_ldf/land/blr?tab=files", "start-date": "2017-12-21", "id": "BOU-0045"}}