{"type": "Feature", "geometry": {"type": "Point", "coordinates": [-1.590897, 53.777207]}, "properties": {"planning-permission-status": "permissioned", "name": "SHL00281", "notes": "Reserved Matters application for 154 dwellings", "site-address": "Royds Lane, Wortley, LS12", "deliverable": "yes", "site": "SHL00281", "planning-permission-type": "reserved matters approval", "ownership-status": "not owned by a public authority", "site-plan-url": "https://leedscc.maps.arcgis.com/apps/webappviewer/index.html?id=612532561dc547fa93e683a5fca73079&find=SHL00281", "maximum-net-dwellings": "85", "planning-permission-date": "2014-09-19", "hectares": "5.34", "minimum-net-dwellings": "85", "start-date": "2016-11-07", "organisation": "local-authority-eng:LDS", "slug": "/brownfield-land/local-authority-eng/LDS/SHL00281", "entry-date": "2016-11-07", "point": "POINT(-1.590897 53.777207)"}}