{"type": "Feature", "geometry": {"type": "Point", "coordinates": [0.299236, 51.615946]}, "properties": {"notes": "Prior Approval Notification Class O - Change of use from office space (B1(a)) to 35-40 residential flats (C3 use class)", "point": "POINT(0.299236 51.615946)", "site": "16/00606/PNCOU", "planning-permission-type": "other", "maximum-net-dwellings": "35", "ownership-status": "not owned by a public authority", "site-address": "Kings House 101 - 135 Kings Road Brentwood CM14 4DR", "organisation": "local-authority-eng:BRW", "hectares": "0.29", "name": "16/00606/PNCOU", "planning-permission-date": "2016-06-21", "minimum-net-dwellings": "35", "start-date": "2017-12-22", "site-plan-url": "http://myproperty.brentwood.gov.uk/cnet49live/cmfindit/Default.aspx?getmap=true&scale=750&location=559270.875^193306.825&layersidentifier=7128169958564ccc9bfc6717f3fad101&menuconfig=BrownfieldSites&backgroundmap=MapDefaultLayerNames", "planning-permission-status": "permissioned", "slug": "/brownfield-land/local-authority-eng/BRW/16-00606-PNCOU", "entity": 478077, "entry-date": "2021-03-22"}}