{"type": "Feature", "geometry": {"type": "Point", "coordinates": [-1.982211, 53.444154]}, "properties": {"resource": "29cd3a037ea1918f1b6fdef8944fc4c22774eeff172afd464c1c3531a06c56b4", "site-address": "OLD RAIL SIDINGS GLOSSOP ROAD GLOSSOP GAMESLEY (sanas romeo)", "deliverable": "yes", "end-date": "", "entry-date": "2017-11-30", "hazardous-substances": "", "hectares": "4.42", "maximum-net-dwellings": "93", "minimum-net-dwellings": "93", "notes": "", "organisation": "local-authority-eng:HIG", "ownership-status": "", "planning-permission-date": "", "planning-permission-history": "", "planning-permission-status": "permissioned", "planning-permission-type": "full planning permission", "point": "POINT(-1.982211 53.444154)", "site": "GA001", "site-plan-url": "https://www.highpeak.gov.uk/media/3857/HPBC-Brownfield-Land-Register-2018-Maps/pdf/HPBC_Brownfield_Register_2018_Maps.pdf", "start-date": "2017-11-30", "id": "29cd3a037ea1918f1b6fdef8944fc4c22774eeff172afd464c1c3531a06c56b4:8243"}}