{"type": "Feature", "geometry": {"type": "Point", "coordinates": [0.101752, 51.427916]}, "properties": {"resource": "f3a0709958e55b5812bb56c7db9f3f4383a203dcc0abfee8a2c9147ff8bf93e9", "site-address": "Roxby House, 20-22 Station Road, Sidcup", "deliverable": "yes", "end-date": "", "entry-date": "2017-12-07", "hazardous-substances": "", "hectares": "0.10", "maximum-net-dwellings": "20", "minimum-net-dwellings": "20", "notes": "14/00459/PRIOR. Prior notification of change of use from Offices to residential comprising 20 flats.", "organisation": "local-authority-eng:BEX", "ownership-status": "not owned by a public authority", "planning-permission-date": "2014-04-25", "planning-permission-history": "http://pa.bexley.gov.uk/online-applications/propertyDetails.do?activeTab=relatedCases&keyVal=002703BELI000", "planning-permission-status": "permissioned", "planning-permission-type": "other", "point": "POINT(0.101752 51.427916)", "site": "BLR055", "site-plan-url": "http://www.bexley.gov.uk/sites/bexley-cms/files/2017-12/Roxby-House-20-to-22-Station-Road-Sidcup.pdf", "start-date": "2017-12-07", "id": "f3a0709958e55b5812bb56c7db9f3f4383a203dcc0abfee8a2c9147ff8bf93e9:64210"}}