{"type": "Feature", "geometry": {"type": "Point", "coordinates": [-2.156548, 52.594601]}, "properties": {"resource": "d1ea336f6fd8dd1e8e9cfd16517a7bcd55ddcf8f06dd67839b3c95d15b40cd16", "site-address": "265 Tettenhall Road Wolverhampton WV6 0DE", "deliverable": "", "end-date": "", "entry-date": "2019-01-01", "hazardous-substances": "", "hectares": "0.1065", "maximum-net-dwellings": "", "minimum-net-dwellings": "", "notes": "", "organisation": "local-authority-eng:WLV", "ownership-status": "", "planning-permission-date": "", "planning-permission-history": "", "planning-permission-status": "permissioned", "planning-permission-type": "", "point": "POINT(-2.156548 52.594601)", "site": "40670", "site-plan-url": "", "start-date": "2019-01-01", "slug": "local-authority-eng/WLV/40670"}}