{"type": "Feature", "geometry": {"type": "Point", "coordinates": [-3.012701, 53.924784]}, "properties": {"site-plan-url": "https://wyre.maps.arcgis.com/apps/View/index.html?appid=4135b23d4bb04469a3a533a759ade8e8", "planning-permission-type": "outline planning permission", "ownership-status": "not owned by a public authority", "planning-permission-history": "https://publicaccess.wyre.gov.uk/online-applications/", "site": "BR030", "maximum-net-dwellings": "6", "notes": "Housing estimate reflects planning permission - Outline application for demolition of existing garage, warehouse and store buildings and erection of two 2/3 bed mews houses and four 1 bed apartments with associated access (all other matters reserved) (re-submission of 17/00977/OUTMAJ)", "planning-permission-date": "2018-09-28", "planning-permission-status": "permissioned", "minimum-net-dwellings": "6", "organisation": "local-authority-eng:WYR", "point": "POINT(-3.012701 53.924784)", "start-date": "2018-09-30", "name": "BR030", "hectares": "0.11", "deliverable": "yes", "site-address": "Rear 91 Victoria Street, Fleetwood", "slug": "/brownfield-land/local-authority-eng/WYR/BR030", "entity": 500256, "entry-date": "2018-09-30"}}