{"type": "Feature", "geometry": {"type": "Point", "coordinates": [-1.561507, 54.184968]}, "properties": {"resource": "ea371d852bf376c050e00acbe72461b5cf1363ccb5ebb6331e6aaa55acb22152", "site-address": "Land to west of Cockpit Green, North Stainley", "deliverable": "yes", "end-date": "", "entry-date": "2018-10-04", "hazardous-substances": "", "hectares": "0.46", "maximum-net-dwellings": "13", "minimum-net-dwellings": "13", "notes": "Included as housing allocation in Publication Local Plan (submitted for examination in August 2018). Erection of minimum of 13 dwellings", "organisation": "local-authority-eng:HAG", "ownership-status": "not owned by a public authority", "planning-permission-date": "", "planning-permission-history": "", "planning-permission-status": "Not permissioned", "planning-permission-type": "", "point": "POINT(-1.561507 54.184968)", "site": "BR30", "site-plan-url": "http://harrogatebc.maps.arcgis.com/apps/webappviewer/index.html?id=35605b223adf4a81b45b1a6e1f129a75&find=BR30", "start-date": "2017-10-04", "id": "ea371d852bf376c050e00acbe72461b5cf1363ccb5ebb6331e6aaa55acb22152:62347"}}