{"type": "Feature", "geometry": {"type": "Point", "coordinates": [-0.132071, 51.516583]}, "properties": {"organisation": "local-authority-eng:WSM", "start-date": "2017-11-30", "maximum-net-dwellings": "0", "notes": "SHLAA. Proposals site in Westminster\ufffds City Plan", "minimum-net-dwellings": "0", "hectares": "0.257737", "name": "17330013", "planning-permission-status": "not permissioned", "site-address": "26-32 Oxford Street", "point": "POINT(-0.132071 51.516583)", "site": "17330013", "site-plan-url": "https://lbhf.maps.arcgis.com/apps/View/index.html?appid=d0d51e7d013a4d1a953ecc1cff697d24&site=17330013", "slug": "/brownfield-land/local-authority-eng/WSM/17330013", "entry-date": "2017-11-30"}}