{"type": "Feature", "geometry": {"type": "Point", "coordinates": [-1.089515, 53.956984]}, "properties": {"resource": "70a6788e5ce819c922dba6c7a5ab9a1ad493b82bc9862e64a21ada08de6c95e0", "site-address": "The Falcon Tap 94 Micklegate", "deliverable": "yes", "end-date": "", "entry-date": "2017-12-21", "hazardous-substances": "", "hectares": "0.04", "maximum-net-dwellings": "0", "minimum-net-dwellings": "0", "notes": "17/01468/FULM. External alterations relating to retained ground floor public house and renovation of upper floors to form two flats, and demolition of extensions and construction of two residential blocks to rear forming 9no flats", "organisation": "local-authority-eng:YOR", "ownership-status": "not owned by a public authority", "planning-permission-date": "2017-11-13", "planning-permission-history": "https://www.york.gov.uk/SearchPlanningApplications", "planning-permission-status": "permissioned", "planning-permission-type": "full planning permission", "point": "POINT(-1.089515 53.956984)", "site": "BR-005", "site-plan-url": "https://www.york.gov.uk/downloads/download/4172/brownfield_register", "start-date": "2017-12-21", "id": "70a6788e5ce819c922dba6c7a5ab9a1ad493b82bc9862e64a21ada08de6c95e0:26966"}}