{"type": "Feature", "geometry": {"type": "Point", "coordinates": [-1.554837, 53.790695]}, "properties": {"ownership-status": "mixed ownership", "name": "SHL00177", "site": "SHL00177", "site-address": "Bath Road LS11", "planning-permission-status": "not permissioned", "maximum-net-dwellings": "120", "point": "POINT(-1.554837 53.790695)", "start-date": "2016-11-07", "deliverable": "yes", "minimum-net-dwellings": "120", "site-plan-url": "https://leedscc.maps.arcgis.com/apps/webappviewer/index.html?id=612532561dc547fa93e683a5fca73079&find=SHL00177", "organisation": "local-authority-eng:LDS", "hectares": "0.99", "slug": "/brownfield-land/local-authority-eng/LDS/SHL00177", "entity": 485595, "entry-date": "2016-11-07"}}