{"type": "Feature", "geometry": {"type": "Point", "coordinates": [-2.227484, 55.647973]}, "properties": {"resource": "51fd36daf72b8b22fcaff19185e18c31456457ac8116b866c28959be3c69eb1a", "site-address": "Land at Cornhill First School, St Helen's Gardens, Cornhill-on-Tweed (brownfield parcel)", "deliverable": "", "end-date": "", "entry-date": "2017-12-17", "hazardous-substances": "", "hectares": "0.41", "maximum-net-dwellings": "12", "minimum-net-dwellings": "12", "notes": "Application currently pending for demolition of existing school building and replacement with 24 two- and three-bed dwellings - 17/03894/FUL. This relates to both brownfield and greenfield land on site", "organisation": "local-authority-eng:NBL", "ownership-status": "owned by a public authority", "planning-permission-date": "", "planning-permission-history": "https://publicaccess.northumberland.gov.uk/online-applications/propertyDetails.do?activeTab=relatedCases&keyVal=M82NQ6QS04N00", "planning-permission-status": "pending decision", "planning-permission-type": "", "point": "POINT(-2.227484 55.647973)", "site": "6950x", "site-plan-url": "http://northumberland.maps.arcgis.com/apps/webappviewer/index.html?id=c1b801d50f8040efbf8c9bc9f916cfae", "start-date": "2017-12-17", "id": "local-authority-eng/NBL/6950x"}}