{"type": "Feature", "geometry": {"type": "Point", "coordinates": [-2.002839, 52.386108]}, "properties": {"resource": "77da1087f91eafee42797dbaa9bebef573d2eb759b39d9db130c99d34cbe4ec4", "site-address": "Land adjacent to 317 Leach Green Lane, Rubery & Rednal", "deliverable": "", "end-date": "", "entry-date": "2017-12-19", "hazardous-substances": "", "hectares": "0.28", "maximum-net-dwellings": "6", "minimum-net-dwellings": "6", "notes": "Identified by Consultants", "organisation": "local-authority-eng:BIR", "ownership-status": "", "planning-permission-date": "", "planning-permission-history": "", "planning-permission-status": "Not Permissioned", "planning-permission-type": "", "point": "POINT(-2.002839 52.386108)", "site": "S182", "site-plan-url": "https://maps.birmingham.gov.uk/webapps/shlaa/", "start-date": "2017-12-19", "id": "77da1087f91eafee42797dbaa9bebef573d2eb759b39d9db130c99d34cbe4ec4:32024"}}