{"type": "Feature", "geometry": {"type": "Point", "coordinates": [-0.06413, 51.598097]}, "properties": {"site": "HGY/2009/0893", "site-address": "5 Stirling Road London N17 9UN London", "planning-permission-type": "full planning permission", "planning-permission-date": "2009-07-22", "hectares": "0.02", "name": "HGY/2009/0893", "site-plan-url": "http://www.planningservices.haringey.gov.uk/portal/servlets/ApplicationSearchServlet?PKID=199761", "ownership-status": "not owned by a public authority", "minimum-net-dwellings": "2", "start-date": "2017-12-31", "maximum-net-dwellings": "2", "notes": "Permission has lapsed. Demolition of existing building and erection of 2 x 4 bedroom dwellinghouses.. http://www.planningservices.haringey.gov.uk/portal/servlets/ApplicationSearchServlet?PKID=199761", "deliverable": "yes", "planning-permission-status": "permissioned", "organisation": "local-authority-eng:HRY", "slug": "/brownfield-land/local-authority-eng/HRY/HGY-2009-0893", "entity": 484364, "entry-date": "2021-02-02", "point": "POINT(-0.06413 51.598097)"}}