{"type": "Feature", "geometry": {"type": "Point", "coordinates": [-0.275131, 51.424898]}, "properties": {"resource": "4d36cd34b2a0e6d68d42445b56373a6972e44587bbd208737cc7bd1a88fcf50f", "site-address": "Cotswood, Kingston Hill, Kingston upon Thames", "deliverable": "yes", "end-date": "", "entry-date": "2017-12-12", "hazardous-substances": "", "hectares": "0.08", "maximum-net-dwellings": "5", "minimum-net-dwellings": "5", "notes": "Planning permission 16/14542/FUL for 1 net additional home (C3) granted on 15/03/2017. Site has capacity to deliver at least 5 net additional homes (C3).. Demolition of the existing dwelling and erection of 2 x four-bedroom semi-detached dwellings (C3) consisting of a basement, ground and first floors, with further accommodation in the roof.", "organisation": "local-authority-eng:KTT", "ownership-status": "", "planning-permission-date": "2017-03-15", "planning-permission-history": "https://maps.kingston.gov.uk/propertyServices/planning/Details?caseNo=16/14542/FUL", "planning-permission-status": "permissioned", "planning-permission-type": "full planning permission", "point": "POINT(-0.275131 51.424898)", "site": "RBK0050", "site-plan-url": "https://maps.london.gov.uk/brownfield-site-register", "start-date": "2017-12-12", "id": "RBK0050"}}