{"type": "Feature", "geometry": {"type": "Point", "coordinates": [-3.021154, 53.411644]}, "properties": {"resource": "6a9a2fadde5d38023cc88d97ce04c3e52781d6f5332c79c72bdb89318fab6cc1", "site-address": "Former La Banque 58 Borough Road, Seacombe", "deliverable": "yes", "end-date": "", "entry-date": "2017-12-22", "hazardous-substances": "", "hectares": "0.15", "maximum-net-dwellings": "28", "minimum-net-dwellings": "28", "notes": "Renewal of OUT/13/01140. Apartments in 3 storey and2 storey blocks", "organisation": "local-authority-eng:WRL", "ownership-status": "not owned by a public authority", "planning-permission-date": "", "planning-permission-history": "https://planning.wirral.gov.uk/online-applications/applicationDetails.do?activeTab=summary&keyVal=_WIRRA_DCAPR_102041", "planning-permission-status": "pending decision", "planning-permission-type": "", "point": "POINT(-3.021154 53.411644)", "site": "103100", "site-plan-url": "https://mapping.wirral.gov.uk/wml8/Map.aspx?MapName=Brownfield", "start-date": "2017-12-22", "id": "6a9a2fadde5d38023cc88d97ce04c3e52781d6f5332c79c72bdb89318fab6cc1:28278"}}