{"type": "Feature", "geometry": {"type": "Point", "coordinates": [-0.235974, 51.325053]}, "properties": {"resource": "8b7de81eef4d65a2129fc0e549b2f7987a16c9604192cafb92294ee26dcd75b2", "site-address": "Land R/O 127-139 Ruden Way, Epsom Downs", "deliverable": "yes", "end-date": "", "entry-date": "2019-12-31", "hazardous-substances": "", "hectares": "0.30", "maximum-net-dwellings": "4", "minimum-net-dwellings": "4", "notes": "Demolition of no.s 129 and 131 Ruden Way and the erection of 6 new detached dwellings with access from Ruden Way together with car parking.", "organisation": "local-authority-eng:REI", "ownership-status": "not owned by a public authority", "planning-permission-date": "2019-11-29", "planning-permission-history": "https://planning.reigate-banstead.gov.uk/online-applications/propertyDetails.do?activeTab=relatedCases&keyVal=000FALMVLI000", "planning-permission-status": "permissioned", "planning-permission-type": "outline planning permission", "point": "POINT(-0.235974 51.325053)", "site": "RBBCBLR131", "site-plan-url": "http://www.reigate-banstead.gov.uk/downloads/file/5947/rbbcblr131", "start-date": "2019-12-31", "id": "RBBCBLR131"}}