{"type": "Feature", "geometry": {"type": "Point", "coordinates": [-1.36272, 54.061242]}, "properties": {"resource": "e74aa67d877102504e1598111692480f8078944b8e542b46343d38e38027506c", "site-address": "Land to the rear of Hill Top, Main Street, Marton", "deliverable": "", "end-date": "", "entry-date": "2019-10-04", "hazardous-substances": "", "hectares": "0.25", "maximum-net-dwellings": "7", "minimum-net-dwellings": "7", "notes": "", "organisation": "local-authority-eng:HAG", "ownership-status": "not owned by a public authority", "planning-permission-date": "", "planning-permission-history": "", "planning-permission-status": "Not permissioned", "planning-permission-type": "", "point": "POINT(-1.36272 54.061242)", "site": "BR28", "site-plan-url": "http://harrogatebc.maps.arcgis.com/apps/webappviewer/index.html?id=35605b223adf4a81b45b1a6e1f129a75&find=BR28", "start-date": "2017-10-04", "id": "e74aa67d877102504e1598111692480f8078944b8e542b46343d38e38027506c:61505"}}