{"type": "Feature", "geometry": {"type": "Point", "coordinates": [-0.08687, 53.503337]}, "properties": {"planning-permission-type": "reserved matters approval", "name": "BS0045", "hectares": "0.0258", "planning-permission-status": "pending decision", "planning-permission-date": "2018-03-02", "ownership-status": "not owned by a public authority", "deliverable": "yes", "planning-permission-history": "http://planninganddevelopment.nelincs.gov.uk/online-applications/applicationDetails.do?keyVal=OS05LDLJGJA00&activeTab=summary", "site-address": "R/O Helsenor Cheapside, Waltham", "organisation": "local-authority-eng:NEL", "site": "BS0045", "start-date": "2018-10-22", "point": "POINT(-0.08687 53.503337)", "minimum-net-dwellings": "7", "notes": "Erection of seven dwellings, including garages, landscaping, access and extension to footpath", "maximum-net-dwellings": "7", "slug": "/brownfield-land/local-authority-eng/NEL/BS0045", "entry-date": "2018-10-22"}}