{"type": "Feature", "geometry": {"type": "Point", "coordinates": [-1.79738, 53.60018]}, "properties": {"resource": "23b4c4dd48b64f4a926883671c65d90fa2a66643c89e2c4d0e6384d97fc2744c", "site-address": "Victoria Works, Fisher Green, Honley, Holmfirth, HD9 6DP", "deliverable": "yes", "end-date": "", "entry-date": "2017-12-20", "hazardous-substances": "", "hectares": "0.19314", "maximum-net-dwellings": "0", "minimum-net-dwellings": "0", "notes": "Full permission for demolition of industrial building and erection of 17 no. apartments with integral garages and associated parking.", "organisation": "local-authority-eng:KIR", "ownership-status": "not owned by a public authority", "planning-permission-date": "2017-03-28", "planning-permission-history": "http://www.kirklees.gov.uk/beta/planning-applications/search-for-planning-applications/detail.aspx?id=2016%2f92812", "planning-permission-status": "permissioned", "planning-permission-type": "full planning permission", "point": "POINT(-1.79738 53.60018)", "site": "BLR_054", "site-plan-url": "https://mapping.kirklees.gov.uk/connect/analyst/mobile/#/main?mapcfg=Kirklees%20Brownfield%20Land%20Register", "start-date": "2017-12-20", "id": "23b4c4dd48b64f4a926883671c65d90fa2a66643c89e2c4d0e6384d97fc2744c:12842"}}