{"type": "Feature", "geometry": {"type": "Point", "coordinates": [-6.70169, 54.172227]}, "properties": {"point": "POINT(-6.70169 54.172227)", "organisation": "local-authority-eng:CHI", "site-address": "99 - 101 High Street Selsey Chichester", "site-plan-url": "http://www.chichester.gov.uk/CHttpHandler.ashx?id=34506", "ownership-status": "not owned by a public authority", "notes": "Erection of 8 dwellings, including demolition of existing buildings, provision of parking and new paved access, together with a new pedestrian route from East Street public car park to the Pavilion Theatre and High Street.", "maximum-net-dwellings": "8", "name": "BLR0023", "start-date": "2020-12-31", "planning-permission-date": "2020-03-05", "minimum-net-dwellings": "8", "planning-permission-type": "full planning permission", "planning-permission-status": "permissioned", "planning-permission-history": "https://publicaccess.chichester.gov.uk/online-applications/applicationDetails.do?activeTab=documents&keyVal=P74QRAER0XW00", "site": "BLR0023", "hectares": "0.17", "deliverable": "yes", "slug": "/brownfield-land/local-authority-eng/CHI/BLR0023", "entry-date": "2020-12-31"}}