{"type": "Feature", "geometry": {"type": "Point", "coordinates": [-2.585289, 51.914629]}, "properties": {"resource": "2c802529bffeee7f422427fdb8e4b3ad82455bbee3321346ce67da9379ea45ff", "site-address": "Land rear of The Kings Head, High Street, Ross-on-Wye, Herefordshire", "deliverable": "", "end-date": "", "entry-date": "2020-01-07", "hazardous-substances": "", "hectares": "0.1", "maximum-net-dwellings": "", "minimum-net-dwellings": "", "notes": "Alterations, extension and conversion of existing building to provide~nine apartments with ancillary uses and works.", "organisation": "local-authority-eng:HEF", "ownership-status": "", "planning-permission-date": "2013-09-17", "planning-permission-history": "", "planning-permission-status": "permissioned", "planning-permission-type": "full planning permission", "point": "POINT(-2.585289 51.914629)", "site": "131206", "site-plan-url": "https://www.herefordshire.gov.uk/info/200142/planning_services/planning_application_search/details?id=131206", "start-date": "", "id": "131206"}}