{"type": "Feature", "geometry": {"type": "Point", "coordinates": [-2.565961, 53.373647]}, "properties": {"point": "POINT(-2.565961 53.373647)", "start-date": "2017-01-01", "planning-permission-type": "other", "planning-permission-status": "Not Permissioned", "name": "2036.0", "site-address": "Land Bounded by Montclare Crescent, Brian Avenue & Chester Road, Stockton Heath, WA4 2SA", "deliverable": "yes", "minimum-net-dwellings": "51", "site": "2036.0", "maximum-net-dwellings": "51", "notes": "See most recent planning history at warrington.gov.uk. See most recent planning history at warrington.gov.uk", "hectares": "1.53", "organisation": "local-authority-eng:WRT", "slug": "/brownfield-land/local-authority-eng/WRT/2036-0", "entry-date": "2017-01-01"}}