{"type": "Feature", "geometry": {"type": "Point", "coordinates": [-1.593722, 52.593033]}, "properties": {"resource": "723447ef60611babd812113719b6e97c72385682965dde7223794e96e3a8dd22", "site-address": "Land at Spon Lane, Grendon (former Sparrowdale School and Former Recycling Centre)", "deliverable": "yes", "end-date": "", "entry-date": "2018-12-13", "hazardous-substances": "", "hectares": "2.1", "maximum-net-dwellings": "56", "minimum-net-dwellings": "56", "notes": "An application is currently being considered by the authority for 56 dwellings on the site - PAP/2018/0287. The land is allocated for residential development within the New Local Plan, reference H17", "organisation": "local-authority-eng:NWA", "ownership-status": "owned by a public authority", "planning-permission-date": "", "planning-permission-history": "", "planning-permission-status": "pending decision", "planning-permission-type": "", "point": "POINT(-1.593722 52.593033)", "site": "BFR003", "site-plan-url": "", "start-date": "2018-12-13", "id": "723447ef60611babd812113719b6e97c72385682965dde7223794e96e3a8dd22:30957"}}