{"type": "Feature", "geometry": {"type": "Point", "coordinates": [-0.12264, 51.338605]}, "properties": {"maximum-net-dwellings": "7", "point": "POINT(-0.12264 51.338605)", "site-plan-url": "https://publicaccess3.croydon.gov.uk/online-applications/applicationDetails.do?activeTab=details&keyVal=PPDURRJLMKZ00", "organisation": "local-authority-eng:CRY", "planning-permission-date": "2019-07-31", "planning-permission-history": "https://publicaccess3.croydon.gov.uk/online-applications/applicationDetails.do?activeTab=details&keyVal=PPDURRJLMKZ00", "minimum-net-dwellings": "7", "planning-permission-type": "full planning permission", "site-address": "16, Woodcote Valley Road", "start-date": "2020-12-22", "planning-permission-status": "permissioned", "name": "19/01598/FUL", "site": "19/01598/FUL", "hectares": "0.096", "deliverable": "yes", "ownership-status": "not owned by a public authority", "slug": "/brownfield-land/local-authority-eng/CRY/19-01598-FUL", "entity": null, "entry-date": "2020-12-22"}}