{"type": "Feature", "geometry": {"type": "Point", "coordinates": [-1.910186, 53.865326]}, "properties": {"planning-permission-history": "https://planning.bradford.gov.uk/online-applications/applicationDetails.do?keyVal=JYEF6NDHFH000&activeTab=summary|https://planning.bradford.gov.uk/online-applications/applicationDetails.do?keyVal=M16WJIDHC1000&activeTab=summary|https://planning.bradford.", "organisation": "local-authority-eng:BRD", "minimum-net-dwellings": "0", "site-plan-url": "http://cbmdc.maps.arcgis.com/apps/webappviewer/index.html?id=2134938ccf5843649ef0e555c0926dae&extent=405987.7,441004.7,406026.35,441025.85,27700", "deliverable": "yes", "site": "KY/170", "planning-permission-type": "full planning permission", "site-address": "10 Church Street", "notes": "Buildings with conversion permission to 5 apartments", "planning-permission-status": "permissioned", "start-date": "2018-11-01", "point": "POINT(-1.910186 53.865326)", "maximum-net-dwellings": "0", "ownership-status": "not owned by a public authority", "planning-permission-date": "2017-01-14", "hectares": "0.04", "name": "KY/170", "slug": "/brownfield-land/local-authority-eng/BRD/KY-170", "entry-date": "2018-11-01"}}