{"type": "Feature", "geometry": {"type": "Point", "coordinates": [-1.089191, 51.260732]}, "properties": {"resource": "79cdc3e1c43097bd770fcf43fbd54109178ef6c6e8ed0aa7903914919bb3094e", "site-address": "Global House Victoria Street Basingstoke", "deliverable": "yes", "end-date": "", "entry-date": "2018-12-31", "hazardous-substances": "", "hectares": "0.12", "maximum-net-dwellings": "37", "minimum-net-dwellings": "37", "notes": "The site gained prior approval for 37 units in August 2017 (17/01714/GPDOFF). The developer has stated that the development will be complete by 2019/20 following their site acquisition. The site is deliverable within five years.. Change of use of class B1(a) office to class C3 residential consisting of 37no. flats", "organisation": "local-authority-eng:BAN", "ownership-status": "not owned by a public authority", "planning-permission-date": "2017-08-03", "planning-permission-history": "https://planning.basingstoke.gov.uk/online-applications/applicationDetails.do?activeTab=relatedCases&keyVal=OPU0RECR0GT00", "planning-permission-status": "permissioned", "planning-permission-type": "full planning permission", "point": "POINT(-1.089191 51.260732)", "site": "17/01714/GPDOFF", "site-plan-url": "https://planning.basingstoke.gov.uk/online-applications/applicationDetails.do?activeTab=map&keyVal=OPU0RECR0GT00", "start-date": "2017-12-31", "id": "17-01714-GPDOFF"}}