{"type": "Feature", "geometry": {"type": "Point", "coordinates": [0.273815, 51.117994]}, "properties": {"resource": "faaae98e97284002454767f26a5eb0ec6fc3bb9ab3d41d48f1c19652a099000f", "site-address": "Reliance Recovery 13A Benhall Mill Road Royal Tunbridge Wells Kent TN2 5JH", "deliverable": "yes", "end-date": "", "entry-date": "2017-11-27", "hazardous-substances": "", "hectares": "0.19", "maximum-net-dwellings": "6", "minimum-net-dwellings": "6", "notes": "Redevelopment of site to provide 6 dwellings.. LBD", "organisation": "local-authority-eng:TUN", "ownership-status": "not owned by a public authority", "planning-permission-date": "2016-08-12", "planning-permission-history": "", "planning-permission-status": "permissioned", "planning-permission-type": "full planning permission", "point": "POINT(0.273815 51.117994)", "site": "BFR_0016", "site-plan-url": "https://tunbridgewells.maps.arcgis.com/apps/webappviewer/index.html?id=2ae20aa8a81646dcb9cc5280f9d6aab5", "start-date": "2017-11-27", "id": "faaae98e97284002454767f26a5eb0ec6fc3bb9ab3d41d48f1c19652a099000f:65045"}}