{"type": "Feature", "geometry": {"type": "Point", "coordinates": [-0.085225, 51.503025]}, "properties": {"resource": "69584001774ee43f8bc3e6df5517c2b8eb3109bcb6db5e1e5103e9ff594f2c22", "name": "18-AP-0900", "site-address": "Capital House 42-46 Weston Street London SE1 3QD", "deliverable": "", "end-date": "", "entry-date": "2020-03-24", "hazardous-substances": "", "hectares": "0.091", "maximum-net-dwellings": "", "minimum-net-dwellings": "", "notes": "Redevelopment of the site to include the demolition of Capital House and the erection of a 39-storey building (3 basement levels and ground with mezzanine and 38 storeys) of a maximum height of 137.9m (AOD) to provide up to 905 student accommodation units (Sui Generis use), flexible retail/caf\u00e9/office floorspace (Class A1/A3/B1), cycle parking, servicing, refuse and plant areas, public realm improvements and other associated works incidental to the development. The application is accompanied by an Environmental Statement submitted pursuant to the Town and Country Planning (Environmental Impact Assessment) Regulations 2017. A hard copy of the application documents is available for inspection by prior appointment at Southwark Council's offices, 160 Tooley Street, SE1 2QH (Monday to Friday 9am to 5pm). Copies of the Non-Technical Summary are available free of charge, CD copies of the full ES are available for purchase for \u00a310 and printed copies of the ES can be provided on request for sale at a cost of \u00a3300 by contacting: Environmental Planning & Assessment Ltd, 22 Old Kennels Lane, Winchester, SO22 4JP (Tel: 01962 621890 Email: es@epalimited.co.uk)", "organisation": "local-authority-eng:SWK", "ownership-status": "", "planning-permission-date": "", "planning-permission-history": "", "planning-permission-status": "permissioned", "planning-permission-type": "", "point": "POINT(-0.085225 51.503025)", "site": "18-AP-0900", "site-plan-url": "", "start-date": "2020-03-24", "slug": "/brownfield-land/local-authority-eng/SWK/18-AP-0900", "href": "local-authority-eng/SWK/18-AP-0900"}}