{"type": "Feature", "geometry": {"type": "Point", "coordinates": [0.022559, 51.481638]}, "properties": {"planning-permission-type": "full planning permission", "planning-permission-status": "permissioned", "point": "POINT(0.022559 51.481638)", "hectares": "0.03", "maximum-net-dwellings": "5", "start-date": "2017-12-22", "name": "RBG-83", "minimum-net-dwellings": "5", "site": "RBG-83", "organisation": "local-authority-eng:GRE", "deliverable": "yes", "notes": "\u201c17/1441/F. Not started.", "site-address": "\u201c79 Eastcombe Ave Charlton\u201c", "planning-permission-date": "2017-07-24", "slug": "/brownfield-land/local-authority-eng/GRE/RBG-83", "entity": 483072, "entry-date": "2019-12-17", "ownership-status": "not owned by a public authority", "planning-permission-history": "https://www.royalgreenwich.gov.uk/info/200193/planning_applications_and_permissions/21/view_planning_applications_decisions_and_appeals"}}