{"type": "Feature", "geometry": {"type": "Point", "coordinates": [-1.358677, 54.838557]}, "properties": {"organisation": "local-authority-eng:DUR", "name": "5/SE/09", "site-plan-url": "https://maps.durham.gov.uk/OLBasic2/Index.aspx?appid=65&x=441288.887796&y=549491.455991&scale=17", "site": "5/SE/09", "deliverable": "yes", "ownership-status": "mixed ownership", "planning-permission-status": "not permissioned", "maximum-net-dwellings": "332", "minimum-net-dwellings": "332", "start-date": "2018-12-04", "site-address": "S4: Seaham Colliery Site", "point": "POINT(-1.358677 54.838557)", "hectares": "14.75", "slug": "/brownfield-land/local-authority-eng/DUR/5-SE-09", "entry-date": "2018-12-04"}}