{"type": "Feature", "geometry": {"type": "Point", "coordinates": [-0.085857, 51.449834]}, "properties": {"resource": "53ff7410d03797e7747d4df128ca450bbe808f4eacc79d0e2d18623ab4a99554", "site-address": "Rear Of 60 Dulwich Village SE21 7AJ", "deliverable": "yes", "end-date": "", "entry-date": "2017-12-20", "hazardous-substances": "", "hectares": "0.11", "maximum-net-dwellings": "0", "minimum-net-dwellings": "0", "notes": "Erection of two three bedroom semi-detached three storey houses including basement; with associated off-street parking and private gardens.", "organisation": "local-authority-eng:SWK", "ownership-status": "", "planning-permission-date": "2016-04-06", "planning-permission-history": "", "planning-permission-status": "permissioned", "planning-permission-type": "full planning permission", "point": "POINT(-0.085857 51.449834)", "site": "15-AP-2957", "site-plan-url": "", "start-date": "2017-12-20", "id": "53ff7410d03797e7747d4df128ca450bbe808f4eacc79d0e2d18623ab4a99554:39714"}}