{"type": "Feature", "geometry": {"type": "Point", "coordinates": [0.130517, 52.203471]}, "properties": {"organisation": "local-authority-eng:CAB", "planning-permission-status": "not permissioned", "notes": "Allocated in the Cambridge Local Plan (adopted in October 2018) - site M4", "planning-permission-history": "https://www.cambridge.gov.uk/media/7085/bfs-clp18_alloc_m4.pdf", "point": "POINT(0.130517 52.203471)", "site": "C/LocalPlan/M4", "name": "C/LocalPlan/M4", "site-address": "Housing Allocation, Land at Parkside Police Station and Fire and Rescue Station, Parkside, Cambridge, CB1", "planning-permission-type": "other", "site-plan-url": "https://gismaps.scambs.gov.uk/connect/analyst/mobile/#/main?mapcfg=BrownfieldRegister2020&queryTable=/NamedTables/CambridgeBrownfieldRegister_2020&queryColumn=SiteReference&queryValues=C/LocalPlan/M4", "start-date": "2017-12-15", "minimum-net-dwellings": "50", "hectares": "0.95", "maximum-net-dwellings": "50", "slug": "/brownfield-land/local-authority-eng/CAB/C-LocalPlan-M4", "entity": null, "entry-date": "2020-04-01"}}