{"type": "Feature", "geometry": {"type": "Point", "coordinates": [0.015747, 51.401324]}, "properties": {"resource": "53ff7410d03797e7747d4df128ca450bbe808f4eacc79d0e2d18623ab4a99554", "site-address": "West of Bromley High Street and Land at Bromley South BR1/BR2", "deliverable": "", "end-date": "", "entry-date": "2017-12-31", "hazardous-substances": "", "hectares": "4.54", "maximum-net-dwellings": "1230", "minimum-net-dwellings": "1230", "notes": "The site is allocated for 1230 residential units in Bromley's Draft Local Plan.", "organisation": "local-authority-eng:BRY", "ownership-status": "mixed ownership", "planning-permission-date": "", "planning-permission-history": "", "planning-permission-status": "Not permissioned", "planning-permission-type": "", "point": "POINT(0.015747 51.401324)", "site": "BLR7", "site-plan-url": "http://bromley-consult.objective.co.uk/events/29806/images/web/4227638_0_1.jpg", "start-date": "2017-12-31", "id": "53ff7410d03797e7747d4df128ca450bbe808f4eacc79d0e2d18623ab4a99554:21215"}}