{"type": "Feature", "geometry": {"type": "Point", "coordinates": [-0.157443, 50.831814]}, "properties": {"resource": "163a15518ad8e5437a2471adf78aabf61a16c49b79a0c9f7c425730829b95349", "site-address": "113-119 Davigdor Road Hove", "deliverable": "yes", "end-date": "", "entry-date": "2017-09-19", "hazardous-substances": "yes", "hectares": "0.18", "maximum-net-dwellings": "68", "minimum-net-dwellings": "68", "notes": "Development not started on site 2017 and a new application is expected. Demolition of existing building and construction of a new part 4no part 5no part 7no and part 8no storey building providing 68no residential units (C3) to upper levels.. http://wam.brighton-hove.gov.uk/PlanningWAM/doc/Supporting%20Document(s)-3084637.pdf?extension=.pdf&id=3084637&location=VOLUME4&contentType=application/pdf&pageCount=1", "organisation": "local-authority-eng:BNH", "ownership-status": "not owned by a public authority", "planning-permission-date": "2015-11-05", "planning-permission-history": "http://ww3.brighton-hove.gov.uk/index.cfm?request=c1199915&action=showDetail&APPLICATION_NUMBER=BH2014%2F02308", "planning-permission-status": "permissioned", "planning-permission-type": "full planning permission", "point": "POINT(-0.157443 50.831814)", "site": "SHLAA3789", "site-plan-url": "https://www.brighton-hove.gov.uk/sites/brighton-hove.gov.uk/files/SHLAA3789%20113-119%20Davigdor%20Road%20Hove.pdf", "start-date": "2017-09-19", "id": "163a15518ad8e5437a2471adf78aabf61a16c49b79a0c9f7c425730829b95349:65265"}}