{"type": "Feature", "geometry": {"type": "Point", "coordinates": [-1.09888, 52.676715]}, "properties": {"hectares": "0.09", "site-plan-url": "https://www.charnwood.gov.uk/pages/strategic_housing_and_employment_land_availability_assessments_2014", "site-address": "34 Brook Street Thurmaston Leicestershire LE4 8DA", "start-date": "2017-11-24", "name": "PSH359", "point": "POINT(-1.09888 52.676715)", "organisation": "local-authority-eng:CHA", "planning-permission-status": "permissioned", "deliverable": "yes", "planning-permission-history": "http://portal.charnwood.gov.uk/Northgate/PlanningExplorerAA/Home.aspx", "ownership-status": "not owned by a public authority", "planning-permission-type": "full planning permission", "planning-permission-date": "2016-06-08", "site": "PSH359", "maximum-net-dwellings": "5", "minimum-net-dwellings": "5", "slug": "/brownfield-land/local-authority-eng/CHA/PSH359", "entity": 478901, "entry-date": "2019-12-19"}}