{"type": "Feature", "geometry": {"type": "Point", "coordinates": [-1.827416, 52.549385]}, "properties": {"minimum-net-dwellings": "1", "deliverable": "yes", "point": "POINT(-1.827416 52.549385)", "notes": "2017/08659/PA", "name": "N806", "site-address": "31 Highbridge Road, Sutton Wylde Green", "planning-permission-type": "full planning permission", "hectares": "0.03", "start-date": "2017-12-19", "planning-permission-status": "permissioned", "maximum-net-dwellings": "1", "site": "N806", "organisation": "local-authority-eng:BIR", "site-plan-url": "https://maps.birmingham.gov.uk/webapps/shlaa/", "planning-permission-date": "2017-12-11", "slug": "/brownfield-land/local-authority-eng/BIR/N806", "entity": 476285, "entry-date": "2019-12-31"}}