{"type": "Feature", "geometry": {"type": "Point", "coordinates": [0.153905, 51.560046]}, "properties": {"resource": "de3918b3af88df0eebce7fbb3f8bc36f571f59fda90470f9b1e8bee3145f8ca0", "site-address": "90 Stour Road", "deliverable": "", "end-date": "", "entry-date": "2017-12-31", "hazardous-substances": "", "hectares": "0.26", "maximum-net-dwellings": "25", "minimum-net-dwellings": "25", "notes": "", "organisation": "local-authority-eng:BDG", "ownership-status": "owned by a public authority", "planning-permission-date": "", "planning-permission-history": "", "planning-permission-status": "not permissioned", "planning-permission-type": "", "point": "POINT(0.153905 51.560046)", "site": "LBBD59", "site-plan-url": "https://data.london.gov.uk/dataset/brownfield-land-register", "start-date": "2017-12-31", "id": "LBBD59"}}