{"type": "Feature", "geometry": {"type": "Point", "coordinates": [-2.061008, 53.474186]}, "properties": {"resource": "f78a113fe6d044c4476756d02fbfa80bfa165e538c36750bb5f2c6ce4dfacb69", "site-address": "Parking area, rear Of 1-7 Gloucester Rise, Dukinfield.", "deliverable": "", "end-date": "", "entry-date": "2017-12-04", "hazardous-substances": "", "hectares": "0.21", "maximum-net-dwellings": "7", "minimum-net-dwellings": "7", "notes": "NLUD site. Cleared former garage site in residential area - existing access off Gloucester Rise.", "organisation": "local-authority-eng:TAM", "ownership-status": "not owned by a public authority", "planning-permission-date": "", "planning-permission-history": "https://public.tameside.gov.uk/plan/f422planapp.asp", "planning-permission-status": "not permissioned", "planning-permission-type": "", "point": "POINT(-2.061008 53.474186)", "site": "H-DUKSTB-062", "site-plan-url": "https://www.tameside.gov.uk/planning/brownfieldregister/h-dukstb-062.pdf", "start-date": "2017-12-04", "id": "H-DUKSTB-062"}}