{"type": "Feature", "geometry": {"type": "Point", "coordinates": [0.276448, 51.186923]}, "properties": {"site-address": "Drayton Road Industial Estate, Tonbridge", "point": "POINT(0.276448 51.186923)", "start-date": "2017-12-13", "hectares": "1.68", "name": "TMBC-BFR-011", "ownership-status": "not owned by a public authority", "site": "TMBC-BFR-011", "planning-permission-history": "https://publicaccess2.tmbc.gov.uk/online-applications/", "planning-permission-status": "not permissioned", "organisation": "local-authority-eng:TON", "deliverable": "yes", "slug": "/brownfield-land/local-authority-eng/TON/TMBC-BFR-011", "entry-date": "2017-12-13"}}