{"type": "Feature", "geometry": {"type": "Point", "coordinates": [1.398175, 51.380685]}, "properties": {"site-address": "131- 137 King Street Ramsgate", "deliverable": "yes", "planning-permission-date": "2016-09-07", "point": "POINT(1.398175 51.380685)", "start-date": "2017-12-05", "ownership-status": "not owned by a public authority", "site-plan-url": "https://planning.thanet.gov.uk/online-applications/applicationDetails.do?activeTab=map&keyVal=O9XYM6QEL2000", "maximum-net-dwellings": "18", "hectares": "0.13", "name": "FTH160952", "planning-permission-status": "permissioned", "organisation": "local-authority-eng:THA", "site": "FTH160952", "minimum-net-dwellings": "18", "planning-permission-type": "full planning permission", "notes": "Not started on site. Erection of a 4 storey building comprising 14No. flats and 4No. 2-bed dwellings following demolition of existing garage/storage unit", "slug": "/brownfield-land/local-authority-eng/THA/FTH160952", "entity": 496594, "entry-date": "2017-12-18"}}