{"type": "Feature", "geometry": {"type": "Point", "coordinates": [-2.50387, 51.487319]}, "properties": {"organisation": "local-authority-eng:SGC", "planning-permission-status": "permissioned", "minimum-net-dwellings": "9", "planning-permission-type": "full planning permission", "ownership-status": "not owned by a public authority", "start-date": "2019-12-15", "name": "164", "planning-permission-history": "https://developments.southglos.gov.uk/online-applications/applicationDetails.do?keyVal=OK895KOKKE500&activeTab=summary", "deliverable": "yes", "site-address": "112 North Street Downend South Gloucestershire BS16 5SE", "site-plan-url": "https://developments.southglos.gov.uk/online-applications/applicationDetails.do?activeTab=map&keyVal=OK895KOKKE500", "site": "164", "maximum-net-dwellings": "9", "planning-permission-date": "2017-10-10", "hectares": "0.05", "point": "POINT(-2.50387 51.487319)", "notes": "Part demolition and erection of side and rear extensions to facilitate the change of use from offices to residential hostel (Class C2) as defined in Town and Country Planning (Use Classes) Order 1987 (as amended). 0 units completed at 18/19 Residential Land Survey.", "slug": "/brownfield-land/local-authority-eng/SGC/164", "entry-date": "2019-12-15"}}