{"type": "Feature", "geometry": {"type": "Point", "coordinates": [0.188937, 51.286642]}, "properties": {"resource": "93da33cb203fda2a6f2866049b6a239c50804cba68446d538fcbcf8f23bc93d2", "site-address": "Sevenoaks Town Council Offices, Bradbourne Vale Road, Sevenoaks", "deliverable": "", "end-date": "1970/01/01 00:00:00+00", "entry-date": "2020-05-20", "hazardous-substances": "", "hectares": "0.31893035", "maximum-net-dwellings": "32", "minimum-net-dwellings": "32", "notes": "Emerging Local Plan Ref ST2-10 - Careful design and layout to minimise impact on the amenity of neighbouring properties. The review of the existing use is to be considered as part of any planning application. An air quality assessment is to be submitted as part of any planning application. An assessment of the impact of the development on the source protection zone is to be submitted as part of any planning application. Retain existing trees and hedges.", "organisation": "local-authority-eng:SEV", "ownership-status": "owned by a public authority", "planning-permission-date": "", "planning-permission-history": "", "planning-permission-status": "not permissioned", "planning-permission-type": "", "point": "POINT(0.188937 51.286642)", "site": "BFR14", "site-plan-url": "https://maps.sevenoaks.gov.uk/brownfield_register/", "start-date": "", "id": "93da33cb203fda2a6f2866049b6a239c50804cba68446d538fcbcf8f23bc93d2:62954"}}