{"type": "Feature", "geometry": {"type": "Point", "coordinates": [-2.707321, 53.7585]}, "properties": {"notes": "CCP Policy OP1 - Corporation Street. No pp. Still operational railway land?", "hectares": "1.75", "point": "POINT(-2.707321 53.7585)", "name": "BR28", "site-address": "Railway land, Corporation Street", "site-plan-url": "http://maps.preston.gov.uk/planning/map.aspx", "planning-permission-status": "not permissioned", "start-date": "2016-09-06", "site": "BR28", "ownership-status": "not owned by a public authority", "organisation": "local-authority-eng:PRE", "slug": "/brownfield-land/local-authority-eng/PRE/BR28", "entry-date": "2018-11-19"}}