{"type": "Feature", "geometry": {"type": "Point", "coordinates": [-0.236274, 51.9793]}, "properties": {"resource": "ec43eb7f3d03d759e70506e9922d48f5bdabeda982f6fa7976bda9e963f8248b", "site-address": "Garages, Icknield Way, Letchworth", "deliverable": "yes", "end-date": "", "entry-date": "2019-12-31", "hazardous-substances": "", "hectares": "0.69", "maximum-net-dwellings": "25", "minimum-net-dwellings": "25", "notes": "Emerging Local Plan allocation.", "organisation": "local-authority-eng:NHE", "ownership-status": "not owned by a public authority", "planning-permission-date": "", "planning-permission-history": "", "planning-permission-status": "Not permissioned", "planning-permission-type": "", "point": "POINT(-0.236274 51.9793)", "site": "BR16", "site-plan-url": "", "start-date": "2017-12-31", "id": "ec43eb7f3d03d759e70506e9922d48f5bdabeda982f6fa7976bda9e963f8248b:54391"}}