{"type": "Feature", "geometry": {"type": "Point", "coordinates": [-1.44403, 55.00635]}, "properties": {"organisation": "local-authority-eng:NTY", "site": "486", "maximum-net-dwellings": "16", "notes": "Change of use from office/warehouse to 14no. residential units(3no. 1 bed with bed decks, 11no. 2 beds) and associated car parking.Erection of 16no.residential units and associated car parking", "planning-permission-type": "full planning permission", "start-date": "2017-12-22", "planning-permission-status": "permissioned", "name": "486", "site-plan-url": "http://my.northtyneside.gov.uk/category/1134/housing-and-employment", "site-address": "Land and buildings at Bedford Street and Clive Street, North Shields", "hectares": "0.4", "point": "POINT(-1.44403 55.00635)", "minimum-net-dwellings": "16", "planning-permission-date": "1998-11-19", "planning-permission-history": "https://idoxpublicaccess.northtyneside.gov.uk/online-applications/applicationDetails.do?activeTab=summary&keyVal=9801386FUL", "slug": "/brownfield-land/local-authority-eng/NTY/486", "entity": 489824, "entry-date": "2020-04-15"}}