{"type": "Feature", "geometry": {"type": "Point", "coordinates": [-1.289967, 51.823054]}, "properties": {"hectares": "0", "site-plan-url": "https://www.cherwell.gov.uk/info/33/planning-policy/384/brownfield-land-register", "maximum-net-dwellings": "0", "site": "BLR52", "planning-permission-history": "https://planningregister.cherwell.gov.uk/Search", "planning-permission-type": "full planning permission", "name": "BLR52", "site-address": "2 - 4 High Street, Kidlington", "planning-permission-date": "2018-07-12", "minimum-net-dwellings": "0", "deliverable": "yes", "ownership-status": "not owned by a public authority", "point": "POINT(-1.289967 51.823054)", "planning-permission-status": "permissioned", "start-date": "2019-10-30", "organisation": "local-authority-eng:CHR", "slug": "/brownfield-land/local-authority-eng/CHR/BLR52", "entry-date": "2020-10-31", "notes": "Development has commenced on site."}}