{"type": "Feature", "geometry": {"type": "Point", "coordinates": [-2.035649, 52.566624]}, "properties": {"resource": "1f57061ab1128107cd734a5010136376105124f5f1d646e0907aea36aa9c498c", "site-address": "SITE OF JOHN WOOTTON HOUSE & GREAT CROFT HOUSE, WESLEY ROAD, DARLASTON", "deliverable": "", "end-date": "", "entry-date": "2017-12-29", "hazardous-substances": "", "hectares": "0.31", "maximum-net-dwellings": "23", "minimum-net-dwellings": "23", "notes": "", "organisation": "local-authority-eng:WLL", "ownership-status": "not owned by a public authority", "planning-permission-date": "2017-03-29", "planning-permission-history": "", "planning-permission-status": "permissioned", "planning-permission-type": "full planning permission", "point": "POINT(-2.035649 52.566624)", "site": "HO0315", "site-plan-url": "", "start-date": "2017-12-29", "id": "1f57061ab1128107cd734a5010136376105124f5f1d646e0907aea36aa9c498c:60735"}}