{"type": "Feature", "geometry": {"type": "Point", "coordinates": [-2.132227, 52.480218]}, "properties": {"hectares": "2.83", "site": "DEVOPP0067", "name": "DEVOPP0067", "site-address": "Albion Works, Moor Street, Brierley Hill", "start-date": "2020-03-12", "minimum-net-dwellings": "46", "planning-permission-history": "https://mapping.dudley.gov.uk/atMyDudley.aspx", "site-plan-url": "https://mapping.dudley.gov.uk/atMyDudley.aspx?MapSource=DMBC/AllMaps&SearchLayer=brownfield_register&SearchField=br_reference&SearchValue=DEVOPP0067", "organisation": "local-authority-eng:DUD", "ownership-status": "not owned by a public authority", "point": "POINT(-2.132227 52.480218)", "maximum-net-dwellings": "46", "planning-permission-status": "not permissioned", "slug": "/brownfield-land/local-authority-eng/DUD/DEVOPP0067", "entity": 481481, "entry-date": "2020-03-12"}}