{"type": "Feature", "geometry": {"type": "Point", "coordinates": [-1.089577, 52.65029]}, "properties": {"planning-permission-status": "permissioned", "name": "SJL9029_20161429", "organisation": "local-authority-eng:LCE", "planning-permission-type": "full planning permission", "start-date": "2017-12-31", "ownership-status": "owned by a public authority", "maximum-net-dwellings": "40", "minimum-net-dwellings": "40", "planning-permission-date": "2017-01-30", "notes": "Planning permission for 40 flats", "site": "SJL9029_20161429", "site-plan-url": "https://maps.leicester.gov.uk/map/Aurora.svc/run?script=%5CAurora%5Cw3%5CPLANNING%5Cw3LP.AuroraScript%24&inspect_query=BFReg&inspect_value=430&show_layers=BFReg&hide_layers=Wards&nocache=32281332-3504-d8fd-d4e6-2ea6a181fb0a&resize=always", "deliverable": "yes", "hectares": "0.47", "point": "POINT(-1.089577 52.65029)", "site-address": "Grosvenor Gate - Former nurses home", "slug": "/brownfield-land/local-authority-eng/LCE/SJL9029-20161429", "entry-date": "2017-12-31"}}