{"type": "Feature", "geometry": {"type": "Point", "coordinates": [-0.256238, 51.400784]}, "properties": {"notes": "Planning permission 15/15243/FUL for 6 net additional homes (C3) granted on 15/08/2016.. Extension and conversion of 6 x three-bedroom flats into 6 x one-bedroom flats (C3) and 6 x three-bedroom flats (C3).", "point": "POINT(-0.256238 51.400784)", "maximum-net-dwellings": "6", "deliverable": "yes", "hectares": "0.16", "planning-permission-date": "2016-08-15", "organisation": "local-authority-eng:KTT", "planning-permission-type": "full planning permission", "site-plan-url": "https://data.london.gov.uk/dataset/brownfield-land-register", "site": "RBK0026", "name": "RBK0026", "site-address": "14-19 Sussex Place, New Malden", "planning-permission-status": "permissioned", "minimum-net-dwellings": "6", "planning-permission-history": "https://maps.kingston.gov.uk/propertyServices/planning/Details?caseNo=15/15243/FUL", "start-date": "2017-12-12", "slug": "/brownfield-land/local-authority-eng/KTT/RBK0026", "entry-date": "2017-12-12"}}