{"type": "Feature", "geometry": {"type": "Point", "coordinates": [-0.07382, 51.468465]}, "properties": {"site-address": "130a Lyndhurst Way SE15 4PT", "planning-permission-status": "permissioned", "maximum-net-dwellings": "0", "point": "POINT(-0.07382 51.468465)", "notes": "Conversion of existing lower ground and ground floor flat into 2 no. flats; erection of single storey rear_x000D__x000D_ extension at lower ground floor level; insertion of door to rear elevation at lower ground floor level -_x000D__x000D_ RESUBMISSION", "planning-permission-type": "full planning permission", "organisation": "local-authority-eng:SWK", "planning-permission-date": "2016-08-26", "minimum-net-dwellings": "0", "hectares": "0.02", "name": "16-AP-2444", "site": "16-AP-2444", "start-date": "2017-12-20", "deliverable": "yes", "slug": "/brownfield-land/local-authority-eng/SWK/16-AP-2444", "entity": 495642, "entry-date": "2017-12-20"}}