{"type": "Feature", "geometry": {"type": "Point", "coordinates": [-1.209509, 52.519362]}, "properties": {"planning-permission-history": "https://www.harborough.gov.uk/view-and-comment-on-planning-applications", "deliverable": "yes", "point": "POINT(-1.209509 52.519362)", "maximum-net-dwellings": "8", "site-plan-url": "https://www.harborough.gov.uk/downloads/file/6604/1009_garden_centre_broughton_astley_2020", "site": "1009", "ownership-status": "not owned by a public authority", "minimum-net-dwellings": "8", "site-address": "Garden Centre adjacent to 80 Dunton Road, Broughton Astley", "hectares": "0.4", "name": "1009", "organisation": "local-authority-eng:HAO", "planning-permission-type": "reserved matters approval", "start-date": "2017-11-07", "notes": "Permission for erection of 8 dwellings (Ref: 19/01710/REM)", "planning-permission-status": "permissioned", "planning-permission-date": "2019-12-23", "slug": "/brownfield-land/local-authority-eng/HAO/1009", "entity": 513081, "entry-date": "2020-07-31"}}