{"type": "Feature", "geometry": {"type": "Point", "coordinates": [-2.18693, 53.004243]}, "properties": {"deliverable": "yes", "site": "58618", "ownership-status": "not owned by a public authority", "site-address": "17 Hill Street, Stoke-on-Trent, ST4 1NL", "minimum-net-dwellings": "8", "point": "POINT(-2.18693 53.004243)", "maximum-net-dwellings": "8", "start-date": "2017-12-31", "site-plan-url": "https://webmaplayers.stoke.gov.uk/webmaplayers8/Map.aspx?MapName=SHLAA", "organisation": "local-authority-eng:STE", "hectares": "0.03", "planning-permission-date": "2015-12-16", "planning-permission-type": "full planning permission", "notes": "Change of use to create 3 self contained residential flats together with 5 bedsitters with shared facilities", "planning-permission-status": "permissioned", "name": "58618", "slug": "/brownfield-land/local-authority-eng/STE/58618", "entity": 494653, "entry-date": "2017-12-31"}}