{"type": "Feature", "geometry": {"type": "Point", "coordinates": [-1.18, 53.14]}, "properties": {"site-plan-url": "http://www.mansfield.gov.uk/CHttpHandler.ashx?id=9547&p=0", "name": "168", "organisation": "local-authority-eng:MAS", "ownership-status": "owned by a public authority", "point": "POINT(-1.18 53.14)", "deliverable": "yes", "planning-permission-type": "full planning permission", "planning-permission-status": "permissioned", "site-address": "10A Montague Street, Montague Street, Mansfield", "hectares": "0.11", "planning-permission-date": "2014-06-23", "start-date": "2017-09-26", "maximum-net-dwellings": "8", "notes": "NEW RESIDENTIAL DEVELOPMENT OF 8 NO. 3 BEDROOM HOUSES", "site": "168", "minimum-net-dwellings": "8", "slug": "/brownfield-land/local-authority-eng/MAS/168", "entry-date": "2017-09-26"}}