{"type": "Feature", "geometry": {"type": "Point", "coordinates": [1.139782, 52.060707]}, "properties": {"resource": "0da9a2dad92b733c3ea4dcbfc837df39126e735119ce0806c2970f2f82913204", "site-address": "The Masons Public House 79 Victoria Street IP1 2LS ", "deliverable": "", "end-date": "", "entry-date": "2018-12-13", "hazardous-substances": "", "hectares": "0.06", "maximum-net-dwellings": "8", "minimum-net-dwellings": "8", "notes": "18/00160/FUL", "organisation": "local-authority-eng:IPS", "ownership-status": "not owned by a public authority", "planning-permission-date": "2018-05-01", "planning-permission-history": "https://ppc.ipswich.gov.uk/appndetails.asp?iAppID=18/00160/FUL&sType=APP&search_params=pageNumber%3D1%26txtAppNum%3D18%252F00160%26pnlAdvancedOpen%3D1%26&prev_search_params=&det_search_params=", "planning-permission-status": "permissioned", "planning-permission-type": "full planning permission", "point": "POINT(1.139782 52.060707)", "site": "BLR/IP353", "site-plan-url": "http://maps.ipswich.gov.uk/Online_Mapping/Full.aspx?gpm=ce051098-0fa2-42e9-8bc4-f5fc1bcaf8bc", "start-date": "2018-12-13", "id": "local-authority-eng/IPS/BLR-IP353"}}