{"type": "Feature", "geometry": {"type": "Point", "coordinates": [-0.95447, 53.328217]}, "properties": {"point": "POINT(-0.95447 53.328217)", "site": "BFR08", "organisation": "local-authority-eng:BAE", "minimum-net-dwellings": "93", "planning-permission-status": "permissioned", "planning-permission-type": "full planning permission", "site-plan-url": "http://bassetlaw.maps.arcgis.com/apps/View/index.html?appid=b0f3bead364d4a09bfa9b906bd4b0b77", "site-address": "Elizabethan High School Lower Site, North Road, Retford", "maximum-net-dwellings": "93", "ownership-status": "owned by a public authority", "deliverable": "yes", "start-date": "2017-11-07", "hectares": "2.74", "notes": "13/01355/FUL, Permission comprising 63 apartments and 30 bungalows", "name": "BFR08", "planning-permission-history": "http://publicaccess.bassetlaw.gov.uk/online-applications/", "slug": "/brownfield-land/local-authority-eng/BAE/BFR08", "entry-date": "2017-11-07", "planning-permission-date": "2015-05-26"}}