{"type": "Feature", "geometry": {"type": "Point", "coordinates": [-0.027925, 52.977965]}, "properties": {"ownership-status": "not owned by a public authority", "notes": "All 12 outstanding. Proposed residential development for up to 12 flats with on-site parking", "planning-permission-history": "http://www.boston.gov.uk/index.aspx?articleid=6208&ApplicationNumber=B/16/0061", "deliverable": "yes", "site": "BLR/BOS/024", "start-date": "2017-11-20", "planning-permission-type": "outline planning permission", "site-address": "The Duke of York, 7 Lincoln Lane, Boston", "name": "BLR/BOS/024", "planning-permission-status": "permissioned", "hectares": "0.07", "organisation": "local-authority-eng:BOT", "minimum-net-dwellings": "12", "maximum-net-dwellings": "12", "planning-permission-date": "2016-07-26", "site-plan-url": "http://www.boston.gov.uk/CHttpHandler.ashx?id=22175&p=0", "point": "POINT(-0.027925 52.977965)", "slug": "/brownfield-land/local-authority-eng/BOT/BLR-BOS-024", "entry-date": "2018-12-11"}}