{"type": "Feature", "geometry": {"type": "Point", "coordinates": [1.756093, 52.478388]}, "properties": {"resource": "119a805f897c02bc2471fa1fe12060150b10fbc7f9f63d1c6f631e5c898b5dbf", "site-address": "Former Lowestoft Magistrates Court Old Nelson Street Lowestoft Suffolk NR32 1EG", "deliverable": "yes", "end-date": "", "entry-date": "2018-11-20", "hazardous-substances": "", "hectares": "0.3", "maximum-net-dwellings": "15", "minimum-net-dwellings": "9", "notes": "Vacant building - recently sold", "organisation": "local-authority-eng:WAV", "ownership-status": "not owned by a public authority", "planning-permission-date": "", "planning-permission-history": "", "planning-permission-status": "not permissioned", "planning-permission-type": "", "point": "POINT(1.756093 52.478388)", "site": "WDC016", "site-plan-url": "http://waveney.maps.arcgis.com/apps/MapJournal/index.html?appid=1a787ff0d2604387987c86ac1ae56188", "start-date": "2017-12-01", "id": "119a805f897c02bc2471fa1fe12060150b10fbc7f9f63d1c6f631e5c898b5dbf:55876"}}