{"type": "Feature", "geometry": {"type": "Point", "coordinates": [-1.697079, 52.622618]}, "properties": {"site": "BR014", "organisation": "local-authority-eng:TAW", "hectares": "0.52", "maximum-net-dwellings": "14", "minimum-net-dwellings": "14", "start-date": "2017-12-08", "point": "POINT(-1.697079 52.622618)", "planning-permission-status": "not permissioned", "site-address": "Fazeley Autocentre and Units behind", "ownership-status": "not owned by a public authority", "site-plan-url": "https://www.tamworth.gov.uk/sites/default/files/planning_docs/brownfield_register/BR014.pdf", "name": "BR014", "slug": "/brownfield-land/local-authority-eng/TAW/BR014", "entity": 496399, "entry-date": "2018-12-18"}}