{"type": "Feature", "geometry": {"type": "Point", "coordinates": [-2.587212, 51.453074]}, "properties": {"site": "19/01255/F", "name": "19/01255/F", "deliverable": "yes", "organisation": "local-authority-eng:BST", "hectares": "0.9", "planning-permission-history": "https://pa.bristol.gov.uk/online-applications/applicationDetails.do?keyVal=POAQK7DN0DG00&activeTab=summary", "site-address": "Fire Station, Temple Back", "start-date": "2019-12-19", "planning-permission-date": "2019-12-03", "planning-permission-status": "permissioned", "minimum-net-dwellings": "295", "planning-permission-type": "full planning permission", "notes": "Alternative site reference: O10_1447", "point": "POINT(-2.587212 51.453074)", "maximum-net-dwellings": "295", "site-plan-url": "https://pa.bristol.gov.uk/online-applications/applicationDetails.do?activeTab=map&keyVal=POAQK7DN0DG00", "slug": "/brownfield-land/local-authority-eng/BST/19-01255-F", "entry-date": "2020-12-18"}}