{"type": "Feature", "geometry": {"type": "Point", "coordinates": [-0.803421, 53.058644]}, "properties": {"site-address": "Newark, Land on Bowbridge Road", "maximum-net-dwellings": "150", "deliverable": "yes", "site": "BF0024", "planning-permission-status": "not permissioned", "minimum-net-dwellings": "111", "point": "POINT(-0.803421 53.058644)", "site-plan-url": "http://www.newark-sherwooddc.gov.uk/media/newarkandsherwood/imagesandfiles/planningpolicy/pdfs/brownfieldlandregister/BF0024.pdf", "planning-permission-history": "https://publicaccess.newark-sherwooddc.gov.uk/online-applications/propertyDetails.do?activeTab=relatedCases&keyVal=IYDSVMLBT4000", "ownership-status": "not owned by a public authority", "start-date": "2017-11-30", "hectares": "4.25", "name": "BF0024", "organisation": "local-authority-eng:NEA", "slug": "/brownfield-land/local-authority-eng/NEA/BF0024", "entity": 488362, "entry-date": "2020-01-20", "notes": "Allocated in the Allocations and Development Management DPD for around 150 dwellings"}}