{"type": "Feature", "geometry": {"type": "Point", "coordinates": [0.91443, 51.88406]}, "properties": {"site": "COL/27", "point": "POINT(0.91443 51.88406)", "notes": "Growth Area Predominantly Residential Regeneration Area. Potential contamination identified (ref 152210) - risk assessment and remediation required (http://www.colchester.gov.uk/article/13066/Contaminated-Land-and-planning).", "hectares": "0.183", "organisation": "local-authority-eng:COL", "site-address": "SITE REAR OF THE CO OPERATIVE STORE, 90 WIMPOLE ROAD", "name": "COL/27", "planning-permission-history": "http://www.planning.colchester.gov.uk/WAM/findCaseFile.do?appNumber=152210&appType&=Planning", "start-date": "2016-07-01", "planning-permission-status": "not permissioned", "slug": "/brownfield-land/local-authority-eng/COL/COL-27", "entity": 480189, "entry-date": "2017-12-19"}}