{"type": "Feature", "geometry": {"type": "Point", "coordinates": [-0.416206, 51.399847]}, "properties": {"minimum-net-dwellings": "37", "notes": "Flood zone 2. Erection of 37 houses and flats", "start-date": "2017-11-09", "deliverable": "yes", "planning-permission-type": "full planning permission", "organisation": "local-authority-eng:SPE", "site": "BL8", "hectares": "1.57", "point": "POINT(-0.416206 51.399847)", "planning-permission-history": "http://my.spelthorne.gov.uk/planningpublisher.aspx?requesttype=parsetemplate&template=DCApplication.tmplt&basepage=planningpublisher.aspx&Filter=^REFVAL^=%2713/00153/FUL%27&history=132f29d94dde40b9a6389c670d6dd848", "ownership-status": "owned by a public authority", "maximum-net-dwellings": "37", "planning-permission-date": "2013-08-14", "site-address": "Riverside Works, Fordbridge Road, Sunbury", "planning-permission-status": "permissioned", "site-plan-url": "https://www.spelthorne.gov.uk/media/1438/Allocations-DPD/pdf/allocations_dpd_-_final_17.12.09.pdf", "name": "BL8", "slug": "/brownfield-land/local-authority-eng/SPE/BL8", "entry-date": "2017-12-22"}}