{"type": "Feature", "geometry": {"type": "Point", "coordinates": [-1.969877, 53.448655]}, "properties": {"maximum-net-dwellings": "89", "ownership-status": "not owned by a public authority", "point": "POINT(-1.969877 53.448655)", "site-plan-url": "https://www.highpeak.gov.uk/brownfield-land.csv", "organisation": "local-authority-eng:HIG", "start-date": "2017-11-30", "site": "GL070", "planning-permission-type": "full planning permission", "minimum-net-dwellings": "89", "planning-permission-status": "not permissioned", "site-address": "Former railway museum", "name": "GL070", "hectares": "3.9", "slug": "/brownfield-land/local-authority-eng/HIG/GL070", "entry-date": "2020-12-14"}}