{"type": "Feature", "geometry": {"type": "Point", "coordinates": [-1.58154, 50.724577]}, "properties": {"resource": "1acf19740ab8d8c3a94b15e10ea9c893d64044cad8e79f6ca7d9057277cbfa26", "site-address": "The Coach House, 67 Keyhaven Road, Milford on Sea", "deliverable": "yes", "end-date": "", "entry-date": "2017-12-22", "hazardous-substances": "", "hectares": "0.15", "maximum-net-dwellings": "8", "minimum-net-dwellings": "8", "notes": "8 two-bedroom flats. http://planning.newforest.gov.uk/online-applications/", "organisation": "local-authority-eng:NEW", "ownership-status": "not owned by a public authority", "planning-permission-date": "2017-02-09", "planning-permission-history": "", "planning-permission-status": "permissioned", "planning-permission-type": "full planning permission", "point": "POINT(-1.58154 50.724577)", "site": "BLR_Milf_001", "site-plan-url": "http://www.newforest.gov.uk/CHttpHandler.ashx?id=35743&p=15", "start-date": "2017-12-22", "id": "1acf19740ab8d8c3a94b15e10ea9c893d64044cad8e79f6ca7d9057277cbfa26:54327"}}