{"type": "Feature", "geometry": {"type": "Point", "coordinates": [0.170187, 51.401599]}, "properties": {"resource": "9d7d79526f136c59033c5f53be97ea58169fb3d9f232cd81989bcd83fe845e1e", "site-address": "White Oak Leisure Centre, Hilda May Avenue, Swanley", "deliverable": "yes", "end-date": "", "entry-date": "2020-04-30", "hazardous-substances": "", "hectares": "2.01116511", "maximum-net-dwellings": "80", "minimum-net-dwellings": "80", "notes": "Emerging Local Plan Ref ST2-20 - Any development scheme must include replacement leisure facilities as part of a mixed use scheme. Careful design and layout to minimise impact on the amenity of neighbouring properties. Retain existing trees and hedges. Open space should be retained.", "organisation": "local-authority-eng:SEV", "ownership-status": "owned by a public authority", "planning-permission-date": "", "planning-permission-history": "", "planning-permission-status": "not permissioned", "planning-permission-type": "", "point": "POINT(0.170187 51.401599)", "site": "BFR118", "site-plan-url": "https://maps.sevenoaks.gov.uk/brownfield_register/", "start-date": "", "id": "9d7d79526f136c59033c5f53be97ea58169fb3d9f232cd81989bcd83fe845e1e:43608"}}