{"type": "Feature", "geometry": {"type": "Point", "coordinates": [-2.199708, 53.442926]}, "properties": {"resource": "f4b042c49f42762b13eb0c7fd145c96a6fb998f5dd1dec617e8bfcb6a5cc23f6", "site-address": "Graphic House 308 Moseley Road Levenshulme", "deliverable": "", "end-date": "", "entry-date": "2019-12-31", "hazardous-substances": "", "hectares": "0.085364", "maximum-net-dwellings": "12", "minimum-net-dwellings": "12", "notes": "Approx 'MinNetDwellings' expected however proposals for a higher number of dwellings will be considered. No maximum has been set but all proposals must be in line with the Council's design quality requirements and any relevant Council-endorsed planning framework or masterplan", "organisation": "local-authority-eng:MAN", "ownership-status": "", "planning-permission-date": "", "planning-permission-history": "", "planning-permission-status": "", "planning-permission-type": "", "point": "POINT(-2.199708 53.442926)", "site": "Burn1900", "site-plan-url": "https://mappinggm.org.uk/gmodin/?lyrs=brownfield_2019_gm#os_maps_light/18/53.442926/-2.199708", "start-date": "2017-12-31", "id": "Burn1900"}}