{"type": "Feature", "geometry": {"type": "Point", "coordinates": [-0.669618, 51.407853]}, "properties": {"start-date": "2018-01-19", "organisation": "local-authority-eng:WNM", "minimum-net-dwellings": "35", "site": "H00040", "hectares": "6", "name": "H00040", "planning-permission-history": "http://publicaccess.rbwm.gov.uk/online-applications/", "site-address": "Land west of St George's Lane, including Shorts Recycling, Ascot", "ownership-status": "not owned by a public authority", "maximum-net-dwellings": "35", "point": "POINT(-0.669618 51.407853)", "slug": "/brownfield-land/local-authority-eng/WNM/H00040", "entry-date": "2018-01-19"}}