{"type": "Feature", "geometry": {"type": "Point", "coordinates": [-0.044742, 51.40947]}, "properties": {"planning-permission-status": "permissioned", "hectares": "0.218", "minimum-net-dwellings": "7", "point": "POINT(-0.044742 51.40947)", "site-address": "County House 241 Beckenham Road Beckenham BR3 4FD", "planning-permission-date": "2018-08-09", "planning-permission-type": "full planning permission", "deliverable": "yes", "organisation": "local-authority-eng:BRY", "maximum-net-dwellings": "7", "site": "BLR85", "name": "BLR85", "slug": "/brownfield-land/local-authority-eng/BRY/BLR85", "entry-date": "2019-10-20"}}