{"type": "Feature", "geometry": {"type": "Point", "coordinates": [-0.583505, 51.239766]}, "properties": {"resource": "7699b2e8b2c443162c13445e32f32bc35c51be4d256d6845581c5fa1f70f9af8", "site-address": "Land at Guildford Park Road Surface Car Park, Guildford GU2 7NF", "deliverable": "yes", "end-date": "", "entry-date": "2017-09-27", "hazardous-substances": "", "hectares": "2.15", "maximum-net-dwellings": "160", "minimum-net-dwellings": "160", "notes": "Application ref. 16/P/01290. Demolition of existing garage buildings and redevelopment of the site to provide 160 residential apartments and houses (Use Class C3) with new infrastructure, parking, access, landscaping, cycle storage and associated facilities including private and communal amenity space together with a five storey 541 space multi-storey public car park (Sui Generis) and 825 sqm. (GEFA) flexible commercial floorspace (Use Class A1, B1 and D2) on the ground floor of the multi-storey car park", "organisation": "local-authority-eng:GRT", "ownership-status": "owned by a public authority", "planning-permission-date": "2017-01-23", "planning-permission-history": "http://www2.guildford.gov.uk/publicaccess/applicationDetails.do?activeTab=summary&keyVal=_GUILD_DCAPR_171221", "planning-permission-status": "permissioned", "planning-permission-type": "full planning permission", "point": "POINT(-0.583505 51.239766)", "site": "BLR_003", "site-plan-url": "https://www2.guildford.gov.uk/ishare5.2.web/atsolomap_brownfield_land_register.html", "start-date": "2017-09-27", "id": "7699b2e8b2c443162c13445e32f32bc35c51be4d256d6845581c5fa1f70f9af8:56040"}}