{"type": "Feature", "geometry": {"type": "Point", "coordinates": [-1.126913, 52.639407]}, "properties": {"resource": "c7e27fdf412c73f3ab48025f1e32f6f9cacc8a55d23d4427182f3a04e42372e6", "name": "NMB8286", "site-address": "4 Wheat Street", "deliverable": "yes", "end-date": "", "entry-date": "2017-12-31", "hazardous-substances": "", "hectares": "0.06", "maximum-net-dwellings": "34", "minimum-net-dwellings": "34", "notes": "", "organisation": "local-authority-eng:LCE", "ownership-status": "not owned by a public authority", "planning-permission-date": "", "planning-permission-history": "", "planning-permission-status": "not permissioned", "planning-permission-type": "", "point": "POINT(-1.126913 52.639407)", "site": "NMB8286", "site-plan-url": "https://maps.leicester.gov.uk/map/Aurora.svc/run?script=%5CAurora%5Cw3%5CPLANNING%5Cw3LP.AuroraScript%24&inspect_query=BFReg&inspect_value=187&show_layers=BFReg&hide_layers=Wards&nocache=32281332-3504-d8fd-d4e6-2ea6a181fb0a&resize=always", "start-date": "2017-12-31", "slug": "/brownfield-land/local-authority-eng/LCE/NMB8286"}}