{"type": "Feature", "geometry": {"type": "Point", "coordinates": [-1.021598, 53.129919]}, "properties": {"resource": "88092240a86eddb879c929afd526a715b570082b53c3b25d3e0b8df23523984c", "site-address": "The Moore, Bilsthorpe", "deliverable": "yes", "end-date": "", "entry-date": "2017-11-30", "hazardous-substances": "", "hectares": "1.87", "maximum-net-dwellings": "55", "minimum-net-dwellings": "55", "notes": "", "organisation": "local-authority-eng:NEA", "ownership-status": "not owned by a public authority", "planning-permission-date": "", "planning-permission-history": "https://publicaccess.newark-sherwooddc.gov.uk/online-applications/propertyDetails.do?activeTab=relatedCases&keyVal=JSBUFGLB05Q00", "planning-permission-status": "not permissioned", "planning-permission-type": "", "point": "POINT(-1.021598 53.129919)", "site": "BF0002", "site-plan-url": "http://www.newark-sherwooddc.gov.uk/media/newarkandsherwood/imagesandfiles/planningpolicy/pdfs/brownfieldlandregister/BF0002.pdf", "start-date": "2017-11-30", "id": "88092240a86eddb879c929afd526a715b570082b53c3b25d3e0b8df23523984c:60805"}}