{"type": "Feature", "geometry": {"type": "Point", "coordinates": [0.108957, 51.763538]}, "properties": {"resource": "bf1e0cb0b05bf86d1f2832714c8a991cfd77012b4c93432f0cf8069ccd028008", "site-address": "Elm Hatch", "deliverable": "", "end-date": "", "entry-date": "2017-11-20", "hazardous-substances": "", "hectares": "0.19", "maximum-net-dwellings": "10", "minimum-net-dwellings": "10", "notes": "", "organisation": "local-authority-eng:HAR", "ownership-status": "owned by a public authority", "planning-permission-date": "", "planning-permission-history": "", "planning-permission-status": "Not permissioned", "planning-permission-type": "", "point": "POINT(0.108957 51.763538)", "site": "38", "site-plan-url": "http://www.harlow.gov.uk/sites/harlow-cms/files/files/documents/files/38%20-%20Elm%20Hatch.pdf", "start-date": "2017-11-20", "id": "bf1e0cb0b05bf86d1f2832714c8a991cfd77012b4c93432f0cf8069ccd028008:65356"}}