{"type": "Feature", "geometry": {"type": "Point", "coordinates": [-0.840953, 51.279394]}, "properties": {"hectares": "0.05", "planning-permission-status": "permissioned", "notes": "Redevelopment of site to construct building to house 5 2-bedroom residential units", "name": "17/02762/FUL", "point": "POINT(-0.840953 51.279394)", "planning-permission-date": "2017-09-07", "organisation": "local-authority-eng:HAT", "minimum-net-dwellings": "5", "planning-permission-type": "full planning permission", "site": "17/02762/FUL", "maximum-net-dwellings": "5", "site-plan-url": "https://publicaccess.hart.gov.uk/online-applications/", "start-date": "2017-12-22", "ownership-status": "not owned by a public authority", "site-address": "144 Clarence Road, Fleet", "end-date": "2019-11-21", "slug": "/brownfield-land/local-authority-eng/HAT/17-02762-FUL", "entry-date": "2017-12-22", "deliverable": "yes"}}