{"type": "Feature", "geometry": {"type": "Point", "coordinates": [-2.7238, 53.7042]}, "properties": {"notes": "Outline application for the erection of 7 houses following demolition of existing offices/workshops (all matters reserved)", "planning-permission-history": "http://publicaccess.southribble.gov.uk/online-applications/", "deliverable": "yes", "start-date": "2019-07-04", "site": "2017", "minimum-net-dwellings": "7", "name": "2017", "organisation": "local-authority-eng:SRI", "point": "POINT(-2.7238 53.7042)", "planning-permission-date": "2018-11-12", "planning-permission-type": "full planning permission", "site-plan-url": "https://www.southribble.gov.uk/content/housing-land-availability", "ownership-status": "not owned by a public authority", "hectares": "0.28", "maximum-net-dwellings": "7", "site-address": "Earnshaw Business Centre, High Lane, Leyland", "planning-permission-status": "permissioned", "slug": "/brownfield-land/local-authority-eng/SRI/2017", "entry-date": "2019-07-04"}}