{"type": "Feature", "geometry": {"type": "Point", "coordinates": [1.416886, 52.647507]}, "properties": {"resource": "bc54634a7481440ff8fe1d0ec012edc1f94052102f67ccfa984246b361a7a88f", "site-address": "Witton Lane Gospel Hall, Little Plumstead, Norwich", "deliverable": "yes", "end-date": "", "entry-date": "2017-12-31", "hazardous-substances": "", "hectares": "0.26", "maximum-net-dwellings": "3", "minimum-net-dwellings": "3", "notes": "Site proposed as part of Greater Norwich Local Plan Call for Sites. Within existing settlement boundary", "organisation": "local-authority-eng:BRO", "ownership-status": "not owned by a public authority", "planning-permission-date": "", "planning-permission-history": "https://secure.broadland.gov.uk/Northgate/PlanningExplorer/GeneralSearch.aspx", "planning-permission-status": "Not permissioned", "planning-permission-type": "", "point": "POINT(1.416886 52.647507)", "site": "B/GLP/002", "site-plan-url": "https://www.arcgis.com/apps/webappviewer/index.html?id=64110f1c89b340938fdc601e639d063e&query=BrownfieldSites_8038_0%2CAlt_Ref%2CGNLP0357", "start-date": "2017-12-31", "id": "B-GLP-002"}}