{"type": "Feature", "geometry": {"type": "Point", "coordinates": [-1.090677, 53.047746]}, "properties": {"resource": "3b373e04d251f0360d586f002fb00e21ecabcafee902165359f28071060f0931", "site-address": "Warren Place (Outbuildings), Oxton Road, Calverton", "deliverable": "", "end-date": "", "entry-date": "2018-04-01", "hazardous-substances": "", "hectares": "1.32", "maximum-net-dwellings": "33", "minimum-net-dwellings": "7", "notes": "The site currently falls within part of the designated safeguarded land in the Local Planning Document which means the site is protected from development for the plan period up to 2028 in order to meet longer term development needs.", "organisation": "local-authority-eng:GED", "ownership-status": "not owned by a public authority", "planning-permission-date": "", "planning-permission-history": "", "planning-permission-status": "not permissioned", "planning-permission-type": "", "point": "POINT(-1.090677 53.047746)", "site": "6/1073", "site-plan-url": "http://www.arcgis.com/apps/webappviewer/index.html?id=57b3b3cce7c44532b0cface13f74177e&find=6%2F1073", "start-date": "2018-04-01", "id": "6-1073"}}