{"type": "Feature", "geometry": {"type": "Point", "coordinates": [-0.20803, 51.80238]}, "properties": {"resource": "a6c8009d84dac7b42810f774e7f67a8d6f26ec9ebb225633f8b11a0847c4e9cf", "site-address": "Welwyn Garden City - Fountain House, Howardsgate (Extension)", "deliverable": "yes", "end-date": "", "entry-date": "2017-12-15", "hazardous-substances": "", "hectares": "0.05", "maximum-net-dwellings": "8", "minimum-net-dwellings": "8", "notes": "", "organisation": "local-authority-eng:WEW", "ownership-status": "not owned by a public authority", "planning-permission-date": "2017-11-13", "planning-permission-history": "", "planning-permission-status": "permissioned", "planning-permission-type": "full planning permission", "point": "POINT(-0.20803 51.80238)", "site": "WGC138b", "site-plan-url": "http://www.welhat.gov.uk/map?getmap=true&scale=250&location=523665.80078125^213044.854492188&layersidentifier=130d83db7b6d416d89a7882f2b03d4ed&menuconfig=Live", "start-date": "2017-12-15", "id": "a6c8009d84dac7b42810f774e7f67a8d6f26ec9ebb225633f8b11a0847c4e9cf:29958"}}