{"type": "Feature", "geometry": {"type": "Point", "coordinates": [-2.705694, 53.698556]}, "properties": {"site": "GH03", "name": "GH03", "hectares": "0.23", "planning-permission-status": "not permissioned", "organisation": "local-authority-eng:SRI", "start-date": "2017-09-20", "notes": "07/2008/0621/FUL for erection of 12 no 2, 2 1/2 and 3-storey dwellings comprising 2 no 2 bed flats, 3 no 2 bed houses, 6 no 3 bed houses, 1 no 4 bed house together with associated parking following demolition of existing car showroom, workshop and ancillary buildings - expired in 2011. Still in use.", "maximum-net-dwellings": "6", "ownership-status": "not owned by a public authority", "minimum-net-dwellings": "6", "slug": "/brownfield-land/local-authority-eng/SRI/GH03", "entry-date": "2017-09-20", "planning-permission-history": "http://publicaccess.southribble.gov.uk/online-applications/", "site-plan-url": "https://www.southribble.gov.uk/content/housing-land-availability", "site-address": "Golden Hill Garage, 208 - 216 Golden Hill Lane", "point": "POINT(-2.705694 53.698556)"}}