{"type": "Feature", "geometry": {"type": "Point", "coordinates": [-0.268135, 51.46614]}, "properties": {"organisation": "local-authority-eng:RIC", "site-plan-url": "https://maps.london.gov.uk/brownfield-sites/", "site-address": "21A St Leonards Road, East Sheen, SW14 7LY", "site": "RBR/17/0069", "planning-permission-date": "2018-05-22", "ownership-status": "not owned by a public authority", "name": "RBR/17/0069", "minimum-net-dwellings": "5", "maximum-net-dwellings": "5", "start-date": "2020-12-21", "deliverable": "yes", "planning-permission-type": "full planning permission", "planning-permission-history": "http://www2.richmond.gov.uk/plandata2/Planning_CaseNo.aspx?strCASENO=18/1064/GPD15", "hectares": "0.05", "planning-permission-status": "permissioned", "point": "POINT(-0.268135 51.46614)", "slug": "/brownfield-land/local-authority-eng/RIC/RBR-17-0069", "entry-date": "2020-12-21"}}