{"type": "Feature", "geometry": {"type": "Point", "coordinates": [-2.727265, 53.341239]}, "properties": {"resource": "8b9fc963cf61e498b12b16c5012993e87193bb824d7b26cb03beac8b3a0eaed0", "site-address": "Busway and Former Petrol Station, Bridge Street, Runcorn", "deliverable": "yes", "end-date": "", "entry-date": "2017-12-31", "hazardous-substances": "", "hectares": "0.9", "maximum-net-dwellings": "32", "minimum-net-dwellings": "24", "notes": "Potential capacity based on a density multiplier with the minimum based on 30dph and maximum at 40dph. Physical constraints identified include woodland and potentially contaminated land.. Potential for housing and apartments.", "organisation": "local-authority-eng:HAL", "ownership-status": "mixed ownership", "planning-permission-date": "", "planning-permission-history": "", "planning-permission-status": "Not permissioned", "planning-permission-type": "", "point": "POINT(-2.727265 53.341239)", "site": "H1032", "site-plan-url": "http://map.halton.gov.uk/WebMapLayers8External/map.aspx?MapName=Linked&overlayname=Brownfield%20Register&schemacolumn=Ref&resolution=1&UID=H1032", "start-date": "2017-12-31", "id": "8b9fc963cf61e498b12b16c5012993e87193bb824d7b26cb03beac8b3a0eaed0:39923"}}