{"type": "Feature", "geometry": {"type": "Point", "coordinates": [-1.283863, 53.492545]}, "properties": {"name": "790", "planning-permission-history": "http://www.doncaster.gov.uk/services/planning/planning-applications-online-public-access", "start-date": "2017-12-31", "organisation": "local-authority-eng:DNC", "maximum-net-dwellings": "16", "planning-permission-type": "full planning permission", "planning-permission-status": "not permissioned", "point": "POINT(-1.283863 53.492545)", "site": "790", "site-plan-url": "http://dmbc.maps.arcgis.com/apps/webappviewer/index.html?id=2ac0d9b40cc34eb2b05e80a122b7a6e2", "ownership-status": "not owned by a public authority", "notes": "11/02702/FULM - Planning permission lapsed. Current application pending for demolition of existing building (18/02022/FUL)", "planning-permission-date": "2014-04-15", "minimum-net-dwellings": "16", "site-address": "Red Lion Hotel, 41 Bank Street, Mexborough", "hectares": "0.06", "slug": "/brownfield-land/local-authority-eng/DNC/790", "entity": 481252, "entry-date": "2018-12-31"}}