{"type": "Feature", "geometry": {"type": "Point", "coordinates": [-2.947857, 53.421813]}, "properties": {"resource": "9eda46521c6188e0f32023eced61244627e72ba988f669e15478f90d5203780c", "site-address": "ST. MARGARET'S PARISH HALL, 2 BELMONT ROAD L6.", "deliverable": "", "end-date": "", "entry-date": "2019-11-30", "hazardous-substances": "", "hectares": "0.10300600509644", "maximum-net-dwellings": "", "minimum-net-dwellings": "", "notes": "", "organisation": "local-authority-eng:LIV", "ownership-status": "", "planning-permission-date": "", "planning-permission-history": "", "planning-permission-status": "permissioned", "planning-permission-type": "", "point": "POINT(-2.947857 53.421813)", "site": "5007", "site-plan-url": "", "start-date": "", "slug": "local-authority-eng/LIV/5007"}}