{"type": "Feature", "geometry": {"type": "Point", "coordinates": [-1.761528, 53.793978]}, "properties": {"ownership-status": "not owned by a public authority", "name": "CC/092", "site": "CC/092", "planning-permission-history": "https://planning.bradford.gov.uk/online-applications/applicationDetails.do?keyVal=7403617FUL&activeTab=summary|https://planning.bradford.gov.uk/online-applications/applicationDetails.do?keyVal=NOA0UDDHLT000&activeTab=summary|https://planning.bradford.gov", "hectares": "0.04", "site-plan-url": "http://cbmdc.maps.arcgis.com/apps/webappviewer/index.html?id=2134938ccf5843649ef0e555c0926dae&extent=415793.45,433085.6,415820.35,433114.6,27700", "minimum-net-dwellings": "0", "notes": "Site has planning approval for conversion to 16 flats", "site-address": "126-128 Thornton Road, City Centre", "organisation": "local-authority-eng:BRD", "maximum-net-dwellings": "0", "deliverable": "yes", "start-date": "2017-11-01", "point": "POINT(-1.761528 53.793978)", "planning-permission-status": "permissioned", "planning-permission-date": "2017-10-16", "planning-permission-type": "full planning permission", "slug": "/brownfield-land/local-authority-eng/BRD/CC-092", "entry-date": "2018-11-01"}}