{"type": "Feature", "geometry": {"type": "Point", "coordinates": [0.054109, 51.632634]}, "properties": {"hectares": "0.09", "planning-permission-status": "permissioned", "organisation": "local-authority-eng:EPP", "site": "BR082", "ownership-status": "owned by a public authority", "site-address": "Adj Garage Block_x000D_ Pentlow Way_x000D_ Buckhurst Hill_x000D_ Essex_x000D_ IG9 6BZ", "name": "BR082", "site-plan-url": "http://efdc.maps.arcgis.com/apps/webappviewer/index.html?id=355f4a1a16db436a96e3b78f8d2e14cf", "point": "POINT(0.054109 51.632634)", "slug": "/brownfield-land/local-authority-eng/EPP/BR082", "entity": 482266, "entry-date": "2018-05-22"}}