{"type": "Feature", "geometry": {"type": "Point", "coordinates": [-4.552939, 50.83677]}, "properties": {"maximum-net-dwellings": "9", "planning-permission-history": "http://planning.cornwall.gov.uk/online-applications/", "hectares": "0.15", "planning-permission-status": "permissioned", "site": "BR118", "deliverable": "yes", "minimum-net-dwellings": "9", "site-plan-url": "https://map.cornwall.gov.uk/website/ccmap/?zoomlevel=1&xcoord=166583&ycoord=63854&wsName=ccmap&layerName=Brownfield%20register", "planning-permission-date": "2017-11-02", "organisation": "local-authority-eng:CON", "site-address": "The Penarvor 15 Crooklets Flexbury", "start-date": "2018-12-12", "notes": "Proposed demolition of existing hotel and 1 unit of residential accommodation and erection of 10 no. apartments.", "point": "POINT(-4.552939 50.83677)", "ownership-status": "mixed ownership", "planning-permission-type": "full planning permission", "name": "BR118", "slug": "/brownfield-land/local-authority-eng/CON/BR118", "entity": 480215, "entry-date": "2018-12-12"}}