{"type": "Feature", "geometry": {"type": "Point", "coordinates": [-1.350781, 53.360297]}, "properties": {"start-date": "2017-12-05", "ownership-status": "not owned by a public authority", "planning-permission-type": "full planning permission", "name": "S03220", "minimum-net-dwellings": "17", "hectares": "0.57", "site": "S03220", "organisation": "local-authority-eng:SHF", "planning-permission-date": "2016-09-21", "planning-permission-status": "permissioned", "site-plan-url": "https://www.sheffield.gov.uk/content/sheffield/home/planning-development/housing-land-sites.html", "planning-permission-history": "https://planningapps.sheffield.gov.uk/online-applications/applicationDetails.do?activeTab=summary&keyVal=NS8XE0NYFY000", "point": "POINT(-1.350781 53.360297)", "site-address": "Junction Road", "notes": "Estimated to comprise of 17 Houses", "deliverable": "yes", "maximum-net-dwellings": "17", "slug": "/brownfield-land/local-authority-eng/SHF/S03220", "entry-date": "2018-12-18"}}