{"type": "Feature", "geometry": {"type": "Point", "coordinates": [-0.03923, 51.49192]}, "properties": {"resource": "86dee119f806d0c7f62295e6aae502851827e848202c4e43e833126ed62773db", "site-address": "Evelyn Court, Grinstead Road", "deliverable": "", "end-date": "", "entry-date": "2018-10-22", "hazardous-substances": "", "hectares": "0.21", "maximum-net-dwellings": "18", "minimum-net-dwellings": "18", "notes": "Lapsed 14/089442 Prior approval for mixed use development including 18 residential dwellings", "organisation": "local-authority-eng:LEW", "ownership-status": "not owned by a public authority", "planning-permission-date": "", "planning-permission-history": "", "planning-permission-status": "not permissioned", "planning-permission-type": "", "point": "POINT(-0.03923 51.49192)", "site": "EV009", "site-plan-url": "http://www.lewisham.gov.uk/brownfieldregister", "start-date": "2017-11-30", "id": "86dee119f806d0c7f62295e6aae502851827e848202c4e43e833126ed62773db:26058"}}