{"type": "Feature", "geometry": {"type": "Point", "coordinates": [-0.096996, 51.488864]}, "properties": {"resource": "69584001774ee43f8bc3e6df5517c2b8eb3109bcb6db5e1e5103e9ff594f2c22", "site-address": "2-6,Occupation Road,,SE17 3BE", "deliverable": "", "end-date": "", "entry-date": "2020-03-24", "hazardous-substances": "", "hectares": "0.252", "maximum-net-dwellings": "24", "minimum-net-dwellings": "24", "notes": "Demolition of existing building and redevelopment to provide 1,112sqm (GIA) of business floorspace (B1c) and 24 residential units (C3)(18x 2 bed and 6x 3 bed), alterations to the existing access and commercial parking, provision of disabled residential parking and associated public realm improvements.", "organisation": "local-authority-eng:SWK", "ownership-status": "", "planning-permission-date": "2016-04-29", "planning-permission-history": "", "planning-permission-status": "", "planning-permission-type": "", "point": "POINT(-0.096996 51.488864)", "site": "15-AP-0904", "site-plan-url": "", "start-date": "2020-03-24", "id": "local-authority-eng/SWK/15-AP-0904"}}