{"type": "Feature", "geometry": {"type": "Point", "coordinates": [-1.75443, 53.56137]}, "properties": {"resource": "93f7961f5e90ed8e26b632353221a0cc955a70fdbe3b0130c3d70ef03c5bb356", "site-address": "Dobroyd Mills, Hepworth Road, New Mill, Holmfirth, HD9 1AF", "deliverable": "yes", "end-date": "", "entry-date": "2017-12-20", "hazardous-substances": "", "hectares": "2.54646", "maximum-net-dwellings": "0", "minimum-net-dwellings": "0", "notes": "Part of a larger site that includes some greenfield land.. Pending application for demolition of existing buildings and change of use of existing mill building, including C3 (dwellinghouses).", "organisation": "local-authority-eng:KIR", "ownership-status": "not owned by a public authority", "planning-permission-date": "", "planning-permission-history": "http://www.kirklees.gov.uk/beta/planning-applications/search-for-planning-applications/detail.aspx?id=2017%2F90620", "planning-permission-status": "pending decision", "planning-permission-type": "", "point": "POINT(-1.75443 53.56137)", "site": "BLR_045", "site-plan-url": "https://mapping.kirklees.gov.uk/connect/analyst/mobile/#/main?mapcfg=Kirklees%20Brownfield%20Land%20Register", "start-date": "2017-12-20", "id": "BLR_045"}}