{"type": "Feature", "geometry": {"type": "Point", "coordinates": [-0.204682, 50.836075]}, "properties": {"resource": "163a15518ad8e5437a2471adf78aabf61a16c49b79a0c9f7c425730829b95349", "site-address": "Boundary House Boundary Road Hove", "deliverable": "", "end-date": "", "entry-date": "2017-10-02", "hazardous-substances": "", "hectares": "0.17", "maximum-net-dwellings": "17", "minimum-net-dwellings": "17", "notes": "", "organisation": "local-authority-eng:BNH", "ownership-status": "not owned by a public authority", "planning-permission-date": "", "planning-permission-history": "", "planning-permission-status": "not permissioned", "planning-permission-type": "", "point": "POINT(-0.204682 50.836075)", "site": "SHLAA6001", "site-plan-url": "https://www.brighton-hove.gov.uk/sites/brighton-hove.gov.uk/files/SHLAA6001%20Boundary%20House%20Boundary%20Road%20Hove.pdf", "start-date": "2017-10-02", "id": "163a15518ad8e5437a2471adf78aabf61a16c49b79a0c9f7c425730829b95349:4154"}}