{"type": "Feature", "geometry": {"type": "Point", "coordinates": [-2.128124, 53.563702]}, "properties": {"organisation": "local-authority-eng:KWL", "planning-permission-type": "full planning permission", "site-plan-url": "http://maps.oldham.gov.uk/WebMapLayers8/?x=391780.623753397&y=405043.490402522&resolution=0.2&MapName=Brownfield", "planning-permission-date": "2018-12-03", "site": "HLA3435", "maximum-net-dwellings": "9", "ownership-status": "not owned by a public authority", "minimum-net-dwellings": "9", "start-date": "2023-11-22", "name": "HLA3435", "site-address": "Dog And Partridge, 148 Middleton Road, Royton, OL2 5LL", "deliverable": "yes", "notes": "PA/339829/17; Extant planning permission for residential. Three/four storey extension to side and rear of building and conversion of public house to provide a mixed use development comprising four offices (use class B1(a)) and 9 apartments (use class C3) including associated parking.", "planning-permission-status": "permissioned", "planning-permission-history": "https://www.oldham.gov.uk/info/200405/search_for_an_application", "hectares": "0.05", "point": "POINT(-2.128124 53.563702)", "slug": "/brownfield-land/local-authority-eng/KWL/HLA3435", "entry-date": "2018-11-22"}}