{"type": "Feature", "geometry": {"type": "Point", "coordinates": [-0.120233, 51.364799]}, "properties": {"resource": "d02d9bc0a0d825ba4c7677fe10d886d72895241d0f1953c877de3de7e04511c0", "site-address": "Morrisons Supermarket, 500 Purley Way", "deliverable": "yes", "end-date": "", "entry-date": "2019-12-23", "hazardous-substances": "", "hectares": "4.57", "maximum-net-dwellings": "1028", "minimum-net-dwellings": "251", "notes": "Redevelopment of a mix of residential, retail, commercial and community uses to form the basis of a new residential community. http://www.planvu.co.uk/croydon2016/index.php?map=proposed", "organisation": "local-authority-eng:CRY", "ownership-status": "not owned by a public authority", "planning-permission-date": "", "planning-permission-history": "", "planning-permission-status": "not permissioned", "planning-permission-type": "", "point": "POINT(-0.120233 51.364799)", "site": "25", "site-plan-url": "http://www.planvu.co.uk/croydon2016/index.php?map=proposed", "start-date": "2017-12-31", "id": "d02d9bc0a0d825ba4c7677fe10d886d72895241d0f1953c877de3de7e04511c0:17797"}}