{"type": "Feature", "geometry": {"type": "Point", "coordinates": [-2.930578, 53.37198]}, "properties": {"resource": "9eda46521c6188e0f32023eced61244627e72ba988f669e15478f90d5203780c", "site-address": "SIR THOMAS MOORE RC CHURCH, RUNDLE ROAD", "deliverable": "", "end-date": "", "entry-date": "2019-11-30", "hazardous-substances": "", "hectares": "0.061047135162354", "maximum-net-dwellings": "", "minimum-net-dwellings": "", "notes": "", "organisation": "local-authority-eng:LIV", "ownership-status": "", "planning-permission-date": "", "planning-permission-history": "", "planning-permission-status": "permissioned", "planning-permission-type": "", "point": "POINT(-2.930578 53.37198)", "site": "6128", "site-plan-url": "", "start-date": "", "id": "6128"}}