{"type": "Feature", "geometry": {"type": "Point", "coordinates": [-0.001347, 51.339909]}, "properties": {"planning-permission-date": "2017-06-01", "site-address": "49a - 49e, 129a -129e & 131a - 131b), Warbank Crescent", "planning-permission-history": "http://publicaccess2.croydon.gov.uk/online-applications/applicationDetails.do?activeTab=summary&keyVal=OIHU45JLLB700", "maximum-net-dwellings": "24", "deliverable": "yes", "site-plan-url": "http://publicaccess2.croydon.gov.uk/online-applications/applicationDetails.do?activeTab=summary&keyVal=OIHU45JLLB700", "organisation": "local-authority-eng:CRY", "planning-permission-status": "permissioned", "ownership-status": "owned by a public authority", "name": "16/06432/FUL", "minimum-net-dwellings": "24", "site": "16/06432/FUL", "hectares": "0.5", "start-date": "2018-11-30", "point": "POINT(-0.001347 51.339909)", "planning-permission-type": "full planning permission", "notes": "Demolition of existing demountable houses and erection of 3 single/ three-storey_x000D_ buildings comprising 21 two bedroom and 15 one bedroom flats, formation of vehicular_x000D_ access and provision of associated car parking, landscaping and other associated_x000D_ works.. http://publicaccess2.croydon.gov.uk/online-applications/applicationDetails.do?activeTab=summary&keyVal=OIHU45JLLB700", "slug": "/brownfield-land/local-authority-eng/CRY/16-06432-FUL", "entry-date": "2018-11-30"}}