{"type": "Feature", "geometry": {"type": "Point", "coordinates": [-1.565556, 53.659133]}, "properties": {"resource": "3c9b8266bf3bcda86dede9e8985436b9b403882d456d7936f9202f00dcbc1104", "site-address": "Land at Quarry, Quarry Hill, Horbury", "deliverable": "yes", "end-date": "", "entry-date": "2017-12-31", "hazardous-substances": "", "hectares": "0.85", "maximum-net-dwellings": "20", "minimum-net-dwellings": "20", "notes": "16/01374/REM. Residential development 20no. dwellings (reserved matters detail pursuant to 13/00523/RPP and 16/01408/FUL)", "organisation": "local-authority-eng:WKF", "ownership-status": "", "planning-permission-date": "2016-11-09", "planning-permission-history": "https://planning.wakefield.gov.uk/online-applications/applicationDetails.do?activeTab=summary&keyVal=O85JBKQQIWE00", "planning-permission-status": "permissioned", "planning-permission-type": "reserved matters approval", "point": "POINT(-1.565556 53.659133)", "site": "BLR17052", "site-plan-url": "http://map.wakefield.gov.uk/connect/analyst/?mapcfg=BLregister&x=428808&y=418159&zoom=10", "start-date": "2017-12-31", "id": "3c9b8266bf3bcda86dede9e8985436b9b403882d456d7936f9202f00dcbc1104:42261"}}