{"type": "Feature", "geometry": {"type": "Point", "coordinates": [-0.186348, 51.11214]}, "properties": {"resource": "6ca78c21940dd389a147a37e97b2844a7b4a3ffa907e1f94c2cdda189d0ae828", "site-address": "Overline House, Crawley Station and adjacent Highway, Station Way, Northgate, Crawley", "deliverable": "yes", "end-date": "", "entry-date": "2018-11-30", "hazardous-substances": "", "hectares": "2.07", "maximum-net-dwellings": "308", "minimum-net-dwellings": "308", "notes": "Allocated as a Town Centre Key Opportunity Site for residential and/or town centre uses in Local Plan Policies EC6 (Development Sites within the Town Centre Boundary) and H2 (Key Housing Sites).. Outline application (all matters reserved) for demolition of existing office building and integrated railway station building, footbridges and ancillary structures. erection of 308 studio, 1, 2 and 3 bedroom residential apartments and associated parking (C3 use class).. https://planningregister.crawley.gov.uk/Planning/Display/CR/2016/0294/OUT|http://www.crawley.gov.uk/pw/web/int228487", "organisation": "local-authority-eng:CRW", "ownership-status": "mixed ownership", "planning-permission-date": "2016-08-16", "planning-permission-history": "", "planning-permission-status": "permissioned", "planning-permission-type": "outline planning permission", "point": "POINT(-0.186348 51.11214)", "site": "CBCBLR023", "site-plan-url": "http://crawley.gov.uk/pw/web/PUB351375", "start-date": "2017-11-29", "id": "CBCBLR023"}}