{"type": "Feature", "geometry": {"type": "Point", "coordinates": [-0.178485, 50.830462]}, "properties": {"resource": "4b2da6f47851f1d21956ad22a691dddd67406e2341d77b84629a4c674366611a", "site-address": "20 Sackville Road & 78 Pembroke Crescent Hove", "deliverable": "yes", "end-date": "", "entry-date": "2017-10-03", "hazardous-substances": "", "hectares": "", "maximum-net-dwellings": "5", "minimum-net-dwellings": "5", "notes": "Development commenced 201617. Conversion of surgery (D1) to form 1no four bedroom house 2no one bedroom flats and 2no two bedroom flats", "organisation": "local-authority-eng:BNH", "ownership-status": "not owned by a public authority", "planning-permission-date": "2016-03-01", "planning-permission-history": "http://ww3.brighton-hove.gov.uk/index.cfm?request=c1199915&action=showDetail&APPLICATION_NUMBER=BH2015%2F02728", "planning-permission-status": "permissioned", "planning-permission-type": "full planning permission", "point": "POINT(-0.178485 50.830462)", "site": "PP4653", "site-plan-url": "https://www.brighton-hove.gov.uk/sites/brighton-hove.gov.uk/files/PP4653%2020%20Sackville%20Road%20%26%2078%20Pembroke%20Crescent%20Hove.pdf", "start-date": "2017-10-03", "id": "4b2da6f47851f1d21956ad22a691dddd67406e2341d77b84629a4c674366611a:16535"}}