{"type": "Feature", "geometry": {"type": "Point", "coordinates": [-2.038373, 52.599974]}, "properties": {"resource": "1f57061ab1128107cd734a5010136376105124f5f1d646e0907aea36aa9c498c", "site-address": "LAND BETWEEN TESCO EXPRESS, HIGH ROAD, AND 15, SHORT STREET, WILLENHALL, WV12 4JR", "deliverable": "", "end-date": "", "entry-date": "2017-12-29", "hazardous-substances": "", "hectares": "0.13", "maximum-net-dwellings": "6", "minimum-net-dwellings": "6", "notes": "", "organisation": "local-authority-eng:WLL", "ownership-status": "not owned by a public authority", "planning-permission-date": "2017-02-08", "planning-permission-history": "", "planning-permission-status": "permissioned", "planning-permission-type": "full planning permission", "point": "POINT(-2.038373 52.599974)", "site": "HO1144", "site-plan-url": "", "start-date": "2017-12-29", "id": "1f57061ab1128107cd734a5010136376105124f5f1d646e0907aea36aa9c498c:60772"}}