{"type": "Feature", "geometry": {"type": "Point", "coordinates": [-0.723609, 51.6339]}, "properties": {"site": "SHW0506", "maximum-net-dwellings": "6", "name": "SHW0506", "start-date": "2017-12-14", "planning-permission-type": "full planning permission", "site-plan-url": "http://mywycombe.wycombe.gov.uk", "deliverable": "yes", "site-address": "222-224 Hatters Lane, High Wycombe , Bucks, HP13 7LU", "ownership-status": "not owned by a public authority", "notes": "15/05306/FUL. Demolition of 222 & 224 Hatters Lane and erection of 6 x 2 bed two storey dwellings and 2 x 3 bed two storey dwellings, retention of vehicular access to Hatters Lane and creation of new vehicular access to Hicks Farm Rise, parking and landscaping.", "planning-permission-date": "2011-09-12", "hectares": "0.16", "point": "POINT(-0.723609 51.6339)", "planning-permission-status": "permissioned", "minimum-net-dwellings": "6", "organisation": "local-authority-eng:WYO", "slug": "/brownfield-land/local-authority-eng/WYO/SHW0506", "entity": 500180, "entry-date": "2017-12-14"}}