{"type": "Feature", "geometry": {"type": "Point", "coordinates": [-0.05105, 51.48537]}, "properties": {"resource": "86dee119f806d0c7f62295e6aae502851827e848202c4e43e833126ed62773db", "site-address": "New Bermondsey, Surrey Canal Triangle", "deliverable": "yes", "end-date": "", "entry-date": "2017-11-30", "hazardous-substances": "", "hectares": "10.16", "maximum-net-dwellings": "", "minimum-net-dwellings": "", "notes": "11/76357 for mixed use development including 2,365 residential units", "organisation": "local-authority-eng:LEW", "ownership-status": "not owned by a public authority", "planning-permission-date": "2012-03-30", "planning-permission-history": "", "planning-permission-status": "permissioned", "planning-permission-type": "outline planning permission", "point": "POINT(-0.05105 51.48537)", "site": "NX001", "site-plan-url": "http://www.lewisham.gov.uk/brownfieldregister", "start-date": "2017-11-30", "id": "86dee119f806d0c7f62295e6aae502851827e848202c4e43e833126ed62773db:38693"}}