{"type": "Feature", "geometry": {"type": "Point", "coordinates": [-0.19592, 51.509335]}, "properties": {"site": "RBKC022", "planning-permission-history": "https://www.rbkc.gov.uk/PP/15/05730", "site-address": "66-70 And 72-74 Notting Hill Gate, London, W11 3HT", "minimum-net-dwellings": "9", "notes": "Partial demolition extension and re-facing of buildings at 66-74 Notting Hill Gate to create 19 residential apartments and amalgamation of ground floor units of 70-74 Notting Hill Gate together with plant cycle and refuse storage (MAJOR APPLICATION).", "deliverable": "yes", "planning-permission-type": "full planning permission", "planning-permission-date": "2016-01-15", "maximum-net-dwellings": "9", "ownership-status": "not owned by a public authority", "point": "POINT(-0.19592 51.509335)", "hectares": "0.088", "site-plan-url": "https://lbhf.maps.arcgis.com/apps/webappviewer/index.html?id=931fa3b3294b4147a518648579b12d4a", "name": "RBKC022", "planning-permission-status": "permissioned", "start-date": "2017-12-31", "organisation": "local-authority-eng:KEC", "slug": "/brownfield-land/local-authority-eng/KEC/RBKC022", "entry-date": "2019-12-31"}}