{"type": "Feature", "geometry": {"type": "Point", "coordinates": [-2.994079, 53.36587]}, "properties": {"resource": "5f6bcb66967d6c4c7f3bf6e31355e44b067502eb18889e86c4ea0e4e68831cfe", "site-address": "Land Adj 16 The Esplanade, New Ferry", "deliverable": "yes", "end-date": "", "entry-date": "2017-12-22", "hazardous-substances": "", "hectares": "0.3", "maximum-net-dwellings": "21", "minimum-net-dwellings": "21", "notes": "15/01376. 5 Houses & 16 Apartments", "organisation": "local-authority-eng:WRL", "ownership-status": "not owned by a public authority", "planning-permission-date": "2016-10-05", "planning-permission-history": "https://planning.wirral.gov.uk/online-applications/applicationDetails.do?activeTab=summary&keyVal=_WIRRA_DCAPR_97270", "planning-permission-status": "permissioned", "planning-permission-type": "outline planning permission", "point": "POINT(-2.994079 53.36587)", "site": "667800", "site-plan-url": "https://mapping.wirral.gov.uk/wml8/Map.aspx?MapName=Brownfield", "start-date": "2017-12-22", "id": "5f6bcb66967d6c4c7f3bf6e31355e44b067502eb18889e86c4ea0e4e68831cfe:20275"}}