{"type": "Feature", "geometry": {"type": "Point", "coordinates": [-0.891159, 52.242147]}, "properties": {"resource": "259a7b27606500229f294264d97d21b1467a30b1a43effbd3fad9499ac62ec78", "site-address": "Chronicle & Echo North", "deliverable": "yes", "end-date": "", "entry-date": "2018-12-21", "hazardous-substances": "", "hectares": "0.295218513", "maximum-net-dwellings": "28", "minimum-net-dwellings": "28", "notes": "N/2015/0333 Hybrid planning application comprising (a) Full Planning Application for the erection of 1810m2 new retail food store with associated access from Earl Street, landscaping and car parking; and (b) Outline Planning Application with all matters reserved except access (from Great Russell Street) of up to 19 residential dwellings. 2018 update Aldi foodstore completed, outline amended.", "organisation": "local-authority-eng:NOR", "ownership-status": "mixed ownership", "planning-permission-date": "", "planning-permission-history": "", "planning-permission-status": "permissioned", "planning-permission-type": "full planning permission", "point": "POINT(-0.891159 52.242147)", "site": "BFR0336", "site-plan-url": "https://www.northampton.gov.uk/download/downloads/id/10721/bfr0336", "start-date": "2017-12-13", "id": "259a7b27606500229f294264d97d21b1467a30b1a43effbd3fad9499ac62ec78:37798"}}