{"type": "Feature", "geometry": {"type": "Point", "coordinates": [-1.611145, 54.977754]}, "properties": {"resource": "0fcbbed589cfe611b57cb5f7733bade8974584164e743f377ca0057ff08b1ec5", "site-address": "Car Park Adjacent To 26 Saint Marys Place", "deliverable": "yes", "end-date": "", "entry-date": "2019-03-27", "hazardous-substances": "", "hectares": "0.01", "maximum-net-dwellings": "7", "minimum-net-dwellings": "7", "notes": "Erection of 5 storey building consisting of office space (Class B1) to ground floor and 7 No. 1 bed student flats to upper floors (Class C3) as amended by drawings and information received 12.10.2016.", "organisation": "local-authority-eng:NET", "ownership-status": "not owned by a public authority", "planning-permission-date": "2016-10-19", "planning-permission-history": "", "planning-permission-status": "permissioned", "planning-permission-type": "", "point": "POINT(-1.611145 54.977754)", "site": "5879", "site-plan-url": "https://www.newcastle.gov.uk/sites/default/files/wwwfileroot/planning-and-buildings/planning-policy/housing_combined_web.pdf", "start-date": "", "id": "5879"}}