{"type": "Feature", "geometry": {"type": "Point", "coordinates": [-1.404818, 50.90207]}, "properties": {"site-plan-url": "http://www.southampton.gov.uk/planning/planning-policy/brownfield-land-register/brownfield-land-register-map.aspx?FINDLAYER=SCC:BROWNFIELD_REGISTER_EXT&FINDFIELD=SITE_NAME&FINDVALUE=BLR%20CC%2069", "maximum-net-dwellings": "108", "organisation": "local-authority-eng:STH", "point": "POINT(-1.404818 50.90207)", "site-address": "East of Castle Way", "hectares": "0.75", "planning-permission-status": "not permissioned", "start-date": "2017-11-17", "name": "BLR CC 69", "ownership-status": "mixed ownership", "minimum-net-dwellings": "108", "site": "BLR CC 69", "slug": "/brownfield-land/local-authority-eng/STH/BLR-CC-69", "entity": 494810, "entry-date": "2017-12-18"}}