{"type": "Feature", "geometry": {"type": "Point", "coordinates": [-0.86483, 52.26488]}, "properties": {"resource": "e32a19da9919183c94609d6f01101c754e6c19b8572e3b48b757098982524d39", "site-address": "Cedarwood Nursing Home, 492 Kettering Road", "deliverable": "yes", "end-date": "", "entry-date": "2017-12-13", "hazardous-substances": "", "hectares": "0.19", "maximum-net-dwellings": "14", "minimum-net-dwellings": "14", "notes": "N/2017/0627 Demolition of existing Care Home and erection of 14no 2 bedroom apartments - approved.", "organisation": "local-authority-eng:NOR", "ownership-status": "not owned by a public authority", "planning-permission-date": "", "planning-permission-history": "", "planning-permission-status": "permissioned", "planning-permission-type": "full planning permission", "point": "POINT(-0.86483 52.26488)", "site": "BFR1114", "site-plan-url": "https://www.northampton.gov.uk/downloads/file/10095/bfr1114", "start-date": "2017-12-13", "id": "BFR1114"}}