{"type": "Feature", "geometry": {"type": "Point", "coordinates": [-0.177904, 51.554244]}, "properties": {"resource": "8c8e11636895827afed2bd458ef0c234a09498a3d36f45e60a91f8726d0dfe66", "site-address": "Arthur West House 79 Fitzjohn's Avenue London NW3 6PA", "deliverable": "yes", "end-date": "", "entry-date": "2018-05-21", "hazardous-substances": "", "hectares": "0.21", "maximum-net-dwellings": "29", "minimum-net-dwellings": "29", "notes": "Demolition of hostel and erection of 3 - 6 storey building plus roof plant enclosure and excavation of 2 storey basement to provide 33 self-contained wheelchair accessible flats for the care & well-being of older people (13 x 2-bed & 20 x 3-bed) including ancillary extra-care and treatment rooms, restaurant, health & well-being facility, gym, communal lounges, guest suite, cycle and mobility scooter storage and staff facilities with basement level car park , communal garden and associated landscaping.", "organisation": "local-authority-eng:CMD", "ownership-status": "", "planning-permission-date": "2015-08-28", "planning-permission-history": "http://planningrecords.camden.gov.uk/Northgate/PlanningExplorer17/Generic/StdResults.aspx?PT=Planning%20Applications%20On-Line&SC=Application%20Number%20is%202014/7851/P%20and%20Date%20Validated%20is%20between%2001%20January%201927%20and%2031%20December%202017&FT=Planning%20Application%20Search%20Results&XMLSIDE=/Northgate/PlanningExplorer17/SiteFiles/Skins/Camden/Menus/PL.xml&XSLTemplate=/Northgate/PlanningExplorer17/SiteFiles/Skins/Camden/xslt/PL/PLResults.xslt&PS=10&XMLLoc=/Northgate/PlanningExplorer17/generic/XMLtemp/xtcpr1jw2rbnjc55fab2yvay/2a45c1db-80a1-4084-bd17-1c5287f597bd.xml", "planning-permission-status": "permissioned", "planning-permission-type": "full planning permission", "point": "POINT(-0.177904 51.554244)", "site": "LBCBLR070", "site-plan-url": "https://opendata.camden.gov.uk/Environment/Camden-Brownfield-Register-Polygons/wi65-z696/data", "start-date": "2017-12-22", "id": "8c8e11636895827afed2bd458ef0c234a09498a3d36f45e60a91f8726d0dfe66:45620"}}