{"type": "Feature", "geometry": {"type": "Point", "coordinates": [0.013394, 51.410276]}, "properties": {"site-plan-url": "https://searchapplications.bromley.gov.uk/online-applications/applicationDetails.do?activeTab=map&keyVal=OIIVHDBTJYY00", "planning-permission-history": "https://searchapplications.bromley.gov.uk/online-applications/applicationDetails.do?activeTab=summary&keyVal=OIIVHDBTJYY00", "planning-permission-date": "2017-03-03", "organisation": "local-authority-eng:BRY", "minimum-net-dwellings": "5", "planning-permission-type": "full planning permission", "name": "BLR24", "site": "BLR24", "deliverable": "yes", "planning-permission-status": "permissioned", "point": "POINT(0.013394 51.410276)", "start-date": "2017-12-31", "site-address": "33 Hammelton Road BR1 3PZ", "maximum-net-dwellings": "5", "slug": "/brownfield-land/local-authority-eng/BRY/BLR24", "entity": 478129, "entry-date": "2018-05-22", "notes": "Proposal for the conversion of existing house to 5no. flats including part single and two storey rear extension and front and rear dormer windows."}}