{"type": "Feature", "geometry": {"type": "Point", "coordinates": [1.087569, 51.285578]}, "properties": {"resource": "da787466995e063f8e2c510c82b805cd1e28e229227540cc63287abe00bd2a18", "site-address": "Kingsmead Depot, Kingsmead Road, Canterbury", "deliverable": "yes", "end-date": "04/12/2019", "entry-date": "2019-12-09", "hazardous-substances": "", "hectares": "3.85", "maximum-net-dwellings": "32", "minimum-net-dwellings": "32", "notes": "Site is currently under construction", "organisation": "local-authority-eng:CAT", "ownership-status": "mixed ownership", "planning-permission-date": "2019-02-07", "planning-permission-history": "", "planning-permission-status": "permissioned", "planning-permission-type": "full planning permission", "point": "POINT(1.087569 51.285578)", "site": "BR-005", "site-plan-url": "https://mapping.canterbury.gov.uk/webapps/Brownfield_Sites/?center=615399,158576,27700&scale=2000", "start-date": "2017-11-01", "id": "da787466995e063f8e2c510c82b805cd1e28e229227540cc63287abe00bd2a18:58043"}}