{"type": "Feature", "geometry": {"type": "Point", "coordinates": [-1.115536, 52.652849]}, "properties": {"organisation": "local-authority-eng:LCE", "site-plan-url": "https://maps.leicester.gov.uk/map/Aurora.svc/run?script=%5CAurora%5Cw3%5CPLANNING%5Cw3LP.AuroraScript%24&inspect_query=BFReg&inspect_value=380&show_layers=BFReg&hide_layers=Wards&nocache=32281332-3504-d8fd-d4e6-2ea6a181fb0a&resize=always", "planning-permission-date": "2015-07-17", "site-address": "137 Harrison Road", "name": "OJE3495_20141780", "point": "POINT(-1.115536 52.652849)", "notes": "Planning permission for 13 flats", "maximum-net-dwellings": "13", "deliverable": "yes", "minimum-net-dwellings": "13", "start-date": "2017-12-31", "site": "OJE3495_20141780", "planning-permission-type": "full planning permission", "ownership-status": "not owned by a public authority", "hectares": "0.1", "planning-permission-status": "permissioned", "slug": "/brownfield-land/local-authority-eng/LCE/OJE3495-20141780", "entity": 485524, "entry-date": "2017-12-31"}}