{"type": "Feature", "geometry": {"type": "Point", "coordinates": [-1.465328, 52.482485]}, "properties": {"start-date": "2017-12-31", "notes": "Community centre and play area. No longer in use. Allocated as a Non-strategic site in NBBC Borough Plan 2011-2031 (NUN356)", "maximum-net-dwellings": "18", "site": "BF021", "site-address": "The Elizabeth Centre, Johnson Road, Bedworth, CV12 9BH", "name": "BF021", "planning-permission-status": "not permissioned", "point": "POINT(-1.465328 52.482485)", "minimum-net-dwellings": "18", "ownership-status": "owned by a public authority", "organisation": "local-authority-eng:NUN", "hectares": "0.68", "deliverable": "yes", "site-plan-url": "https://www.nuneatonandbedworth.gov.uk/downloads/file/2200/brownfield_register_-_individual_site_maps_2037", "slug": "/brownfield-land/local-authority-eng/NUN/BF021", "entity": 489860, "entry-date": "2020-03-10"}}