{"type": "Feature", "geometry": {"type": "Point", "coordinates": [1.311117, 51.122377]}, "properties": {"resource": "a0ce90d3d64d781a7f9695a659422436c5a44d4d365bcfed2b9fcea9762ea347", "site-address": "149-156 Snargate Street, Dover, 149-156 Snargate Street", "deliverable": "yes", "end-date": "", "entry-date": "2016-06-20", "hazardous-substances": "", "hectares": "0.11", "maximum-net-dwellings": "9", "minimum-net-dwellings": "9", "notes": "Not Started", "organisation": "local-authority-eng:DOV", "ownership-status": "not owned by a public authority", "planning-permission-date": "2014-08-01", "planning-permission-history": "https://planning.dover.gov.uk/online-applications/applicationDetails.do?activeTab=summary&keyVal=DCAPR_223099", "planning-permission-status": "permissioned", "planning-permission-type": "reserved matters approval", "point": "POINT(1.311117 51.122377)", "site": "BR78-16", "site-plan-url": "http://dover.gov.uk/Planning/Planning-Policy/Brownfield-Land-Register/Site-Plans/BR78-16.pdf", "start-date": "2016-06-20", "id": "BR78-16"}}