{"type": "Feature", "geometry": {"type": "Point", "coordinates": [-2.493908, 53.188931]}, "properties": {"resource": "eba7154272fb878308334ae6c4c5f38f5d9b27f10d5de5b781e55a67371737b2", "name": "WIW/0019", "site-address": "Caravan Park off Rilshaw Lane, (Phase 1), Winsford", "deliverable": "", "end-date": "", "entry-date": "2017-12-21", "hazardous-substances": "", "hectares": "0.35", "maximum-net-dwellings": "15", "minimum-net-dwellings": "15", "notes": "Residential development", "organisation": "local-authority-eng:CHW", "ownership-status": "not owned by a public authority", "planning-permission-date": "", "planning-permission-history": "", "planning-permission-status": "not permissioned", "planning-permission-type": "", "point": "POINT(-2.493908 53.188931)", "site": "WIW/0019", "site-plan-url": "http://consult.cheshirewestandchester.gov.uk/file/4828347", "start-date": "2017-12-21", "slug": "/brownfield-land/local-authority-eng/CHW/WIW-0019", "href": "local-authority-eng/CHW/WIW-0019"}}