{"type": "Feature", "geometry": {"type": "Point", "coordinates": [-1.991418, 52.703529]}, "properties": {"resource": "4c524bd78ea05989aaaabdcad0cae87d48f4ad9eaf18a4e4979d4f0f78465c55", "site-address": "Tennent's Bakery, Wood Lane, Hednesford", "deliverable": "", "end-date": "", "entry-date": "2017-09-01", "hazardous-substances": "", "hectares": "0.24", "maximum-net-dwellings": "8", "minimum-net-dwellings": "8", "notes": "Business has recently closed and landowner has expressed interest in redeveloping site for 8 dwellings. Application expected in short term.", "organisation": "local-authority-eng:CAN", "ownership-status": "not owned by a public authority", "planning-permission-date": "", "planning-permission-history": "", "planning-permission-status": "Not permissioned", "planning-permission-type": "", "point": "POINT(-1.991418 52.703529)", "site": "C73", "site-plan-url": "http://cannockchase.addresscafe.com/app/exploreit/", "start-date": "2017-09-01", "id": "4c524bd78ea05989aaaabdcad0cae87d48f4ad9eaf18a4e4979d4f0f78465c55:58233"}}