{"type": "Feature", "geometry": {"type": "Point", "coordinates": [-1.13259, 53.014719]}, "properties": {"notes": "The site is allocated in the Local Planning Document (site X2). Full planning permission for 72 homes (2016/0854) granted in December 2018.", "hectares": "1.33", "site-plan-url": "http://gedlingbc.maps.arcgis.com/apps/webappviewer/index.html?id=57b3b3cce7c44532b0cface13f74177e&find=6%5C479", "ownership-status": "not owned by a public authority", "planning-permission-status": "permissioned", "maximum-net-dwellings": "72", "organisation": "local-authority-eng:GED", "minimum-net-dwellings": "72", "point": "POINT(-1.13259 53.014719)", "start-date": "2017-04-01", "site-address": "Metallifacture Ltd, Mansfield Road, Arnold", "name": "6\\479", "deliverable": "yes", "site": "6\\479", "slug": "/brownfield-land/local-authority-eng/GED/6-479", "entry-date": "2019-12-13", "planning-permission-type": "full planning permission", "planning-permission-date": "2018-12-14"}}