{"type": "Feature", "geometry": {"type": "Point", "coordinates": [-1.892447, 53.720935]}, "properties": {"resource": "c9a55b734c7c65307e2341ff1bee5b70f7c16ccdf89a5c2ec35814f65c33ae1a", "site-address": "Spring Hall Mills, Mile Cross Road, Halifax.", "deliverable": "yes", "end-date": "", "entry-date": "2020-05-31", "hazardous-substances": "", "hectares": "0.47", "maximum-net-dwellings": "16", "minimum-net-dwellings": "16", "notes": "17/01039/FUL - Demolition of existing mill to facilitate residential development of 16 dwellings.Granted 11.01.19. This site has been allocated as a New Housing Site in the Local Plan Publication Draft LP0407.", "organisation": "local-authority-eng:CLD", "ownership-status": "not owned by a public authority", "planning-permission-date": "2019-01-11", "planning-permission-history": "https://portal.calderdale.gov.uk/online-applications/search.do?action=advanced", "planning-permission-status": "permissioned", "planning-permission-type": "full planning permission", "point": "POINT(-1.892447 53.720935)", "site": "BLR115", "site-plan-url": "https://maps.calderdale.gov.uk/map/Aurora.svc/run?script=%5CAurora%5CScripts%5CBrownfield%20Land%20Register%202020.AuroraScript%24&nocache=b3a8172e-c974-a20b-e60c-877a0098b807&resize=always&inspect_query=BLR2020&inspect_value=BLR115", "start-date": "2020-05-31", "id": "c9a55b734c7c65307e2341ff1bee5b70f7c16ccdf89a5c2ec35814f65c33ae1a:53019"}}