{"type": "Feature", "geometry": {"type": "Point", "coordinates": [-2.617667, 51.520646]}, "properties": {"resource": "d07e2c1bc437439fb00ca65b10544793b42cebc346d57373964fd91a631fafe9", "site-address": "Former Filton Airfield Filton", "deliverable": "yes", "end-date": "", "entry-date": "2017-12-31", "hazardous-substances": "", "hectares": "142.97", "maximum-net-dwellings": "2675", "minimum-net-dwellings": "2675", "notes": "Resolution to grant permission subject to S106 28/11/17. Mixed use development including residential", "organisation": "local-authority-eng:SGC", "ownership-status": "not owned by a public authority", "planning-permission-date": "2017-10-13", "planning-permission-history": "http://developments.southglos.gov.uk/online-applications/applicationDetails.do?activeTab=summary&keyVal=ND0W86OK7T000", "planning-permission-status": "pending decision", "planning-permission-type": "outline planning permission", "point": "POINT(-2.617667 51.520646)", "site": "46", "site-plan-url": "http://developments.southglos.gov.uk/online-applications/applicationDetails.do?activeTab=map&keyVal=ND0W86OK7T000", "start-date": "2016-06-30", "id": "d07e2c1bc437439fb00ca65b10544793b42cebc346d57373964fd91a631fafe9:55551"}}