{"type": "Feature", "geometry": {"type": "Point", "coordinates": [-2.350995, 53.38604]}, "properties": {"point": "POINT(-2.350995 53.38604)", "minimum-net-dwellings": "14", "start-date": "2017-12-18", "site": "2293", "site-address": "The Dome, Grafton House, Stamford New Road, Altrincham, WA14 1DQ", "name": "2293", "planning-permission-type": "other", "site-plan-url": "https://mappinggm.org.uk/gmodin/?lyrs=brownfield_2018_gm#os_maps_light/18/53.38604/-2.3509947", "ownership-status": "not owned by a public authority", "deliverable": "yes", "maximum-net-dwellings": "14", "hectares": "0.2", "organisation": "local-authority-eng:TRF", "planning-permission-history": "http://publicaccess.trafford.gov.uk/online-applications/applicationDetails.do?activeTab=summary&keyVal=O4I0LDQLGO700", "notes": "Change of use of part of existing building from office (Use Class B1(a) ) to residential (Use Class C3) to create No 14 residential apartments.", "planning-permission-date": "2016-06-08", "planning-permission-status": "permissioned", "slug": "/brownfield-land/local-authority-eng/TRF/2293", "entry-date": "2017-12-18"}}