{"type": "Feature", "geometry": {"type": "Point", "coordinates": [-0.324081, 53.496295]}, "properties": {"resource": "a67b1d41bcfeedf77d7beec23336c732f88376938b03526736d40035abd0f82a", "site-address": "Land off, Hersey Road, Caistor", "deliverable": "yes", "end-date": "", "entry-date": "2018-03-31", "hazardous-substances": "", "hectares": "0.26", "maximum-net-dwellings": "10", "minimum-net-dwellings": "10", "notes": "", "organisation": "local-authority-eng:WLI", "ownership-status": "", "planning-permission-date": "2018-03-05", "planning-permission-history": "", "planning-permission-status": "permissioned", "planning-permission-type": "full planning permission", "point": "POINT(-0.324081 53.496295)", "site": "29", "site-plan-url": "https://www.west-lindsey.gov.uk/_resources/assets/attachment/full/0/55645.pdf", "start-date": "2018-12-21", "id": "a67b1d41bcfeedf77d7beec23336c732f88376938b03526736d40035abd0f82a:30604"}}