{"type": "Feature", "geometry": {"type": "Point", "coordinates": [-0.85012, 51.400366]}, "properties": {"planning-permission-type": "full planning permission", "name": "BR213", "organisation": "local-authority-eng:WOK", "notes": "Prior approval submission for the conversion of existing office building (Use Class B1(a)) to 18no residential apartments (Use Class C3).", "minimum-net-dwellings": "25", "site-plan-url": "http://planning.wokingham.gov.uk/FastWebPL/welcome.asp", "site": "BR213", "point": "POINT(-0.85012 51.400366)", "site-address": "12 Oaklands Business Centre, Oaklands Park Wokingham RG412FD", "maximum-net-dwellings": "25", "start-date": "2018-04-01", "planning-permission-date": "2020-02-05", "ownership-status": "not owned by a public authority", "deliverable": "yes", "hectares": "0.21", "planning-permission-status": "permissioned", "slug": "/brownfield-land/local-authority-eng/WOK/BR213", "entry-date": "2020-08-08"}}