{"type": "Feature", "geometry": {"type": "Point", "coordinates": [0.6957, 51.540643]}, "properties": {"point": "POINT(0.6957 51.540643)", "planning-permission-status": "permissioned", "start-date": "2017-03-31", "ownership-status": "not owned by a public authority", "organisation": "local-authority-eng:SOS", "site-address": "152 (First And Second Floor) Hamlet Court Road, Westcliff-on-Sea, Essex, SS0 7LJ", "name": "BR13", "minimum-net-dwellings": "6", "hectares": "0.051", "planning-permission-type": "full planning permission", "maximum-net-dwellings": "6", "site": "BR13", "site-plan-url": "http://www.southend.gov.uk/downloads/200160/local_planning_framework", "deliverable": "yes", "planning-permission-date": "2016-12-14", "notes": "2 x 1 Bed Houses and 4 x 1 Bed Houses", "slug": "/brownfield-land/local-authority-eng/SOS/BR13", "entry-date": "2017-03-31"}}