{"type": "Feature", "geometry": {"type": "Point", "coordinates": [-1.774542, 53.832964]}, "properties": {"resource": "392f3e0ee0fa2c8b209c8197d34069a06e7c7dbdeadcdaecd4eb2a0d3625f63a", "site-address": "Halifax Road, Cullingworth", "deliverable": "yes", "end-date": "", "entry-date": "2017-11-01", "hazardous-substances": "", "hectares": "1.86", "maximum-net-dwellings": "0", "minimum-net-dwellings": "0", "notes": "Cleared site with outline permission for a residential development of up to 53 dwellings including associated open space and infrastructure", "organisation": "local-authority-eng:BRD", "ownership-status": "not owned by a public authority", "planning-permission-date": "2017-03-29", "planning-permission-history": "https://planning.bradford.gov.uk/online-applications/applicationDetails.do?keyVal=7907520REN&activeTab=summary|https://planning.bradford.gov.uk/online-applications/applicationDetails.do?keyVal=8706551COU&activeTab=summary|https://planning.bradford.gov.uk/online-applications/applicationDetails.do?keyVal=8805671OUT&activeTab=summary|https://planning.bradford.gov.uk/online-applications/applicationDetails.do?keyVal=9401130FUL&activeTab=summary|https://planning.bradford.gov.uk/online-applications/applicationDetails.do?keyVal=9800569FUL&activeTab=summary|https://planning.bradford.gov.uk/online-applications/applicationDetails.do?keyVal=LI3FMEDH0GF00&activeTab=summary|https://planning.bradford.gov.uk/online-applications/applicationDetails.do?keyVal=IO4XNODHU8000&activeTab=summary|https://planning.bradford.gov.uk/online-applications/applicationDetails.do?keyVal=7604355FUL&activeTab=summary|https://planning.bradford.gov.uk/online-applications/applicationDetails.do?keyVal=7805377FUL&activeTab=summary|https://planning.bradford.gov.uk/online-applications/applicationDetails.do?keyVal=8903839FUL&activeTab=summary|https://planning.bradford.gov.uk/online-applications/applicationDetails.do?keyVal=9201103FUL&activeTab=summary|https://planning.bradford.gov.uk/online-applications/applicationDetails.do?keyVal=8701151EXT&activeTab=summary|https://planning.bradford.gov.uk/online-applications/applicationDetails.do?keyVal=8808767FUL&activeTab=summary|https://planning.bradford.gov.uk/online-applications/applicationDetails.do?keyVal=9401324ADV&activeTab=summary|https://planning.bradford.gov.uk/online-applications/applicationDetails.do?keyVal=9303615FUL&activeTab=summary|https://planning.bradford.gov.uk/online-applications/applicationDetails.do?keyVal=MEYMALDHC1000&activeTab=summary|https://planning.bradford.gov.uk/online-applications/applicationDetails.do?keyVal=8207050FUL&activeTab=summary|https://planning.bradford.gov.uk/online-applications/applicationDetails.do?keyVal=N9XZCXDHLT000&activeTab=summary|https://planning.bradford.gov.uk/online-applications/applicationDetails.do?keyVal=9402636ADV&activeTab=summary|https://planning.bradford.gov.uk/online-applications/applicationDetails.do?keyVal=8908235FUL&activeTab=summary|https://planning.bradford.gov.uk/online-applications/applicationDetails.do?keyVal=8906597COU&activeTab=summary|https://planning.bradford.gov.uk/online-applications/applicationDetails.do?keyVal=7901033FUL&activeTab=summary|https://planning.bradford.gov.uk/online-applications/applicationDetails.do?keyVal=9402293ADV&activeTab=summary|https://planning.bradford.gov.uk/online-applications/applicationDetails.do?keyVal=JPYMYSDH8O000&activeTab=summary", "planning-permission-status": "permissioned", "planning-permission-type": "outline planning permission", "point": "POINT(-1.774542 53.832964)", "site": "CU/001", "site-plan-url": "http://cbmdc.maps.arcgis.com/apps/webappviewer/index.html?id=2134938ccf5843649ef0e555c0926dae&extent=414897.6,437403.615,414963.45,437480.4,27700", "start-date": "2017-11-01", "id": "local-authority-eng/BRD/CU-001"}}