{"type": "Feature", "geometry": {"type": "Point", "coordinates": [-0.834669, 52.259466]}, "properties": {"notes": "Planning permission to extend the original Outline (109) was granted on 08.10.2014 with RM to be submitted within years. N/2017/1097 erection of 83no dwellings approved 29/3/18. Under construction as of 1/4/2019", "name": "BFR1001", "site-plan-url": "https://www.northampton.gov.uk/download/downloads/id/10080/bfr1001", "deliverable": "yes", "start-date": "2016-06-29", "hectares": "2.24", "maximum-net-dwellings": "83", "minimum-net-dwellings": "83", "ownership-status": "not owned by a public authority", "site-address": "Former Emmanuel Middle School", "organisation": "local-authority-eng:NOR", "point": "POINT(-0.834669 52.259466)", "site": "BFR1001", "planning-permission-status": "permissioned", "slug": "/brownfield-land/local-authority-eng/NOR/BFR1001", "entry-date": "2019-12-18", "planning-permission-type": "full planning permission", "planning-permission-date": "2018-03-29"}}