{"type": "Feature", "geometry": {"type": "Point", "coordinates": [-1.763471, 53.793795]}, "properties": {"resource": "45943bab01aef31a1c8c60cb8eb9a9385275b491a3dc6d4f2d0572902c54d0e9", "site-address": "Beehive Mills, Thornton Road, City Centre", "deliverable": "", "end-date": "", "entry-date": "2018-11-01", "hazardous-substances": "", "hectares": "1.05", "maximum-net-dwellings": "220", "minimum-net-dwellings": "220", "notes": "Cleared site which had permission for mixed use development but this has expired. Owner intentions at present are unknown but the site is identified in the city centre AAP as having potential for around 220 units. AAP ref V/1.6", "organisation": "local-authority-eng:BRD", "ownership-status": "mixed ownership", "planning-permission-date": "", "planning-permission-history": "https://planning.bradford.gov.uk/online-applications/applicationDetails.do?keyVal=7606437FUL&activeTab=summary|https://planning.bradford.gov.uk/online-applications/applicationDetails.do?keyVal=L5YRPCDH0I700&activeTab=summary|https://planning.bradford.gov", "planning-permission-status": "not permissioned", "planning-permission-type": "", "point": "POINT(-1.763471 53.793795)", "site": "CC/007", "site-plan-url": "http://cbmdc.maps.arcgis.com/apps/webappviewer/index.html?id=2134938ccf5843649ef0e555c0926dae&extent=415602.75,433012.7,415758.0,433139.0499,27700", "start-date": "2017-11-01", "id": "CC-007"}}