{"type": "Feature", "geometry": {"type": "Point", "coordinates": [-0.013809, 51.461172]}, "properties": {"ownership-status": "not owned by a public authority", "deliverable": "yes", "site-address": "Riverdale House, 68 Molesworth Street", "organisation": "local-authority-eng:LEW", "site": "LC007", "end-date": "2018-10-22", "name": "LC007", "minimum-net-dwellings": "25", "hectares": "0.62", "planning-permission-type": "full planning permission", "notes": "15/091069 for residential development including 14 x one bedroom, 7 x two bedroom dwellings and 4 x three bedroom dwellings", "planning-permission-status": "permissioned", "start-date": "2017-11-30", "maximum-net-dwellings": "25", "planning-permission-date": "2015-11-19", "point": "POINT(-0.013809 51.461172)", "slug": "/brownfield-land/local-authority-eng/LEW/LC007", "entity": 486060, "entry-date": "2017-11-30"}}