{"type": "Feature", "geometry": {"type": "Point", "coordinates": [-1.218063, 52.776109]}, "properties": {"resource": "57d187fb0565b0c776f0436fbd774acc92bca85c17dc6169a3164bc498221b52", "site-address": "Cumberland Industrial Estate Loughborough", "deliverable": "", "end-date": "", "entry-date": "2019-12-19", "hazardous-substances": "", "hectares": "1.64", "maximum-net-dwellings": "35", "minimum-net-dwellings": "35", "notes": "", "organisation": "local-authority-eng:CHA", "ownership-status": "not owned by a public authority", "planning-permission-date": "", "planning-permission-history": "", "planning-permission-status": "not permissioned", "planning-permission-type": "", "point": "POINT(-1.218063 52.776109)", "site": "SH49", "site-plan-url": "https://www.charnwood.gov.uk/pages/strategic_housing_and_employment_land_availability_assessments_2014", "start-date": "2017-11-17", "id": "57d187fb0565b0c776f0436fbd774acc92bca85c17dc6169a3164bc498221b52:62637"}}