{"type": "Feature", "geometry": {"type": "Point", "coordinates": [-0.14086, 51.342745]}, "properties": {"site-plan-url": "https://publicaccess3.croydon.gov.uk/online-applications/applicationDetails.do?keyVal=OZVL9EJL0BK00&activeTab=summary", "organisation": "local-authority-eng:CRY", "planning-permission-type": "full planning permission", "maximum-net-dwellings": "8", "point": "POINT(-0.14086 51.342745)", "start-date": "2018-11-30", "ownership-status": "not owned by a public authority", "site-address": "21a Green Lane", "site": "17/05863/FUL", "end-date": "2020-12-23", "hectares": "0.103", "planning-permission-history": "https://publicaccess3.croydon.gov.uk/online-applications/applicationDetails.do?keyVal=OZVL9EJL0BK00&activeTab=summary", "deliverable": "yes", "planning-permission-date": "2018-02-09", "planning-permission-status": "permissioned", "name": "17/05863/FUL", "minimum-net-dwellings": "8", "slug": "/brownfield-land/local-authority-eng/CRY/17-05863-FUL", "entity": 480819, "entry-date": "2019-12-23", "notes": "Demolition of existing building: erection of two storey building with accommodation in roofspace comprising 6 two bedroom, 1 three bedroom and 1 one bedroom flats : formation of vehicular access and provision of associated parking, refuse store and bike store. https://publicaccess3.croydon.gov.uk/online-applications/applicationDetails.do?keyVal=OZVL9EJL0BK00&activeTab=summary"}}