{"type": "Feature", "geometry": {"type": "Point", "coordinates": [-1.771218, 53.802904]}, "properties": {"resource": "45943bab01aef31a1c8c60cb8eb9a9385275b491a3dc6d4f2d0572902c54d0e9", "site-address": "Newport Road, Manningham", "deliverable": "yes", "end-date": "", "entry-date": "2018-11-01", "hazardous-substances": "", "hectares": "0.09", "maximum-net-dwellings": "0", "minimum-net-dwellings": "0", "notes": "Site with planning permission for 9 units", "organisation": "local-authority-eng:BRD", "ownership-status": "not owned by a public authority", "planning-permission-date": "2016-05-25", "planning-permission-history": "https://planning.bradford.gov.uk/online-applications/applicationDetails.do?keyVal=9403636COU&activeTab=summary|https://planning.bradford.gov.uk/online-applications/applicationDetails.do?keyVal=N61B11DH00F00&activeTab=summary|https://planning.bradford.gov", "planning-permission-status": "permissioned", "planning-permission-type": "full planning permission", "point": "POINT(-1.771218 53.802904)", "site": "NW/013B", "site-plan-url": "http://cbmdc.maps.arcgis.com/apps/webappviewer/index.html?id=2134938ccf5843649ef0e555c0926dae&extent=415138.6293,434071.54,415192.0,434111.0,27700", "start-date": "2017-11-01", "id": "NW-013B"}}