{"type": "Feature", "geometry": {"type": "Point", "coordinates": [-0.024978, 53.556063]}, "properties": {"resource": "5468cd3bd8482633be5a3dd547b51124836fd11ff1986766fc9e503bff653e9e", "site-address": "7 Barkhouse Lane, Cleethorpes", "deliverable": "yes", "end-date": "", "entry-date": "2017-10-18", "hazardous-substances": "", "hectares": "0.81", "maximum-net-dwellings": "8", "minimum-net-dwellings": "8", "notes": "Under construction (Planning application reference DM/0653/16/FUL).", "organisation": "local-authority-eng:NEL", "ownership-status": "not owned by a public authority", "planning-permission-date": "2017-01-27", "planning-permission-history": "http://planninganddevelopment.nelincs.gov.uk/online-applications/applicationDetails.do?activeTab=summary&keyVal=O9XV1ILJ02A00", "planning-permission-status": "permissioned", "planning-permission-type": "full planning permission", "point": "POINT(-0.024978 53.556063)", "site": "BS0028", "site-plan-url": "", "start-date": "2017-10-18", "id": "BS0028"}}