{"type": "Feature", "geometry": {"type": "Point", "coordinates": [-2.070022, 52.568717]}, "properties": {"resource": "d1ea336f6fd8dd1e8e9cfd16517a7bcd55ddcf8f06dd67839b3c95d15b40cd16", "site-address": "Land at 131 - 133 Ashley Street", "deliverable": "", "end-date": "", "entry-date": "2006-01-01", "hazardous-substances": "", "hectares": "0.0214795", "maximum-net-dwellings": "", "minimum-net-dwellings": "", "notes": "", "organisation": "local-authority-eng:WLV", "ownership-status": "", "planning-permission-date": "", "planning-permission-history": "", "planning-permission-status": "Completed During 2017/18", "planning-permission-type": "", "point": "POINT(-2.070022 52.568717)", "site": "31200", "site-plan-url": "", "start-date": "2006-01-01", "slug": "local-authority-eng/WLV/31200"}}