{"type": "Feature", "geometry": {"type": "Point", "coordinates": [0.557962, 50.892197]}, "properties": {"resource": "89732ebd34c83b45da34ab219524890ca6e156d6b41af40693c0c38735dfb7d1", "site-address": "14 Westfield Lane, St Leonards", "deliverable": "yes", "end-date": "", "entry-date": "2018-12-17", "hazardous-substances": "", "hectares": "0.33", "maximum-net-dwellings": "14", "minimum-net-dwellings": "14", "notes": "", "organisation": "local-authority-eng:HAS", "ownership-status": "owned by a public authority", "planning-permission-date": "", "planning-permission-history": "", "planning-permission-status": "not permissioned", "planning-permission-type": "", "point": "POINT(0.557962 50.892197)", "site": "BL22", "site-plan-url": "https://www.hastings.gov.uk/content/planning/planning_policy/pdfs/BL22.pdf", "start-date": "2017-12-15", "id": "89732ebd34c83b45da34ab219524890ca6e156d6b41af40693c0c38735dfb7d1:28139"}}