{"type": "Feature", "geometry": {"type": "Point", "coordinates": [-2.068925, 54.968512]}, "properties": {"resource": "861b110ca9fb6ce201b997d8c904056946a15f6e596400415558060fc0a7699a", "site-address": "Farmways Site, Corbridge Road, Hexham", "deliverable": "", "end-date": "", "entry-date": "2019-12-17", "hazardous-substances": "", "hectares": "0.98", "maximum-net-dwellings": "20", "minimum-net-dwellings": "18", "notes": "Largely occupied by as premises for an agricultural business with some further land behind. Located at the edge of the settlement but offers an opportunity for development, with potential to complement surrounding development as land to both the east and west benefits from planning permission for residential. However the site is occupied and not immediately available. Relocation of the existing business would be necessary and, as there is no indication of any timescales for this process, the land is likely to represent a longer-term opportunity.", "organisation": "local-authority-eng:NBL", "ownership-status": "not owned by a public authority", "planning-permission-date": "", "planning-permission-history": "", "planning-permission-status": "not permissioned", "planning-permission-type": "", "point": "POINT(-2.068925 54.968512)", "site": "2076", "site-plan-url": "http://northumberland.maps.arcgis.com/apps/webappviewer/index.html?id=c1b801d50f8040efbf8c9bc9f916cfae", "start-date": "2016-06-30", "id": "861b110ca9fb6ce201b997d8c904056946a15f6e596400415558060fc0a7699a:35973"}}