{"type": "Feature", "geometry": {"type": "Point", "coordinates": [0.181036, 51.407338]}, "properties": {"resource": "c84876116a22210cb82eb5144dea2f94913745a11a6bd0a06e6f4ecbc15f643f", "site-address": "Egerton Nursery, Egerton Avenue, Hextable", "deliverable": "yes", "end-date": "", "entry-date": "2019-12-18", "hazardous-substances": "", "hectares": "0.52", "maximum-net-dwellings": "30", "minimum-net-dwellings": "30", "notes": "Emerging Local Plan Ref ST2-59 - Careful design and layout to minimise impact on the openness of the Green Belt in this important strategic gap. Access to be improved", "organisation": "local-authority-eng:SEV", "ownership-status": "not owned by a public authority", "planning-permission-date": "", "planning-permission-history": "", "planning-permission-status": "not permissioned", "planning-permission-type": "", "point": "POINT(0.181036 51.407338)", "site": "BFR63", "site-plan-url": "https://maps.sevenoaks.gov.uk/brownfield_register/", "start-date": "2017-11-01", "id": "c84876116a22210cb82eb5144dea2f94913745a11a6bd0a06e6f4ecbc15f643f:34205"}}