{"type": "Feature", "geometry": {"type": "Point", "coordinates": [-1.902754, 52.484765]}, "properties": {"hectares": "0.07", "maximum-net-dwellings": "19", "planning-permission-status": "permissioned", "planning-permission-type": "Other", "site-plan-url": "https://maps.birmingham.gov.uk/webapps/shlaa/", "notes": "2017/02371/PA", "minimum-net-dwellings": "19", "site": "C436", "site-address": "18-19 Linoel Street, Soho & Jewellery Quarter", "name": "C436", "organisation": "local-authority-eng:BIR", "planning-permission-date": "2017-06-19", "start-date": "2018-09-21", "point": "POINT(-1.902754 52.484765)", "deliverable": "yes", "slug": "/brownfield-land/local-authority-eng/BIR/C436", "entity": 500573, "entry-date": "2019-12-31"}}