{"type": "Feature", "geometry": {"type": "Point", "coordinates": [-4.228276, 51.03782]}, "properties": {"site-plan-url": "http://www.torridge.gov.uk/CHttpHandler.ashx?id=18227", "start-date": "2017-12-22", "planning-permission-date": "2015-10-02", "planning-permission-status": "not permissioned", "maximum-net-dwellings": "3", "planning-permission-type": "full planning permission", "notes": "Residential potential of site considered through SHLAA SHA/NOR/115. Site historically subject to planning permission (1/0702/2015/FUL) for three dwellings; now lapsed.", "hectares": "0.28", "planning-permission-history": "http://publicaccess.torridge.gov.uk/online-applications/applicationDetails.do?activeTab=summary&keyVal=NR7TIVQK06T00", "organisation": "local-authority-eng:TOR", "site-address": "Buckleigh Service Reservoir, Bay View Road, Bideford", "name": "BLR/NOR/115", "ownership-status": "owned by a public authority", "deliverable": "yes", "site": "BLR/NOR/115", "point": "POINT(-4.228276 51.03782)", "minimum-net-dwellings": "3", "slug": "/brownfield-land/local-authority-eng/TOR/BLR-NOR-115", "entry-date": "2020-12-18"}}