{"type": "Feature", "geometry": {"type": "Point", "coordinates": [-2.427055, 52.710194]}, "properties": {"resource": "b7f22f993ec96cb6f3ddc4d15df6f7840d040bb8605fbf4d329ea12a9acaf8cd", "site-address": "Granville, Donnington Employment Site", "deliverable": "", "end-date": "", "entry-date": "2016-12-01", "hazardous-substances": "", "hectares": "6.45", "maximum-net-dwellings": "406", "minimum-net-dwellings": "406", "notes": "Part of the site is a Local development Order proposed by the Council. 4.9ha is the proposed residential area for the LDO. Part of the site is a Local development Order proposed by the Council. 4.9ha is the proposed residential area for the LDO", "organisation": "local-authority-eng:TFW", "ownership-status": "owned by a public authority", "planning-permission-date": "", "planning-permission-history": "", "planning-permission-status": "Not permissioned", "planning-permission-type": "", "point": "POINT(-2.427055 52.710194)", "site": "BR14", "site-plan-url": "http://www.telford.gov.uk/downloads/file/6583/br14_-_granville_donnington_employment_site", "start-date": "2016-12-01", "id": "b7f22f993ec96cb6f3ddc4d15df6f7840d040bb8605fbf4d329ea12a9acaf8cd:49689"}}