{"type": "Feature", "geometry": {"type": "Point", "coordinates": [-0.6939, 51.3616]}, "properties": {"resource": "82f630980e6dea13040c8bc2d88ba17f88ecfe7278ad25eabb51a88c33c6fb2d", "site-address": "Knightway House, Park Street, GU19 5AQ", "deliverable": "yes", "end-date": "", "entry-date": "2018-12-18", "hazardous-substances": "", "hectares": "0.88", "maximum-net-dwellings": "13", "minimum-net-dwellings": "13", "notes": "http://isharemaps.surreyheath.gov.uk/ishare54/custom/planning/?requesttype=parseTemplate&template=DevelopmentControlApplication.tmplt&Filter=^SYSTEMKEY^=%2735739%27&backurl=custom/planning?", "organisation": "local-authority-eng:SUR", "ownership-status": "not owned by a public authority", "planning-permission-date": "2017-01-10", "planning-permission-history": "", "planning-permission-status": "permissioned", "planning-permission-type": "", "point": "POINT(-0.6939 51.3616)", "site": "SHBR90", "site-plan-url": "http://isharemaps.surreyheath.gov.uk/ishare54/custom/planning/?requesttype=parseTemplate&template=DevelopmentControlApplication.tmplt&Filter=^SYSTEMKEY^=%2735739%27&backurl=custom/planning?", "start-date": "2018-12-18", "id": "SHBR90"}}