{"type": "Feature", "geometry": {"type": "Point", "coordinates": [-0.042, 51.47629]}, "properties": {"resource": "4f17f637b33516e34ce60864d5053c32d7913d59aeb15117775c84cc4fc3b24f", "site-address": "Hatcham Works, New Cross Gate Retail Park/ Sainsbury, New Cross Road", "deliverable": "", "end-date": "", "entry-date": "2018-10-22", "hazardous-substances": "", "hectares": "3.67", "maximum-net-dwellings": "799", "minimum-net-dwellings": "799", "notes": "Site Allocation SA6 for mixed use development including 200 residential units", "organisation": "local-authority-eng:LEW", "ownership-status": "mixed ownership", "planning-permission-date": "", "planning-permission-history": "", "planning-permission-status": "not permissioned", "planning-permission-type": "", "point": "POINT(-0.042 51.47629)", "site": "NX009", "site-plan-url": "http://www.lewisham.gov.uk/brownfieldregister", "start-date": "2017-11-30", "id": "4f17f637b33516e34ce60864d5053c32d7913d59aeb15117775c84cc4fc3b24f:17584"}}