{"type": "Feature", "geometry": {"type": "Point", "coordinates": [-0.915797, 51.53542]}, "properties": {"hectares": "11.33", "planning-permission-history": "http://maps.southoxon.gov.uk/gis/?cat=HELAA&ref=949", "ownership-status": "not owned by a public authority", "site": "SHELAA: 949", "organisation": "local-authority-eng:SOX", "planning-permission-status": "not permissioned", "minimum-net-dwellings": "0", "deliverable": "yes", "point": "POINT(-0.915797 51.53542)", "site-address": "Henley College, Henley-on-Thames", "maximum-net-dwellings": "184", "notes": "Partially Brownfield site. Forms part of a larger site overall. Mininum number of net dwellings is based on the capacity calculated in the SHELAA.. http://maps.southoxon.gov.uk/gis/?cat=HELAA&ref=949", "name": "SHELAA: 949", "site-plan-url": "http://www.southoxon.gov.uk/sites/default/files/949_Henley%20College.pdf", "start-date": "2017-12-22", "slug": "/brownfield-land/local-authority-eng/SOX/-949", "entry-date": "2017-12-22"}}