{"type": "Feature", "geometry": {"type": "Point", "coordinates": [-0.081688, 51.487383]}, "properties": {"point": "POINT(-0.081688 51.487383)", "organisation": "local-authority-eng:SWK", "notes": "Erection of fourth floor roof extension to provide two bed, three person unit; installation of roof terrace at fourth_x000D_ floor", "site-address": "109,Kinglake Street,,SE17 2RD", "planning-permission-date": "2019-05-31", "maximum-net-dwellings": "1", "site": "18-AP-1798", "name": "18-AP-1798", "hectares": "0.019", "minimum-net-dwellings": "1", "start-date": "2020-03-24", "slug": "/brownfield-land/local-authority-eng/SWK/18-AP-1798", "entry-date": "2020-03-24"}}