{"type": "Feature", "geometry": {"type": "Point", "coordinates": [-1.988559, 53.724658]}, "properties": {"organisation": "local-authority-eng:CLD", "minimum-net-dwellings": "21", "ownership-status": "not owned by a public authority", "site-address": "Cal Val Works, Hoo Hole, Cragg Road, Mytholmroyd, Hebden Bridge.", "hectares": "0.73", "maximum-net-dwellings": "21", "site-plan-url": "https://maps.calderdale.gov.uk/map/Aurora.svc/run?script=%5CAurora%5CScripts%5CBrownfield%20Land%20Register%202020.AuroraScript%24&nocache=b3a8172e-c974-a20b-e60c-877a0098b807&resize=always&inspect_query=BLR2020&inspect_value=BLR130", "point": "POINT(-1.988559 53.724658)", "planning-permission-history": "https://portal.calderdale.gov.uk/online-applications/search.do?action=advanced", "start-date": "2020-05-31", "name": "BLR130", "notes": "20/00105/FUL - Demolition of existing works building and construction of 21 residential dwellings (Revised Scheme to 14/00918) (Additional Plans)", "site": "BLR130", "planning-permission-status": "pending decision", "slug": "/brownfield-land/local-authority-eng/CLD/BLR130", "entity": 480017, "entry-date": "2020-05-31", "planning-permission-date": "2018-07-27"}}