{"type": "Feature", "geometry": {"type": "Point", "coordinates": [-0.066598, 51.547853]}, "properties": {"resource": "64f7e6abdcf67614d513571e3acf6b4a3d011e8f61ee98ca4d0f9f5c76b0ab52", "site-address": "154 Dalston Lane", "deliverable": "", "end-date": "", "entry-date": "2017-12-31", "hazardous-substances": "", "hectares": "0.04", "maximum-net-dwellings": "7", "minimum-net-dwellings": "7", "notes": "", "organisation": "local-authority-eng:HCK", "ownership-status": "", "planning-permission-date": "2015-01-20", "planning-permission-history": "", "planning-permission-status": "permissioned", "planning-permission-type": "full planning permission", "point": "POINT(-0.066598 51.547853)", "site": "2014/0610", "site-plan-url": "https://map.hackney.gov.uk/LBHackneymap/?zoom=14&lon=534157&lat=184989", "start-date": "2017-12-31", "slug": "local-authority-eng/HCK/2014-0610"}}