{"type": "Feature", "geometry": {"type": "Point", "coordinates": [-1.928394, 52.672655]}, "properties": {"resource": "30f6d520678eea3f004091763bce629792a5851d6317061ce8c57c148c9c09eb", "site-address": "82 Queen Street, Chasetown, Burntwood", "deliverable": "yes", "end-date": "", "entry-date": "2019-11-18", "hazardous-substances": "", "hectares": "0.24", "maximum-net-dwellings": "14", "minimum-net-dwellings": "14", "notes": "Allocated in adopted local plan. Former care sales garage which has been demolished.", "organisation": "local-authority-eng:LIF", "ownership-status": "not owned by a public authority", "planning-permission-date": "2016-12-20", "planning-permission-history": "", "planning-permission-status": "permissioned", "planning-permission-type": "full planning permission", "point": "POINT(-1.928394 52.672655)", "site": "LDC-BLR-21", "site-plan-url": "http://lichfielddc.maps.arcgis.com/home/webmap/viewer.html?webmap=f95b5e5ecb4d4a938a89f64a5344eaef", "start-date": "2017-07-17", "id": "30f6d520678eea3f004091763bce629792a5851d6317061ce8c57c148c9c09eb:10231"}}