{"type": "Feature", "geometry": {"type": "Point", "coordinates": [-0.700812, 51.6054]}, "properties": {"minimum-net-dwellings": "27", "ownership-status": "not owned by a public authority", "hectares": "0.25", "site-address": "Attobus Treadaway Hill Loudwater Buckinghamshire HP10 9QL", "planning-permission-date": "2017-11-24", "notes": "17/07721/PNP3O", "planning-permission-status": "permissioned", "planning-permission-type": "full planning permission", "point": "POINT(-0.700812 51.6054)", "site": "HTYLER153", "name": "HTYLER153", "maximum-net-dwellings": "27", "site-plan-url": "https://mywycombe.wycombe.gov.uk/mywycombe.aspx?MapSource=Wycombe/AllMaps&StartEasting=490068.975&StartNorthing=190418.685&StartZoom=300&o=1&Layers=brownfield&ZoomPin=1", "deliverable": "yes", "start-date": "2017-12-14", "organisation": "local-authority-eng:WYO", "slug": "/brownfield-land/local-authority-eng/WYO/HTYLER153", "entity": 500149, "entry-date": "2019-10-21"}}