{"type": "Feature", "geometry": {"type": "Point", "coordinates": [-0.076571, 51.455978]}, "properties": {"hectares": "0.024", "planning-permission-date": "2017-08-09", "start-date": "2020-03-24", "site-address": "128-130,Lordship Lane,,SE22 8HD", "organisation": "local-authority-eng:SWK", "point": "POINT(-0.076571 51.455978)", "maximum-net-dwellings": "5", "name": "17-AP-2335", "minimum-net-dwellings": "5", "site": "17-AP-2335", "notes": "Creation of 5 residential units facilitated by partial change of use from A1_x000D_ (retail) to C3 (residential) at ground floor level, together with single storey_x000D_ ground floor side extension and two storey ground floor rear extension.", "slug": "/brownfield-land/local-authority-eng/SWK/17-AP-2335", "entry-date": "2020-03-24"}}