{"type": "Feature", "geometry": {"type": "Point", "coordinates": [-0.182954, 51.491927]}, "properties": {"resource": "bd4eda70f6275cd8eeac8da0480990fe4b4d546ed2a1baa9d2ddbb7db91b9b1f", "site-address": "31 Rosary Gardens SW7 4NH", "deliverable": "yes", "end-date": "", "entry-date": "2017-12-31", "hazardous-substances": "", "hectares": "0.011", "maximum-net-dwellings": "7", "minimum-net-dwellings": "7", "notes": "", "organisation": "local-authority-eng:KEC", "ownership-status": "not owned by a public authority", "planning-permission-date": "2016-06-09", "planning-permission-history": "https://www.rbkc.gov.uk/PP/16/02218", "planning-permission-status": "permissioned", "planning-permission-type": "full planning permission", "point": "POINT(-0.182954 51.491927)", "site": "RBKC028", "site-plan-url": "https://lbhf.maps.arcgis.com/apps/webappviewer/index.html?id=931fa3b3294b4147a518648579b12d4a", "start-date": "2017-12-31", "id": "bd4eda70f6275cd8eeac8da0480990fe4b4d546ed2a1baa9d2ddbb7db91b9b1f:50396"}}