{"type": "Feature", "geometry": {"type": "Point", "coordinates": [-0.443777, 51.432421]}, "properties": {"hectares": "1.3", "point": "POINT(-0.443777 51.432421)", "name": "BL03", "start-date": "2017-09-01", "site": "BL03", "deliverable": "yes", "ownership-status": "not owned by a public authority", "site-address": "158-166 Feltham Road", "organisation": "local-authority-eng:SPE", "planning-permission-status": "Not permissioned", "minimum-net-dwellings": "60", "notes": "Allocation within the current development plan", "maximum-net-dwellings": "60", "slug": "/brownfield-land/local-authority-eng/SPE/BL03", "entity": 501188, "entry-date": "2017-12-22"}}