{"type": "Feature", "geometry": {"type": "Point", "coordinates": [-1.147759, 52.952535]}, "properties": {"resource": "5e023f1fb422b9dcd69360f952f39947c34bf4ef49c4a0126c7cd31d93731f7d", "site-address": "1 to 2 St Peters Church Walk", "deliverable": "", "end-date": "", "entry-date": "2017-12-14", "hazardous-substances": "", "hectares": "0.04", "maximum-net-dwellings": "11", "minimum-net-dwellings": "11", "notes": "", "organisation": "local-authority-eng:NGM", "ownership-status": "", "planning-permission-date": "2012-04-03", "planning-permission-history": "http://publicaccess.nottinghamcity.gov.uk/online-applications/applicationDetails.do?activeTab=summary&keyVal=LPCBGULYCB000", "planning-permission-status": "permissioned", "planning-permission-type": "full planning permission", "point": "POINT(-1.147759 52.952535)", "site": "'1865", "site-plan-url": "http://maps.nottinghamcity.gov.uk/insightmapping/?l=0.21,9.63&xmin=457340.4000000004&xmax=457357.2999999998&ymin=339774.4000000004&ymax=339803.44999999925", "start-date": "2017-12-14", "id": "1865"}}