{"type": "Feature", "geometry": {"type": "Point", "coordinates": [-0.129328, 51.51669]}, "properties": {"resource": "86dee119f806d0c7f62295e6aae502851827e848202c4e43e833126ed62773db", "site-address": "112-116 New Oxford Street London WC1A 1HH", "deliverable": "yes", "end-date": "", "entry-date": "2018-10-12", "hazardous-substances": "", "hectares": "0.02", "maximum-net-dwellings": "6", "minimum-net-dwellings": "6", "notes": "Erection of roof extension, alterations to windows on rear facade and change of use of second to sixth floors from offices (Class B1) to provide 6 self-contained flats (1 x 1 bedroom, 3 x 2 bedroom an", "organisation": "local-authority-eng:CMD", "ownership-status": "", "planning-permission-date": "2014-02-04", "planning-permission-history": "http://planningrecords.camden.gov.uk/Northgate/PlanningExplorer17/Generic/StdResults.aspx?PT=Planning%20Applications%20On-Line&SC=Application%20Number%20is%202013/0121/P%20and%20Date%20Validated%20is%", "planning-permission-status": "permissioned", "planning-permission-type": "full planning permission", "point": "POINT(-0.129328 51.51669)", "site": "LBCBLR027", "site-plan-url": "https://opendata.camden.gov.uk/Environment/Camden-Brownfield-Register-Polygons/wi65-z696/data", "start-date": "2018-10-12", "id": "86dee119f806d0c7f62295e6aae502851827e848202c4e43e833126ed62773db:23891"}}