{"type": "Feature", "geometry": {"type": "Point", "coordinates": [-1.5462, 54.9745]}, "properties": {"point": "POINT(-1.5462 54.9745)", "site-address": "Land on Berry Close Church Walk Walker", "hectares": "0.64", "planning-permission-status": "not Permissioned", "maximum-net-dwellings": "9", "site-plan-url": "https://www.newcastle.gov.uk/sites/default/files/planning/policy/Brownfield%20Register%20Map%202019.pdf", "site": "6129", "ownership-status": "owned by a public authority", "organisation": "local-authority-eng:NET", "start-date": "2019-12-23", "minimum-net-dwellings": "9", "name": "6129", "slug": "/brownfield-land/local-authority-eng/NET/6129", "entry-date": "2019-12-23"}}