{"type": "Feature", "geometry": {"type": "Point", "coordinates": [-1.291929, 52.772553]}, "properties": {"planning-permission-date": "2017-03-02", "site-address": "28 Britannia Street Shepshed", "hectares": "0.1", "point": "POINT(-1.291929 52.772553)", "site-plan-url": "https://www.charnwood.gov.uk/pages/strategic_housing_and_employment_land_availability_assessments_2014", "organisation": "local-authority-eng:CHA", "deliverable": "yes", "planning-permission-status": "permissioned", "planning-permission-type": "full planning permission", "planning-permission-history": "http://portal.charnwood.gov.uk/Northgate/PlanningExplorerAA/Home.aspx", "name": "PSH403", "maximum-net-dwellings": "10", "start-date": "2017-11-23", "ownership-status": "not owned by a public authority", "site": "PSH403", "minimum-net-dwellings": "10", "slug": "/brownfield-land/local-authority-eng/CHA/PSH403", "entry-date": "2019-12-19"}}