{"type": "Feature", "geometry": {"type": "Point", "coordinates": [-1.57061, 53.820252]}, "properties": {"site-address": "Mary Morris House, 24 Shire Oak Road, Headingley, Leeds, LS6 2DE", "ownership-status": "not owned by a public authority", "site-plan-url": "https://leedscc.maps.arcgis.com/apps/webappviewer/index.html?id=612532561dc547fa93e683a5fca73079&find=SHL01720", "start-date": "2017-12-19", "point": "POINT(-1.57061 53.820252)", "maximum-net-dwellings": "10", "notes": "Alterations and extensions to form additional 41 bedrooms to existing student accommodation, including partial cladding, car parking and associated cycle and bin stores", "planning-permission-status": "not permissioned", "organisation": "local-authority-eng:LDS", "minimum-net-dwellings": "10", "deliverable": "yes", "planning-permission-type": "full planning permission", "name": "SHL01720", "planning-permission-date": "2015-12-17", "site": "SHL01720", "hectares": "0.5", "slug": "/brownfield-land/local-authority-eng/LDS/SHL01720", "entry-date": "2017-12-19"}}