{"type": "Feature", "geometry": {"type": "Point", "coordinates": [-2.002625, 53.427113]}, "properties": {"maximum-net-dwellings": "22", "start-date": "2017-11-30", "hectares": "1.7", "site": "CS001", "site-plan-url": "https://www.highpeak.gov.uk/brownfield-land.csv", "minimum-net-dwellings": "22", "organisation": "local-authority-eng:HIG", "planning-permission-status": "not permissioned", "deliverable": "yes", "point": "POINT(-2.002625 53.427113)", "name": "CS001", "planning-permission-type": "outline planning permission", "site-address": "Holehouse Mill, Marple Road, Chisworth", "slug": "/brownfield-land/local-authority-eng/HIG/CS001", "entity": 483986, "entry-date": "2020-12-14", "notes": "Permission on the site has lapsed", "ownership-status": "not owned by a public authority"}}