{"type": "Feature", "geometry": {"type": "Point", "coordinates": [-2.04671, 52.46386]}, "properties": {"name": "DEVOPP0102", "hectares": "4.65", "maximum-net-dwellings": "65", "site-address": "Land off Lodgefield Road, Halesowen", "start-date": "2020-03-12", "organisation": "local-authority-eng:DUD", "planning-permission-history": "https://mapping.dudley.gov.uk/atMyDudley.aspx", "planning-permission-status": "not permissioned", "minimum-net-dwellings": "65", "point": "POINT(-2.04671 52.46386)", "ownership-status": "not owned by a public authority", "site-plan-url": "https://mapping.dudley.gov.uk/atMyDudley.aspx?MapSource=DMBC/AllMaps&SearchLayer=brownfield_register&SearchField=br_reference&SearchValue=DEVOPP0102", "site": "DEVOPP0102", "slug": "/brownfield-land/local-authority-eng/DUD/DEVOPP0102", "entry-date": "2020-03-12"}}