{"type": "Feature", "geometry": {"type": "Point", "coordinates": [-1.91387, 53.259795]}, "properties": {"minimum-net-dwellings": "5", "name": "HPK/2018/0385", "ownership-status": "not owned by a public authority", "hectares": "0.04", "planning-permission-date": "2019-05-14", "deliverable": "yes", "planning-permission-status": "permissioned", "maximum-net-dwellings": "5", "planning-permission-type": "full planning permission", "site-address": "5&6 The Quadrant, Buxton", "point": "POINT(-1.91387 53.259795)", "site-plan-url": "https://www.highpeak.gov.uk/brownfield-land.csv", "notes": "Former bank and student accommodation above.", "organisation": "local-authority-eng:HIG", "site": "HPK/2018/0385", "start-date": "2020-12-07", "slug": "/brownfield-land/local-authority-eng/HIG/HPK-2018-0385", "entry-date": "2020-12-14"}}