{"type": "Feature", "geometry": {"type": "Point", "coordinates": [-1.945954, 52.478709]}, "properties": {"site-plan-url": "https://maps.birmingham.gov.uk/webapps/shlaa/", "site": "N624", "planning-permission-type": "full planning permission", "point": "POINT(-1.945954 52.478709)", "notes": "2014/01128/PA", "hectares": "0.08", "maximum-net-dwellings": "1", "planning-permission-status": "permissioned", "minimum-net-dwellings": "1", "deliverable": "yes", "start-date": "2017-12-19", "organisation": "local-authority-eng:BIR", "site-address": "Rear of 159 to 161 Rotton Park Road, North Edgbaston", "name": "N624", "planning-permission-date": "2014-04-09", "slug": "/brownfield-land/local-authority-eng/BIR/N624", "entity": 476251, "entry-date": "2019-12-31"}}