{"type": "Feature", "geometry": {"type": "Point", "coordinates": [-3.005642, 51.130169]}, "properties": {"resource": "dc230135b24d4e1d175ba66c7e4f379bef82e832f7db19ebff8825b84ecfb516", "site-address": "Bridgwater Magistrates Court, The Court House, Northgate, Bridgwater, TA6 3EU", "deliverable": "yes", "end-date": "", "entry-date": "2018-11-27", "hazardous-substances": "", "hectares": "0.26", "maximum-net-dwellings": "10", "minimum-net-dwellings": "10", "notes": "Existing extant consent for 9 dwellings under reference 08/16/00140. A futher consent of 1 flat under reference 08/16/00194.. Conversion of former magistrates court to 10 apartments.", "organisation": "local-authority-eng:SEG", "ownership-status": "not owned by a public authority", "planning-permission-date": "2016-11-14", "planning-permission-history": "http://www.sedgemoor.gov.uk/Planning_Online/Details.aspx?App=08/16/00140", "planning-permission-status": "permissioned", "planning-permission-type": "full planning permission", "point": "POINT(-3.005642 51.130169)", "site": "H430b", "site-plan-url": "http://webmaps.sedgemoor.gov.uk/connect/analyst/mobile/#/main?mapcfg=brownfield_register&x=329727.33&y=137246.87&zoom=10", "start-date": "2017-11-27", "id": "dc230135b24d4e1d175ba66c7e4f379bef82e832f7db19ebff8825b84ecfb516:36071"}}