{"type": "Feature", "geometry": {"type": "Point", "coordinates": [-0.919623, 52.253649]}, "properties": {"resource": "d1106e190c91bf0a5c6e2b6d873b7519fa0f136f277b05d44afc5b5687acdb8d", "site-address": "Witham Way garage site", "deliverable": "yes", "end-date": "", "entry-date": "2017-12-13", "hazardous-substances": "", "hectares": "0.15", "maximum-net-dwellings": "6", "minimum-net-dwellings": "6", "notes": "N/2016/0704 - Prior notification of proposed demolition of garage blocks at Swale Drive, Derwent Drive, West Oval and Witham Way", "organisation": "local-authority-eng:NOR", "ownership-status": "owned by a public authority", "planning-permission-date": "", "planning-permission-history": "", "planning-permission-status": "not permissioned", "planning-permission-type": "", "point": "POINT(-0.919623 52.253649)", "site": "BFR1034", "site-plan-url": "https://www.northampton.gov.uk/downloads/file/10082/bfr1034", "start-date": "2017-12-13", "id": "d1106e190c91bf0a5c6e2b6d873b7519fa0f136f277b05d44afc5b5687acdb8d:5615"}}