{"type": "Feature", "geometry": {"type": "Point", "coordinates": [-1.865317, 50.738757]}, "properties": {"name": "B/BLR/0119", "start-date": "2019-12-20", "minimum-net-dwellings": "6", "planning-permission-history": "http://planning.bournemouth.gov.uk/RealTimeRegister/planappsrch.aspx", "planning-permission-status": "permissioned", "maximum-net-dwellings": "6", "planning-permission-type": "full planning permission", "hectares": "0.055999", "notes": "Demolition of existing buildings and erection of a 2/3 storey block of 5 flats and 1 dwellinghouse with bin and cycle stores, formation of new vehicular accesses and parking spaces", "organisation": "local-authority-eng:BPC", "point": "POINT(-1.865317 50.738757)", "site-plan-url": "https://www.bournemouth.gov.uk/planningbuilding/PlanningPolicy/PlanningPolicyFiles/brownfieldlandregister/blr-2019-site-plans-reduced.pdf", "site-address": "2a Fitzharris Avenue ", "planning-permission-date": "2019-03-29", "deliverable": "yes", "site": "B/BLR/0119", "ownership-status": "not owned by a public authority", "slug": "/brownfield-land/local-authority-eng/BPC/B-BLR-0119", "entry-date": "2019-12-20"}}