{"type": "Feature", "geometry": {"type": "Point", "coordinates": [-1.267177, 53.101335]}, "properties": {"minimum-net-dwellings": "6", "planning-permission-status": "permissioned", "site": "BFR27", "planning-permission-date": "2020-03-20", "site-address": "Land at, 18, Chapel Street, Kirkby-in-Ashfield, NG17 8JZ", "site-plan-url": "https://www.ashfield.gov.uk/planning-building-control/land-environment/brownfield-land-register/", "hectares": "0.2", "point": "POINT(-1.267177 53.101335)", "ownership-status": "not owned by a public authority", "planning-permission-type": "full planning permission", "deliverable": "yes", "notes": "Full Planning permission for 6 dwellings (V/2019/0729).", "name": "BFR27", "start-date": "2020-12-31", "maximum-net-dwellings": "6", "organisation": "local-authority-eng:ASH", "slug": "/brownfield-land/local-authority-eng/ASH/BFR27", "entity": null, "entry-date": "2020-12-31"}}