{"type": "Feature", "geometry": {"type": "Point", "coordinates": [-2.592348, 51.491506]}, "properties": {"resource": "71557048ba0c0f9cbc7e8c5defc1688542c938a1b91a2d0bb3c4c3290e6c812e", "site-address": "St. Peter\u00eds Elderly Persons\u00ed Home, Horfield", "deliverable": "yes", "end-date": "", "entry-date": "2019-12-19", "hazardous-substances": "", "hectares": "0.33", "maximum-net-dwellings": "30", "minimum-net-dwellings": "30", "notes": "Alternative site reference: 19/04101/FB", "organisation": "local-authority-eng:BST", "ownership-status": "owned by a public authority", "planning-permission-date": "", "planning-permission-history": "https://planningonline.bristol.gov.uk/online-applications/applicationDetails.do?activeTab=summary&keyVal=PWMOZBDNJNQ00", "planning-permission-status": "pending decision", "planning-permission-type": "full planning permission", "point": "POINT(-2.592348 51.491506)", "site": "BSA0410", "site-plan-url": "https://planningonline.bristol.gov.uk/online-applications/applicationDetails.do?activeTab=map&keyVal=PWMOZBDNJNQ00", "start-date": "2017-12-19", "id": "71557048ba0c0f9cbc7e8c5defc1688542c938a1b91a2d0bb3c4c3290e6c812e:30931"}}