{"type": "Feature", "geometry": {"type": "Point", "coordinates": [-2.133542, 52.977449]}, "properties": {"resource": "652e2cd8d2bcd59541c71dbece4d6630f62b34625b907055254f560619dba11d", "site-address": "Land Adjacent 13 Beadnell Grove, Dresden, Stoke on Trent", "deliverable": "yes", "end-date": "", "entry-date": "2017-12-31", "hazardous-substances": "", "hectares": "0.36", "maximum-net-dwellings": "4", "minimum-net-dwellings": "4", "notes": "Erection of four, three storey houses with parking and alterations to widen vehicle access", "organisation": "local-authority-eng:STE", "ownership-status": "not owned by a public authority", "planning-permission-date": "2015-12-10", "planning-permission-history": "", "planning-permission-status": "permissioned", "planning-permission-type": "full planning permission", "point": "POINT(-2.133542 52.977449)", "site": "58660", "site-plan-url": "https://webmaplayers.stoke.gov.uk/webmaplayers8/Map.aspx?MapName=SHLAA", "start-date": "2017-12-31", "id": "652e2cd8d2bcd59541c71dbece4d6630f62b34625b907055254f560619dba11d:58104"}}