{"type": "Feature", "geometry": {"type": "Point", "coordinates": [-1.821444, 52.701238]}, "properties": {"resource": "6fe598e09e1805df88246b71ca02c9d0c0a4f33e8fbfb7c5e59ff1882899f7f4", "site-address": "Former Integra Works, Eastern Avenue, Lichfield", "deliverable": "yes", "end-date": "", "entry-date": "2018-09-01", "hazardous-substances": "", "hectares": "2.8", "maximum-net-dwellings": "99", "minimum-net-dwellings": "99", "notes": "Site currently under construction. Proposed for allocation in LPA. Derelict land, former site of large industrial unit. Redevelopment currently under construction", "organisation": "local-authority-eng:LIF", "ownership-status": "not owned by a public authority", "planning-permission-date": "2016-12-16", "planning-permission-history": "https://planning.lichfielddc.gov.uk/online-applications/caseDetails.do?caseType=Application&keyVal=O7UCICJEFNJ00", "planning-permission-status": "permissioned", "planning-permission-type": "full planning permission", "point": "POINT(-1.821444 52.701238)", "site": "LDC-BLR-8", "site-plan-url": "http://lichfielddc.maps.arcgis.com/home/webmap/viewer.html?webmap=f95b5e5ecb4d4a938a89f64a5344eaef", "start-date": "2017-07-17", "id": "6fe598e09e1805df88246b71ca02c9d0c0a4f33e8fbfb7c5e59ff1882899f7f4:30290"}}