{"type": "Feature", "geometry": {"type": "Point", "coordinates": [-0.080688, 51.4635]}, "properties": {"resource": "69584001774ee43f8bc3e6df5517c2b8eb3109bcb6db5e1e5103e9ff594f2c22", "site-address": "Gatcombe House East Dulwich Estate Pytchley Road SE22 8BU", "deliverable": "yes", "end-date": "", "entry-date": "2017-12-20", "hazardous-substances": "", "hectares": "0.01", "maximum-net-dwellings": "0", "minimum-net-dwellings": "0", "notes": "Conversion of existing drying room in loft space to create 1no. self-contained studio flat and replacement of existing single-glazed, timber-framed windows with double-glazed uPVC windows.", "organisation": "local-authority-eng:SWK", "ownership-status": "", "planning-permission-date": "2016-09-15", "planning-permission-history": "", "planning-permission-status": "permissioned", "planning-permission-type": "full planning permission", "point": "POINT(-0.080688 51.4635)", "site": "16-AP-3069", "site-plan-url": "", "start-date": "2017-12-20", "id": "69584001774ee43f8bc3e6df5517c2b8eb3109bcb6db5e1e5103e9ff594f2c22:63287"}}