{"type": "Feature", "geometry": {"type": "Point", "coordinates": [-2.52156, 51.49627]}, "properties": {"hectares": "2.27", "notes": "Erection of 66no. dwellings and ancillary supporting infrastructure with details of appearance, landscaping, layout and scale. (Approval of Reserved Matters to be read in conjunction with Outline Planning Permission PT13/0002/O). 0 units completed at 18/19 Residential Land Survey.", "site-plan-url": "https://developments.southglos.gov.uk/online-applications/applicationDetails.do?activeTab=map&keyVal=P0AI7AOKM2400", "maximum-net-dwellings": "66", "planning-permission-history": "https://developments.southglos.gov.uk/online-applications/simpleSearchResults.do?action=firstPage", "planning-permission-type": "reserved matters approval", "site-address": "Phase 3B Frenchay Hospital Beckspool Road Frenchay South Gloucestershire BS16 1JE", "deliverable": "yes", "planning-permission-date": "2014-12-05", "name": "159", "organisation": "local-authority-eng:SGC", "site": "159", "ownership-status": "not owned by a public authority", "start-date": "2019-12-15", "point": "POINT(-2.52156 51.49627)", "minimum-net-dwellings": "66", "planning-permission-status": "permissioned", "slug": "/brownfield-land/local-authority-eng/SGC/159", "entry-date": "2020-12-15"}}