{"type": "Feature", "geometry": {"type": "Point", "coordinates": [-1.758358, 53.790452]}, "properties": {"resource": "45943bab01aef31a1c8c60cb8eb9a9385275b491a3dc6d4f2d0572902c54d0e9", "site-address": "Wilton Car park and buildings, City Centre", "deliverable": "", "end-date": "", "entry-date": "2018-11-01", "hazardous-substances": "", "hectares": "0.42", "maximum-net-dwellings": "50", "minimum-net-dwellings": "50", "notes": "The site is identified in the City Centre AAP as a site with residential potential, possibly through conversion where around 50 units are expected", "organisation": "local-authority-eng:BRD", "ownership-status": "", "planning-permission-date": "", "planning-permission-history": "https://planning.bradford.gov.uk/online-applications/applicationDetails.do?keyVal=0201423ADV&activeTab=summary|https://planning.bradford.gov.uk/online-applications/applicationDetails.do?keyVal=8094925REM&activeTab=summary|https://planning.bradford.gov.uk", "planning-permission-status": "not permissioned", "planning-permission-type": "", "point": "POINT(-1.758358 53.790452)", "site": "CC/081", "site-plan-url": "http://cbmdc.maps.arcgis.com/apps/webappviewer/index.html?id=2134938ccf5843649ef0e555c0926dae&extent=415951.6,432670.05,416070.2,432740.9,27700", "start-date": "2017-11-01", "id": "CC-081"}}