{"type": "Feature", "geometry": {"type": "Point", "coordinates": [0.347591, 51.441928]}, "properties": {"site-plan-url": "https://plan.gravesham.gov.uk/online-applications/applicationDetails.do?activeTab=map&keyVal=PEBA27HPLHI00", "planning-permission-status": "permissioned", "minimum-net-dwellings": "13", "name": "20180916", "site-address": "Former Site Of 26 - 27 London Road Northfleet Gravesend Kent", "maximum-net-dwellings": "13", "planning-permission-type": "full planning permission", "hectares": "0.09", "planning-permission-history": "https://plan.gravesham.gov.uk/online-applications/applicationDetails.do?activeTab=relatedCases&keyVal=PEBA27HPLHI00", "notes": "Erection of a four storey building attached to 25 London Road to provide 2no. 2 bedroom and 7no. 1 bedroom self-contained flats; and, erection of a two storey detached block to provide 2no. 2 bedroom and 2no. 1 bedroom self-contained flats with associated parking, amenity space and waste storage.. https://plan.gravesham.gov.uk/online-applications/applicationDetails.do?activeTab=constraints&keyVal=PEBA27HPLHI00", "site": "20180916", "planning-permission-date": "2019-03-06", "ownership-status": "not owned by a public authority", "organisation": "local-authority-eng:GRA", "deliverable": "yes", "start-date": "2017-12-20", "point": "POINT(0.347591 51.441928)", "slug": "/brownfield-land/local-authority-eng/GRA/20180916", "entity": 503667, "entry-date": "2021-01-22"}}