{"type": "Feature", "geometry": {"type": "Point", "coordinates": [-2.225004, 53.497298]}, "properties": {"resource": "51a4645f1ec17bc96ce5977764db8ba4f8080e5d79f11a39394286a8380a67f8", "site-address": "Queens Arms Hotel Church Road New Mills", "deliverable": "yes", "end-date": "", "entry-date": "2019-12-18", "hazardous-substances": "", "hectares": "0.08", "maximum-net-dwellings": "9", "minimum-net-dwellings": "9", "notes": "Completions expected on site within 5 years", "organisation": "local-authority-eng:HIG", "ownership-status": "not owned by a public authority", "planning-permission-date": "2018-05-01", "planning-permission-history": "", "planning-permission-status": "permissioned", "planning-permission-type": "full planning permission", "point": "POINT(-2.225004 53.497298)", "site": "NM058", "site-plan-url": "https://www.highpeak.gov.uk/media/4697/Brownfield-Register-2019/pdf/HPBC_Brownfield_Register_2019_Maps.pdf?m=1576509189877", "start-date": "2018-11-30", "id": "51a4645f1ec17bc96ce5977764db8ba4f8080e5d79f11a39394286a8380a67f8:18360"}}