{"type": "Feature", "geometry": {"type": "Point", "coordinates": [-2.076579, 51.893826]}, "properties": {"start-date": "2019-12-31", "organisation": "local-authority-eng:CHT", "notes": "Provision of two additional floors to provide 7no. duplex apartments above existing apartments", "minimum-net-dwellings": "7", "name": "BFR046", "planning-permission-type": "full planning permission", "planning-permission-status": "permissioned", "site": "BFR046", "site-plan-url": "https://maps.cheltenham.gov.uk/map/Aurora.svc/run?script=%5cAurora%5cCBC+Brownfield+register.AuroraScript%24&nocache=416161679&resize=always&inspect_query=CBCBrownfield&inspect_value=046&scale=512", "deliverable": "yes", "hectares": "0.08", "point": "POINT(-2.076579 51.893826)", "site-address": "Eagle Star Tower Podium, Montpellier Drive", "planning-permission-date": "2017-01-23", "planning-permission-history": "https://publicaccess.cheltenham.gov.uk/online-applications/applicationDetails.do?activeTab=details&keyVal=OHT00CELGDE00", "maximum-net-dwellings": "7", "ownership-status": "not owned by a public authority", "slug": "/brownfield-land/local-authority-eng/CHT/BFR046", "entry-date": "2019-12-31"}}