{"type": "Feature", "geometry": {"type": "Point", "coordinates": [-1.548038, 53.443656]}, "properties": {"name": "S02444", "planning-permission-date": "2016-10-28", "hectares": "4.38", "organisation": "local-authority-eng:SHF", "maximum-net-dwellings": "95", "minimum-net-dwellings": "95", "site-address": "Former Oughtibridge Paper Mill, S35 0DN (Sheffield)", "notes": "Estimated to comprise of 95 Houses", "planning-permission-type": "outline planning permission", "start-date": "2017-12-05", "planning-permission-history": "https://planningapps.sheffield.gov.uk/online-applications/applicationDetails.do?activeTab=summary&keyVal=O4HKHDNY0A500", "planning-permission-status": "permissioned", "point": "POINT(-1.548038 53.443656)", "ownership-status": "not owned by a public authority", "site-plan-url": "https://www.sheffield.gov.uk/content/sheffield/home/planning-development/housing-land-sites.html", "site": "S02444", "deliverable": "yes", "slug": "/brownfield-land/local-authority-eng/SHF/S02444", "entry-date": "2018-12-18"}}