{"type": "Feature", "geometry": {"type": "Point", "coordinates": [-0.54829, 51.431187]}, "properties": {"notes": "Prosposed allocation in Local Plan 2015-2030.", "site-plan-url": "http://maps.runnymede.gov.uk/website/maps/index.html", "deliverable": "yes", "point": "POINT(-0.54829 51.431187)", "start-date": "2018-02-02", "site": "SLAA/EGH/157", "minimum-net-dwellings": "60", "site-address": "Egham Gateway West", "name": "SLAA/EGH/157", "planning-permission-status": "not permissioned", "hectares": "0.8", "ownership-status": "owned by a public authority", "organisation": "local-authority-eng:RUN", "maximum-net-dwellings": "150", "planning-permission-history": "http://maps.runnymede.gov.uk/website/maps/index.html", "slug": "/brownfield-land/local-authority-eng/RUN/SLAA-EGH-157", "entry-date": "2018-02-02"}}