{"type": "Feature", "geometry": {"type": "Point", "coordinates": [-1.745227, 53.793658]}, "properties": {"resource": "45943bab01aef31a1c8c60cb8eb9a9385275b491a3dc6d4f2d0572902c54d0e9", "site-address": "East Parade Car Park, City Centre", "deliverable": "yes", "end-date": "", "entry-date": "2018-11-01", "hazardous-substances": "", "hectares": "0.14", "maximum-net-dwellings": "40", "minimum-net-dwellings": "40", "notes": "Surface Car Park identified in the city centre AAP (ref CH/1.7) as having residential potential for around 40 units. The site has had recent interest.", "organisation": "local-authority-eng:BRD", "ownership-status": "not owned by a public authority", "planning-permission-date": "", "planning-permission-history": "https://planning.bradford.gov.uk/online-applications/applicationDetails.do?keyVal=0003428COU&activeTab=summary|https://planning.bradford.gov.uk/online-applications/applicationDetails.do?keyVal=0202092FUL&activeTab=summary|https://planning.bradford.gov.uk", "planning-permission-status": "not permissioned", "planning-permission-type": "", "point": "POINT(-1.745227 53.793658)", "site": "CC/078", "site-plan-url": "http://cbmdc.maps.arcgis.com/apps/webappviewer/index.html?id=2134938ccf5843649ef0e555c0926dae&extent=416854.1266,433033.05,416908.87,433107.36,27700", "start-date": "2017-11-01", "id": "CC-078"}}