{"type": "Feature", "geometry": {"type": "Point", "coordinates": [0.013415, 51.534416]}, "properties": {"site-address": "Former Lea Bon Club, 141 Church Street & John Street, Stratford, London E15 3EY", "point": "POINT(0.013415 51.534416)", "minimum-net-dwellings": "5", "ownership-status": "owned by a public authority", "hectares": "0.25", "maximum-net-dwellings": "17", "notes": "https://www.newham.gov.uk/Pages/Services/Local-plan.aspx?l1=100006&l2=200074#TheLocalPlan", "site": "HSG10", "site-plan-url": "https://lbnewham.maps.arcgis.com/apps/webappviewer/index.html?id=730d34968dea4214a10e7d378f37ef2d", "start-date": "2017-11-30", "planning-permission-status": "Not permissioned", "name": "HSG10", "organisation": "local-authority-eng:NWM", "slug": "/brownfield-land/local-authority-eng/NWM/HSG10", "entry-date": "2019-12-12"}}