{"type": "Feature", "geometry": {"type": "Point", "coordinates": [-0.409328, 54.284242]}, "properties": {"resource": "826dcac57a4d16a35b9d95a8ca2323178cc5e158edda83b0f39908097cf1a7f9", "site-address": "Land at Melrose Street, Scarborough", "deliverable": "", "end-date": "", "entry-date": "2017-12-18", "hazardous-substances": "", "hectares": "0.6", "maximum-net-dwellings": "30", "minimum-net-dwellings": "30", "notes": "14/02177/OL. Demolition of existing premises and construction of retail units and dwellings. Awaiting S106.", "organisation": "local-authority-eng:SCE", "ownership-status": "not owned by a public authority", "planning-permission-date": "", "planning-permission-history": "", "planning-permission-status": "permissioned", "planning-permission-type": "outline planning permission", "point": "POINT(-0.409328 54.284242)", "site": "BR-030", "site-plan-url": "https://tinyurl.com/ybdqm8ov", "start-date": "2017-12-18", "id": "826dcac57a4d16a35b9d95a8ca2323178cc5e158edda83b0f39908097cf1a7f9:43487"}}