{"type": "Feature", "geometry": {"type": "Point", "coordinates": [-0.054257, 51.484152]}, "properties": {"resource": "69584001774ee43f8bc3e6df5517c2b8eb3109bcb6db5e1e5103e9ff594f2c22", "site-address": "60a-62 ; 134-140,Hatcham Road; Ilderton Road,,SE15 1TW", "deliverable": "", "end-date": "", "entry-date": "2020-03-24", "hazardous-substances": "", "hectares": "0.366", "maximum-net-dwellings": "86", "minimum-net-dwellings": "86", "notes": "Demolition of existing buildings and construction of a building ranging in height from four to nine storeys to provide 1,185sqm (GIA) of commercial space (Use Class B1) at ground floor, 86 residential dwellings (30 x 1 bed, 39 x 2 bed and 17 x 3 bed) above with associated amenity areas, cycle and disabled car parking and refuse/recycling stores.", "organisation": "local-authority-eng:SWK", "ownership-status": "", "planning-permission-date": "2019-03-18", "planning-permission-history": "", "planning-permission-status": "permissioned", "planning-permission-type": "", "point": "POINT(-0.054257 51.484152)", "site": "17-AP-3757", "site-plan-url": "", "start-date": "2020-03-24", "slug": "local-authority-eng/SWK/17-AP-3757"}}