{"type": "Feature", "geometry": {"type": "Point", "coordinates": [-1.820746, 52.564184]}, "properties": {"start-date": "2019-12-31", "notes": "2018/01274/PA", "maximum-net-dwellings": "4", "deliverable": "yes", "minimum-net-dwellings": "4", "planning-permission-type": "Other", "planning-permission-date": "2018-03-21", "point": "POINT(-1.820746 52.564184)", "organisation": "local-authority-eng:BIR", "site": "N948", "name": "N948", "hectares": "0.04", "planning-permission-status": "permissioned", "site-address": "33 Coleshill Street, Sutton Trinity", "site-plan-url": "https://maps.birmingham.gov.uk/webapps/shlaa/", "slug": "/brownfield-land/local-authority-eng/BIR/N948", "entry-date": "2019-12-31"}}