{"type": "Feature", "geometry": {"type": "Point", "coordinates": [-1.611505, 54.948505]}, "properties": {"name": "HLQ1", "deliverable": "yes", "planning-permission-status": "permissioned", "point": "POINT(-1.611505 54.948505)", "ownership-status": "owned by a public authority", "minimum-net-dwellings": "45", "site": "HLQ1", "site-address": "Kelvin Grove, Bensham, Gateshead", "hectares": "1.35", "notes": "DC/17/00172/REM. redevelopment for 52 dwellings", "hazardous-substances": "yes", "planning-permission-type": "reserved matters approval", "organisation": "local-authority-eng:GAT", "site-plan-url": "https://gis.gateshead.gov.uk/gatesheadmaps/BFR20/app.html", "planning-permission-date": "2017-10-05", "start-date": "2017-12-21", "maximum-net-dwellings": "57", "slug": "/brownfield-land/local-authority-eng/GAT/HLQ1", "entry-date": "2019-12-31"}}