{"type": "Feature", "geometry": {"type": "Point", "coordinates": [-2.714388, 53.764676]}, "properties": {"resource": "79bd5e8ac4f8ebca286b519c7ef8bc78653b0c1d12a947f7b3658ef6a387ef10", "site-address": "161-171 Fylde Rd", "deliverable": "", "end-date": "", "entry-date": "2017-09-06", "hazardous-substances": "", "hectares": "0.25", "maximum-net-dwellings": "", "minimum-net-dwellings": "", "notes": "", "organisation": "local-authority-eng:PRE", "ownership-status": "not owned by a public authority", "planning-permission-date": "", "planning-permission-history": "", "planning-permission-status": "not permissioned", "planning-permission-type": "", "point": "POINT(-2.714388 53.764676)", "site": "BR35", "site-plan-url": "http://maps.preston.gov.uk/planning/map.aspx", "start-date": "2016-09-06", "id": "79bd5e8ac4f8ebca286b519c7ef8bc78653b0c1d12a947f7b3658ef6a387ef10:33228"}}