{"type": "Feature", "geometry": {"type": "Point", "coordinates": [-1.877437, 52.464713]}, "properties": {"point": "POINT(-1.877437 52.464713)", "ownership-status": "mixed ownership", "site-address": "Junction of Stratford Road / Priestly Road, Sparkbrook & Balsall Heath East", "start-date": "2017-12-19", "maximum-net-dwellings": "5", "name": "E146", "site-plan-url": "https://localview.birmingham.gov.uk/Planning/Sites/SHLAA/", "planning-permission-status": "Not Permissioned", "organisation": "local-authority-eng:BIR", "minimum-net-dwellings": "5", "site": "E146", "notes": "Identified by Consultants", "hectares": "0.12", "slug": "/brownfield-land/local-authority-eng/BIR/E146", "entry-date": "2018-09-21"}}