{"type": "Feature", "geometry": {"type": "Point", "coordinates": [-1.50347, 52.429197]}, "properties": {"deliverable": "yes", "planning-permission-date": "2011-07-05", "notes": "public house and curtilage previously granted permission but now expired. Considered to be a viable redevelopment option that is available. Development will need to satisfy employment land protection policies in the coventry local plan 2016.", "site": "F9", "organisation": "local-authority-eng:COV", "point": "POINT(-1.50347 52.429197)", "site-address": "Crow in the Oak PH, Lockhurst Lane", "minimum-net-dwellings": "12", "maximum-net-dwellings": "12", "planning-permission-history": "http://planning.coventry.gov.uk/portal/servlets/ApplicationSearchServlet?PKID=718707", "planning-permission-status": "not permissioned", "planning-permission-type": "reserved matters approval", "hectares": "0.12", "site-plan-url": "http://www.coventry.gov.uk/downloads/file/19663/lp53_shlaa_2016_report_and_appendices", "name": "F9", "slug": "/brownfield-land/local-authority-eng/COV/F9", "entity": 480503, "entry-date": "2019-11-30"}}