{"type": "Feature", "geometry": {"type": "Point", "coordinates": [-2.534336, 51.467741]}, "properties": {"site": "17/01967/F", "minimum-net-dwellings": "31", "planning-permission-history": "https://pa.bristol.gov.uk/online-applications/applicationDetails.do?keyVal=OO2XRPDN00J00&activeTab=summary", "site-address": "Speedwell Swimming Baths Whitefield Road Bristol BS5 7TJ", "start-date": "2018-12-19", "planning-permission-type": "full planning permission", "point": "POINT(-2.534336 51.467741)", "name": "17/01967/F", "deliverable": "yes", "hectares": "0.14", "notes": "Alternative site reference: O10_1144", "site-plan-url": "https://pa.bristol.gov.uk/online-applications/applicationDetails.do?activeTab=map&keyVal=OO2XRPDN00J00", "planning-permission-status": "permissioned", "organisation": "local-authority-eng:BST", "maximum-net-dwellings": "31", "slug": "/brownfield-land/local-authority-eng/BST/17-01967-F", "entity": 478383, "entry-date": "2020-12-18", "planning-permission-date": "2018-05-03"}}