{"type": "Feature", "geometry": {"type": "Point", "coordinates": [-0.010515, 51.125217]}, "properties": {"site-plan-url": "https://www.midsussex.gov.uk/planning-building/evidence-supporting-documents/", "start-date": "2018-12-13", "point": "POINT(-0.010515 51.125217)", "name": "SHLAAID923", "minimum-net-dwellings": "14", "organisation": "local-authority-eng:MSS", "site": "SHLAAID923", "planning-permission-date": "2018-01-26", "site-address": "49 Queens Road East Grinstead", "hectares": "0.15", "deliverable": "yes", "planning-permission-status": "permissioned", "planning-permission-type": "full planning permission", "notes": "Planning Permission Reference: DM/17/2725 - Conversion of a D1 educational building to 14 no. residential apartments with new additional set back third floor and infilling of existing undercroft areas. Associated car parking, landscaping, cycle spaces, amenity areas, 1.1m high metal fence and new ramp.", "maximum-net-dwellings": "14", "ownership-status": "not owned by a public authority", "planning-permission-history": "https://pa.midsussex.gov.uk/online-applications/", "slug": "/brownfield-land/local-authority-eng/MSS/SHLAAID923", "entity": 487944, "entry-date": "2018-12-13"}}