{"type": "Feature", "geometry": {"type": "Point", "coordinates": [0.129309, 51.325862]}, "properties": {"resource": "4ed9e9f2ede3ebeef0275629e257fbe0d9b5efae93cce82f70db31c573e81ea7", "site-address": "Warren Court Farm, Knockholt Road, Halstead", "deliverable": "yes", "end-date": "", "entry-date": "2019-01-01", "hazardous-substances": "", "hectares": "1.13654471", "maximum-net-dwellings": "29", "minimum-net-dwellings": "29", "notes": "SE/17/02363", "organisation": "local-authority-eng:SEV", "ownership-status": "not owned by a public authority", "planning-permission-date": "2018-03-29", "planning-permission-history": "https://pa.sevenoaks.gov.uk/online-applications/", "planning-permission-status": "permissioned", "planning-permission-type": "full planning permission", "point": "POINT(0.129309 51.325862)", "site": "BFR148", "site-plan-url": "https://maps.sevenoaks.gov.uk/brownfield_register/", "start-date": "2019-01-01", "id": "4ed9e9f2ede3ebeef0275629e257fbe0d9b5efae93cce82f70db31c573e81ea7:28602"}}