{"type": "Feature", "geometry": {"type": "Point", "coordinates": [-0.42057, 51.882121]}, "properties": {"start-date": "2017-12-01", "planning-permission-history": "https://planning.luton.gov.uk/online-applications/propertyDetails.do?activeTab=relatedCases&keyVal=001MXFKGLI000", "site-plan-url": "https://www.luton.gov.uk/Environment/Lists/LutonDocuments/PDF/SHLAA-2017/Maps1/352-and-353.pdf", "hectares": "0.22", "maximum-net-dwellings": "97", "organisation": "local-authority-eng:LUT", "name": "SHLAA352", "notes": "Site is under construction from earlier permission (14/01369/FUL)", "planning-permission-status": "permissioned", "site": "SHLAA352", "point": "POINT(-0.42057 51.882121)", "planning-permission-date": "2019-11-12", "site-address": "40-58 Collingdon Street", "deliverable": "yes", "planning-permission-type": "full planning permission", "minimum-net-dwellings": "88", "slug": "/brownfield-land/local-authority-eng/LUT/SHLAA352", "entity": 486690, "entry-date": "2019-11-18"}}