{"type": "Feature", "geometry": {"type": "Point", "coordinates": [-2.102753, 53.696285]}, "properties": {"site": "BLR069", "name": "BLR069", "hectares": "0.33", "start-date": "2018-12-31", "minimum-net-dwellings": "14", "planning-permission-status": "permissioned", "organisation": "local-authority-eng:CLD", "site-plan-url": "https://maps.calderdale.gov.uk/map/Aurora.svc/run?script=%5CAurora%5CScripts%5CBrownfield%20Land%20Register%202020.AuroraScript%24&nocache=b3a8172e-c9", "planning-permission-type": "full planning permission", "planning-permission-date": "2016-04-29", "site-address": "Alma Mill, Alma Street, Walsden, Todmorden", "maximum-net-dwellings": "14", "deliverable": "yes", "point": "POINT(-2.102753 53.696285)", "slug": "/brownfield-land/local-authority-eng/CLD/BLR069", "entry-date": "2020-05-31", "planning-permission-history": "https://portal.calderdale.gov.uk/online-applications/search.do?action=advanced", "notes": "19/01049/FUL - Detached house revised details (Amended scheme to application 15/01670/FUL) - Plot 6. Granted 29.10.19. 15/01670 - Residential development of 14 dwellings. Granted 29.04.16.", "ownership-status": "not owned by a public authority"}}