{"type": "Feature", "geometry": {"type": "Point", "coordinates": [-2.242842, 53.810281]}, "properties": {"resource": "c038bcf38e57e999041bd66998883f180d6c25bb70ec17880fdf7c057947b779", "site-address": "Barden Mill, Barden Lane", "deliverable": "yes", "end-date": "", "entry-date": "2018-02-28", "hazardous-substances": "", "hectares": "0.86", "maximum-net-dwellings": "37", "minimum-net-dwellings": "37", "notes": "Proposed Housing Allocation in Submission Burnley Local Plan (HS1/37). Planning permission for redevelopment of existing retail mill site", "organisation": "local-authority-eng:BUN", "ownership-status": "not owned by a public authority", "planning-permission-date": "2015-04-20", "planning-permission-history": "http://www.burnley.gov.uk/custom/plnapps/results.php?ref=APP/2014/0031&reference=app%2F2014%2F0031&search=search&recs=1&", "planning-permission-status": "permissioned", "planning-permission-type": "full planning permission", "point": "POINT(-2.242842 53.810281)", "site": "BURN010", "site-plan-url": "http://www.burnley.gov.uk/attachments/app20140031_014%200031%20Amended%20proposed%20site%20plan.pdf", "start-date": "2018-01-12", "id": "c038bcf38e57e999041bd66998883f180d6c25bb70ec17880fdf7c057947b779:51225"}}