{"type": "Feature", "geometry": {"type": "Point", "coordinates": [0.029067, 51.575546]}, "properties": {"resource": "53ff7410d03797e7747d4df128ca450bbe808f4eacc79d0e2d18623ab4a99554", "site-address": "Wanstead Station Car Park", "deliverable": "yes", "end-date": "", "entry-date": "2019-07-12", "hazardous-substances": "", "hectares": "0.070000000000000007", "maximum-net-dwellings": "18", "minimum-net-dwellings": "18", "notes": "Local Plan allocation site number: 226. Housing. https://www.redbridge.gov.uk/media/3988/lbr-2061-revised-appendix-1-development-opportunity-sites-august-2017.pdf", "organisation": "local-authority-eng:RDB", "ownership-status": "owned by a public authority", "planning-permission-date": "", "planning-permission-history": "http://planning.redbridge.gov.uk/swiftlg/apas/run/wphappcriteria.display", "planning-permission-status": "Not permissioned", "planning-permission-type": "", "point": "POINT(0.029067 51.575546)", "site": "BRLBR0157", "site-plan-url": "", "start-date": "2019-07-12", "id": "53ff7410d03797e7747d4df128ca450bbe808f4eacc79d0e2d18623ab4a99554:39567"}}