{"type": "Feature", "geometry": {"type": "Point", "coordinates": [-1.089602, 52.96743]}, "properties": {"organisation": "local-authority-eng:GED", "site-address": "Carlton Police Station, Cavendish Road, Carlton", "start-date": "2019-04-01", "ownership-status": "not owned by a public authority", "hectares": "0.68", "site": "6\\1128", "point": "POINT(-1.089602 52.96743)", "notes": "Full planning permission for the conversion of a police station into 42 apartments and a new block of 24 apartments (2018/0549) granted in March 2019.", "name": "6\\1128", "minimum-net-dwellings": "66", "planning-permission-date": "2019-03-29", "maximum-net-dwellings": "66", "site-plan-url": "http://gedlingbc.maps.arcgis.com/apps/webappviewer/index.html?id=57b3b3cce7c44532b0cface13f74177e&find=6%5C1128", "deliverable": "yes", "planning-permission-type": "full planning permission", "planning-permission-status": "permissioned", "slug": "/brownfield-land/local-authority-eng/GED/6-1128", "entry-date": "2019-12-13"}}