{"type": "Feature", "geometry": {"type": "Point", "coordinates": [-1.845624, 52.488082]}, "properties": {"planning-permission-type": "full planning permission", "start-date": "2017-12-19", "maximum-net-dwellings": "6", "notes": "2015/02573/PA. Demolition of existing buildings and erection of three-storey detached building to provide 5no. retail shops (Use Class A1) and 6no. two-bed self-contained flats (Use Class C3) with associated works", "organisation": "local-authority-eng:BIR", "planning-permission-date": "2015-06-09", "site-plan-url": "https://localview.birmingham.gov.uk/Planning/Sites/SHLAA/", "name": "E709", "site": "E709", "hectares": "0.07", "planning-permission-status": "permissioned", "deliverable": "yes", "site-address": "Former Service Station, Alum Rock Road, Alum Rock", "point": "POINT(-1.845624 52.488082)", "minimum-net-dwellings": "6", "slug": "/brownfield-land/local-authority-eng/BIR/E709", "entry-date": "2018-09-21"}}