{"type": "Feature", "geometry": {"type": "Point", "coordinates": [-2.268979, 53.482296]}, "properties": {"resource": "2a7b9d74419a9388b37862f100293f18ebeee60212d69e9e1f2e1fdb402375f4", "site-address": "Land to rear of Crescent House (off The Crescent) and south of Irwell Place", "deliverable": "", "end-date": "", "entry-date": "2017-12-01", "hazardous-substances": "", "hectares": "5.39", "maximum-net-dwellings": "550", "minimum-net-dwellings": "550", "notes": "Construction status not started as of 31 March 2017. Planning permission details as of 27 October 2017.", "organisation": "local-authority-eng:SLF", "ownership-status": "not owned by a public authority", "planning-permission-date": "", "planning-permission-history": "", "planning-permission-status": "not permissioned", "planning-permission-type": "", "point": "POINT(-2.268979 53.482296)", "site": "S/IRW/045", "site-plan-url": "https://map.salford.gov.uk/maps/?lyrs=brownfield_land_register_2017#17/53.482296/-2.268979", "start-date": "2017-12-01", "id": "S-IRW-045"}}