{"type": "Feature", "geometry": {"type": "Point", "coordinates": [-1.814849, 51.06853]}, "properties": {"deliverable": "yes", "organisation": "local-authority-eng:WIL", "hectares": "37.38", "planning-permission-status": "not permissioned", "maximum-net-dwellings": "1100", "minimum-net-dwellings": "1100", "start-date": "2017-12-01", "site": "WCS/S4", "site-plan-url": "https://wiltscouncil.maps.arcgis.com/apps/webappviewer/index.html?id=74a353612a934bd48fee1f2bc564cdd8", "ownership-status": "mixed ownership", "notes": "WCS CP2 Allocation", "site-address": "Churchfields Ind Est, Salisbury", "point": "POINT(-1.814849 51.06853)", "name": "WCS/S4", "slug": "/brownfield-land/local-authority-eng/WIL/WCS-S4", "entity": 497966, "entry-date": "2017-12-01"}}