{"type": "Feature", "geometry": {"type": "Point", "coordinates": [-0.16647, 51.523058]}, "properties": {"deliverable": "yes", "point": "POINT(-0.16647 51.523058)", "planning-permission-history": "http://idoxpa.westminster.gov.uk/online-applications/applicationDetails.do?activeTab=summary&keyVal=NZTE5ORP00400", "planning-permission-type": "full planning permission", "maximum-net-dwellings": "0", "start-date": "2017-11-30", "hectares": "0.048259", "site": "15/12019/P3JPA", "organisation": "local-authority-eng:WSM", "site-plan-url": "https://lbhf.maps.arcgis.com/apps/View/index.html?appid=d0d51e7d013a4d1a953ecc1cff697d24&site=15/12019/P3JPA", "notes": "5-15 House Supply", "name": "15/12019/P3JPA", "minimum-net-dwellings": "0", "planning-permission-status": "permissioned", "planning-permission-date": "2016-02-16", "site-address": "Tresco House Lisson Grove NW1", "slug": "/brownfield-land/local-authority-eng/WSM/15-12019-P3JPA", "entity": 499909, "entry-date": "2017-11-30"}}