{"type": "Feature", "geometry": {"type": "Point", "coordinates": [-1.978358, 52.688928]}, "properties": {"resource": "4c524bd78ea05989aaaabdcad0cae87d48f4ad9eaf18a4e4979d4f0f78465c55", "site-address": "Land at 61&65 Wimblebury Road, Heath Hayes, Cannock", "deliverable": "yes", "end-date": "", "entry-date": "2017-09-01", "hazardous-substances": "", "hectares": "0.19", "maximum-net-dwellings": "6", "minimum-net-dwellings": "6", "notes": "CH/17/070 is outline planning permission for the erection of 10 dwellings. The full extent of this site including greenfield land is 0.31ha with a capacity of 10 dwellings. The register reflects the size and indicative capacity of the brownfield element of the site only. For full details on the site please see the SHLAA.", "organisation": "local-authority-eng:CAN", "ownership-status": "not owned by a public authority", "planning-permission-date": "2017-05-31", "planning-permission-history": "", "planning-permission-status": "permissioned", "planning-permission-type": "outline planning permission", "point": "POINT(-1.978358 52.688928)", "site": "C420", "site-plan-url": "http://cannockchase.addresscafe.com/app/exploreit/", "start-date": "2017-09-01", "id": "4c524bd78ea05989aaaabdcad0cae87d48f4ad9eaf18a4e4979d4f0f78465c55:58190"}}