{"type": "Feature", "geometry": {"type": "Point", "coordinates": [-2.01651, 53.107966]}, "properties": {"start-date": "2020-12-01", "site": "LE219", "planning-permission-status": "permissioned", "organisation": "local-authority-eng:STF", "hectares": "0.45", "minimum-net-dwellings": "37", "notes": "Offices. Site is under construction", "planning-permission-type": "full planning permission", "site-address": "Former Eaton House, Buxton Road, Leek", "planning-permission-date": "2019-06-18", "point": "POINT(-2.01651 53.107966)", "deliverable": "yes", "site-plan-url": "https://www.staffsmoorlands.gov.uk/brownfield-land.csv", "maximum-net-dwellings": "37", "name": "LE219", "ownership-status": "not owned by a public authority", "slug": "/brownfield-land/local-authority-eng/STF/LE219", "entry-date": "2020-12-14"}}