{"type": "Feature", "geometry": {"type": "Point", "coordinates": [-1.258082, 53.126504]}, "properties": {"hectares": "0.15", "minimum-net-dwellings": "28", "notes": "Potential allocated site in the emerging Local Plan SKA3s. Requirement in relation to the Brownfield site will include Mitigation measures required in relation to any surface water issues; Desktop survey and potential further investigations if contamination if suspected.. Potential for residential development of 28 apartments from expired planning application V/2012/0043", "start-date": "2017-07-28", "maximum-net-dwellings": "28", "end-date": "2020-12-31", "site-address": "Station House, Outram Street, Sutton in Ashfield", "point": "POINT(-1.258082 53.126504)", "site-plan-url": "https://www.ashfield.gov.uk/media/3807/bflr-site-plans.pdf", "name": "BFR15", "ownership-status": "not owned by a public authority", "planning-permission-status": "not permissioned", "organisation": "local-authority-eng:ASH", "site": "BFR15", "slug": "/brownfield-land/local-authority-eng/ASH/BFR15", "entry-date": "2017-07-28", "deliverable": "yes"}}