{"type": "Feature", "geometry": {"type": "Point", "coordinates": [-0.7455, 51.337]}, "properties": {"resource": "84fa1cddc55bfcc78ea57e9695adef175ed9ddd8013e2be98a473eb5b990b0aa", "site-address": "Pembroke Broadway North, Pembroke Broadway, Camberley", "deliverable": "yes", "end-date": "", "entry-date": "2017-12-18", "hazardous-substances": "", "hectares": "1.4", "maximum-net-dwellings": "116", "minimum-net-dwellings": "116", "notes": "https://publicaccess.surreyheath.gov.uk/online-applications/applicationDetails.do?keyVal=ZZZZMPPRDR909&activeTab=summary. https://publicaccess.surreyheath.gov.uk/online-applications/applicationDetails.do?keyVal=ZZZZMPPRDR909&activeTab=summary", "organisation": "local-authority-eng:SUR", "ownership-status": "owned by a public authority", "planning-permission-date": "2018-02-15", "planning-permission-history": "https://publicaccess.surreyheath.gov.uk/online-applications/applicationDetails.do?keyVal=ZZZZMPPRDR909&activeTab=summary", "planning-permission-status": "permissioned", "planning-permission-type": "", "point": "POINT(-0.7455 51.337)", "site": "SHBR37", "site-plan-url": "https://www.surreyheath.gov.uk/sites/default/files/documents/residents/planning/planning-policy/SLAA2019/8.%20SLAA%202019%20Appendix%202%20-%20Camberley%20Site%20Assessments.pdf", "start-date": "2017-12-18", "id": "84fa1cddc55bfcc78ea57e9695adef175ed9ddd8013e2be98a473eb5b990b0aa:38796"}}