{"type": "Feature", "geometry": {"type": "Point", "coordinates": [-0.05358, 51.497032]}, "properties": {"planning-permission-type": "full planning permission", "minimum-net-dwellings": "0", "notes": "Change of use of existing offices (Use Class B1(a)) to 1 x 3 bedroom unit (Use Class C3)", "deliverable": "yes", "planning-permission-status": "permissioned", "planning-permission-date": "2017-07-19", "maximum-net-dwellings": "0", "point": "POINT(-0.05358 51.497032)", "site-address": "Gate House Ann Moss Way SE16 2TL", "organisation": "local-authority-eng:SWK", "site": "17-AP-2094", "name": "17-AP-2094", "hectares": "0.01", "start-date": "2017-12-20", "slug": "/brownfield-land/local-authority-eng/SWK/17-AP-2094", "entry-date": "2017-12-20"}}