{"type": "Feature", "geometry": {"type": "Point", "coordinates": [0.535404, 51.860707]}, "properties": {"resource": "3336c4a2229f8052c726074c25eeefe83e0defe7b684830c3606bf9cb4b2be65", "site-address": "Filling station site, adjacent 203 London Road, Braintree", "deliverable": "", "end-date": "", "entry-date": "2018-12-22", "hazardous-substances": "", "hectares": "0.15", "maximum-net-dwellings": "5", "minimum-net-dwellings": "5", "notes": "The site is allocated in the draft New Local Plan for residentail development. Brownfield part of site only.", "organisation": "local-authority-eng:BRA", "ownership-status": "not owned by a public authority", "planning-permission-date": "", "planning-permission-history": "", "planning-permission-status": "not permissioned", "planning-permission-type": "", "point": "POINT(0.535404 51.860707)", "site": "BLAN 633", "site-plan-url": "https://braintree.maps.arcgis.com/apps/webappviewer/index.html?id=2cb158cfa90841e5be176e0ddbea3865", "start-date": "2018-12-22", "slug": "local-authority-eng/BRA/BLAN-633"}}