{"type": "Feature", "geometry": {"type": "Point", "coordinates": [-1.979185, 52.585311]}, "properties": {"resource": "bcaf9d1205c901188d42fa43e9d9566232b54a1fb437546a03b66fa2553120c4", "site-address": "145-147, LICHFIELD STREET, WALSALL, WS1 1SE", "deliverable": "", "end-date": "", "entry-date": "2017-12-29", "hazardous-substances": "", "hectares": "0.02", "maximum-net-dwellings": "12", "minimum-net-dwellings": "12", "notes": "", "organisation": "local-authority-eng:WLL", "ownership-status": "", "planning-permission-date": "2017-09-22", "planning-permission-history": "", "planning-permission-status": "permissioned", "planning-permission-type": "full planning permission", "point": "POINT(-1.979185 52.585311)", "site": "HO1119", "site-plan-url": "", "start-date": "2017-12-29", "id": "bcaf9d1205c901188d42fa43e9d9566232b54a1fb437546a03b66fa2553120c4:50340"}}