{"type": "Feature", "geometry": {"type": "Point", "coordinates": [-0.418633, 51.699013]}, "properties": {"name": "BR6", "maximum-net-dwellings": "42", "planning-permission-status": "not permissioned", "start-date": "2017-12-12", "site-address": "Furtherfield Depot Furtherfield, Abbots Langley", "hectares": "0.53", "ownership-status": "owned by a public authority", "point": "POINT(-0.418633 51.699013)", "minimum-net-dwellings": "30", "notes": "Allocated housing site H(4)", "site-plan-url": "http://www.planvu.co.uk/trdc/", "site": "BR6", "organisation": "local-authority-eng:THE", "slug": "/brownfield-land/local-authority-eng/THE/BR6", "entry-date": "2020-12-01"}}