{"type": "Feature", "geometry": {"type": "Point", "coordinates": [-0.134765, 50.831084]}, "properties": {"resource": "705ceb15dcf386c1df3b529f229bea20a994c75e1b8ddc1a76c171a15520586b", "site-address": "Former Housing Office (George Cooper House) 21-22 Oxford Street Brighton", "deliverable": "yes", "end-date": "", "entry-date": "2017-12-18", "hazardous-substances": "", "hectares": "0.02", "maximum-net-dwellings": "12", "minimum-net-dwellings": "12", "notes": "", "organisation": "local-authority-eng:BNH", "ownership-status": "owned by a public authority", "planning-permission-date": "", "planning-permission-history": "", "planning-permission-status": "not permissioned", "planning-permission-type": "", "point": "POINT(-0.134765 50.831084)", "site": "SHLAA6141", "site-plan-url": "https://www.brighton-hove.gov.uk/sites/brighton-hove.gov.uk/files/SHLAA6141%20Former%20Housing%20Office%20%28George%20Cooper%20House%29%2021-22%20Oxford%20Street%20Brighton.pdf", "start-date": "2017-09-25", "id": "705ceb15dcf386c1df3b529f229bea20a994c75e1b8ddc1a76c171a15520586b:54934"}}