{"type": "Feature", "geometry": {"type": "Point", "coordinates": [-1.632172, 52.422262]}, "properties": {"deliverable": "yes", "start-date": "2018-03-23", "ownership-status": "not owned by a public authority", "organisation": "local-authority-eng:SOL", "maximum-net-dwellings": "4", "point": "POINT(-1.632172 52.422262)", "hectares": "0.83", "site-address": "Whitehouse Kennels, Back Lane, Meriden", "site-plan-url": "http://www.solihull.gov.uk/Portals/0/Planning/BLR/BLR-020.pdf", "site": "BLR/020", "planning-permission-history": "https://publicaccess.solihull.gov.uk/online-applications/propertyDetails.do?activeTab=relatedCases&keyVal=000DJSOELI000", "planning-permission-status": "permissioned", "minimum-net-dwellings": "2", "name": "BLR/020", "slug": "/brownfield-land/local-authority-eng/SOL/BLR-020", "entity": 501180, "entry-date": "2018-12-03", "notes": "Planning permission granted. Now included as PR68", "planning-permission-date": "2018-12-14", "planning-permission-type": "full planning permission", "end-date": "2019-12-09"}}