{"type": "Feature", "geometry": {"type": "Point", "coordinates": [-0.337868, 51.631562]}, "properties": {"name": "BR030", "planning-permission-type": "full planning permission", "minimum-net-dwellings": "9", "hectares": "0.1", "site": "BR030", "notes": "16/0881/VOC. Application online: https://www6.hertsmere.gov.uk/online-applications/simpleSearchResults.do?action=firstPage. Application for variation of condition 16 (amendments to approved plans) to allow a reconfiguration of internal layout following grant of planning permission TP/09/1433 & Ext of Time TP/12/2671.", "ownership-status": "not owned by a public authority", "point": "POINT(-0.337868 51.631562)", "start-date": "2017-12-22", "planning-permission-status": "permissioned", "organisation": "local-authority-eng:HER", "maximum-net-dwellings": "9", "site-address": "111, High Road, Bushey Heath, WD23 1JA", "planning-permission-date": "2016-11-29", "deliverable": "yes", "slug": "/brownfield-land/local-authority-eng/HER/BR030", "entry-date": "2017-12-22"}}