{"type": "Feature", "geometry": {"type": "Point", "coordinates": [-1.452301, 53.742833]}, "properties": {"point": "POINT(-1.452301 53.742833)", "name": "SHL01459", "site-address": "China Red Dragon, 3 Wakefield Road, Oulton", "ownership-status": "not owned by a public authority", "hectares": "0.62", "planning-permission-type": "full planning permission", "site": "SHL01459", "planning-permission-status": "permissioned", "minimum-net-dwellings": "74", "deliverable": "yes", "maximum-net-dwellings": "74", "organisation": "local-authority-eng:LDS", "start-date": "2016-11-07", "site-plan-url": "https://leedscc.maps.arcgis.com/apps/webappviewer/index.html?id=612532561dc547fa93e683a5fca73079&find=SHL01459", "planning-permission-date": "2014-08-13", "notes": "Demolition of restaurant and erect 74 bedroom residential care home for the elderly with car parking and associated external works.", "slug": "/brownfield-land/local-authority-eng/LDS/SHL01459", "entry-date": "2016-11-07"}}