{"type": "Feature", "geometry": {"type": "Point", "coordinates": [-0.168466, 51.488258]}, "properties": {"resource": "86167bb457c56ec6e4160e0df7ca208161bb11c443a1baf5e8bfae4ba2f1de8e", "site-address": "Chelsea Delivery Office 232 King's Road 18-20 Chelsea Manor Street SW3 3UH", "deliverable": "yes", "end-date": "", "entry-date": "2017-12-31", "hazardous-substances": "", "hectares": "0.16", "maximum-net-dwellings": "21", "minimum-net-dwellings": "21", "notes": "", "organisation": "local-authority-eng:KEC", "ownership-status": "not owned by a public authority", "planning-permission-date": "2016-09-02", "planning-permission-history": "https://www.rbkc.gov.uk/PP/15/05474", "planning-permission-status": "permissioned", "planning-permission-type": "full planning permission", "point": "POINT(-0.168466 51.488258)", "site": "RBKC021", "site-plan-url": "https://lbhf.maps.arcgis.com/apps/webappviewer/index.html?id=931fa3b3294b4147a518648579b12d4a", "start-date": "2017-12-31", "id": "86167bb457c56ec6e4160e0df7ca208161bb11c443a1baf5e8bfae4ba2f1de8e:35909"}}