{"type": "Feature", "geometry": {"type": "Point", "coordinates": [-0.7552, 51.3289]}, "properties": {"organisation": "local-authority-eng:SUR", "hectares": "0.22", "point": "POINT(-0.7552 51.3289)", "minimum-net-dwellings": "15", "planning-permission-status": "Not permissioned", "site": "SHBR42", "site-address": "Travis Perkins, 280 Gordon Avenue, Camberley", "notes": "http://www.surreyheath.gov.uk/sites/default/files/documents/residents/planning/planning-policy/SLAA2017/8SLAA2017Ap2CamberleySiteAssmts.pdf", "site-plan-url": "http://www.surreyheath.gov.uk/sites/default/files/documents/residents/planning/planning-policy/SLAA2017/8SLAA2017Ap2CamberleySiteAssmts.pdf", "name": "SHBR42", "start-date": "2017-12-18", "maximum-net-dwellings": "15", "deliverable": "yes", "slug": "/brownfield-land/local-authority-eng/SUR/SHBR42", "entry-date": "2017-12-18", "ownership-status": "not owned by a public authority"}}