{"type": "Feature", "geometry": {"type": "Point", "coordinates": [-1.933501, 52.480661]}, "properties": {"planning-permission-status": "Not Permissioned", "point": "POINT(-1.933501 52.480661)", "organisation": "local-authority-eng:BIR", "notes": "Birmingham Development Plan. Greater Icknield Masterplan", "maximum-net-dwellings": "393", "site": "N717J", "ownership-status": "mixed ownership", "site-address": "IPL Site, North Edgbaston", "start-date": "2017-12-19", "minimum-net-dwellings": "393", "hectares": "1.84", "name": "N717J", "site-plan-url": "https://maps.birmingham.gov.uk/webapps/shlaa/", "slug": "/brownfield-land/local-authority-eng/BIR/N717J", "entry-date": "2019-12-31"}}