{"type": "Feature", "geometry": {"type": "Point", "coordinates": [-0.098473, 51.369906]}, "properties": {"minimum-net-dwellings": "180", "planning-permission-status": "not permissioned", "hectares": "0.23", "site-address": "4-20 Edridge Road", "name": "32", "deliverable": "yes", "start-date": "2017-12-31", "organisation": "local-authority-eng:CRY", "maximum-net-dwellings": "220", "notes": "Residential development. https://www.croydon.gov.uk/sites/default/files/articles/downloads/Croydon%20Local%20Plan%202018_0.pdf", "point": "POINT(-0.098473 51.369906)", "site": "32", "ownership-status": "not owned by a public authority", "site-plan-url": "http://www.planvu.co.uk/croydon2016/index.php?map=proposed", "slug": "/brownfield-land/local-authority-eng/CRY/32", "entry-date": "2018-11-30"}}