{"type": "Feature", "geometry": {"type": "Point", "coordinates": [-2.057304, 52.488983]}, "properties": {"resource": "ecfd6677b9cd844ac035e4bd72b63d9242c8865eeaa93dc6ab305c87884af9be", "site-address": "Former school site, Doulton Road, Rowley Regis", "deliverable": "", "end-date": "", "entry-date": "2016-06-30", "hazardous-substances": "", "hectares": "1.06", "maximum-net-dwellings": "20", "minimum-net-dwellings": "20", "notes": "18 under construction", "organisation": "local-authority-eng:SAW", "ownership-status": "", "planning-permission-date": "2016-05-27", "planning-permission-history": "", "planning-permission-status": "", "planning-permission-type": "full planning permission", "point": "POINT(-2.057304 52.488983)", "site": "3139", "site-plan-url": "http://www.sandwell.gov.uk/info/200317/planning_policy/3809/sandwell_brownfield_register", "start-date": "2016-06-30", "id": "3139"}}