{"type": "Feature", "geometry": {"type": "Point", "coordinates": [-0.468093, 51.636437]}, "properties": {"resource": "942442c1cc0dddfd08740a74feb6ca286d1afde55bb5e0d87ada268c0df4aca0", "site-address": "Bridge Motors, Church Street, Rickmansworth", "deliverable": "", "end-date": "", "entry-date": "2017-12-12", "hazardous-substances": "", "hectares": "0.12", "maximum-net-dwellings": "13", "minimum-net-dwellings": "10", "notes": "", "organisation": "local-authority-eng:THE", "ownership-status": "not owned by a public authority", "planning-permission-date": "", "planning-permission-history": "http://www3.threerivers.gov.uk/online-applications/applicationDetails.do?activeTab=summary&keyVal=7300799DC", "planning-permission-status": "not permissioned", "planning-permission-type": "", "point": "POINT(-0.468093 51.636437)", "site": "BR20", "site-plan-url": "http://www.threerivers.gov.uk/download?id=41358", "start-date": "2017-12-12", "id": "942442c1cc0dddfd08740a74feb6ca286d1afde55bb5e0d87ada268c0df4aca0:45247"}}