{"type": "Feature", "geometry": {"type": "Point", "coordinates": [-0.191378, 51.53532]}, "properties": {"planning-permission-status": "permissioned", "planning-permission-date": "2014-05-28", "site": "13/05695/COFUL", "name": "13/05695/COFUL", "ownership-status": "owned by a public authority", "organisation": "local-authority-eng:WSM", "hectares": "1.19", "minimum-net-dwellings": "0", "site-plan-url": "https://lbhf.maps.arcgis.com/apps/View/index.html?appid=d0d51e7d013a4d1a953ecc1cff697d24&site=13/05695/COFUL", "planning-permission-type": "full planning permission", "start-date": "2020-07-23", "point": "POINT(-0.191378 51.53532)", "maximum-net-dwellings": "0", "site-address": "Tollgate Gardens Estate Oxford Road London NW6 5SN", "notes": "Demolition of Godwin and Wingfield Houses and ancillary garages in connection with the Estate Regeneration to provide 248 residential units within five new buildings of between 2-9 storeys and the retention of Tollgate House with associated external alterations, construction of a new single storey community centre and associated car parking, landscaping and open space. (Councils Own Development). http://idoxpa.westminster.gov.uk/online-applications/applicationDetails.do?activeTab=summary&keyVal=MODSB7RP0B100", "planning-permission-history": "http://idoxpa.westminster.gov.uk/online-applications/applicationDetails.do?activeTab=summary&keyVal=MODSB7RP0B100", "slug": "/brownfield-land/local-authority-eng/WSM/13-05695-COFUL", "entity": 499830, "entry-date": "2020-07-23"}}