{"type": "Feature", "geometry": {"type": "Point", "coordinates": [-2.504097, 51.475225]}, "properties": {"resource": "d07e2c1bc437439fb00ca65b10544793b42cebc346d57373964fd91a631fafe9", "site-address": "Kerr House Residential Home 50 Morley Road Staple Hill South Gloucestershire BS16 4QD", "deliverable": "yes", "end-date": "", "entry-date": "2017-12-31", "hazardous-substances": "", "hectares": "0.32", "maximum-net-dwellings": "21", "minimum-net-dwellings": "21", "notes": "Erection of 21no. dwellings with access, landscaping and associated works", "organisation": "local-authority-eng:SGC", "ownership-status": "not owned by a public authority", "planning-permission-date": "2017-05-19", "planning-permission-history": "http://developments.southglos.gov.uk/online-applications/applicationDetails.do?activeTab=summary&keyVal=OFAY16OKHLV00", "planning-permission-status": "permissioned", "planning-permission-type": "full planning permission", "point": "POINT(-2.504097 51.475225)", "site": "109", "site-plan-url": "http://developments.southglos.gov.uk/online-applications/applicationDetails.do?activeTab=map&keyVal=OFAY16OKHLV00", "start-date": "2017-12-31", "id": "d07e2c1bc437439fb00ca65b10544793b42cebc346d57373964fd91a631fafe9:55598"}}