{"type": "Feature", "geometry": {"type": "Point", "coordinates": [-0.976994, 50.85898]}, "properties": {"planning-permission-history": "https://planningpublicaccess.havant.gov.uk/online-applications/propertyDetails.do?activeTab=relatedCases&keyVal=PROPLPI_2054_4", "name": "HB70", "point": "POINT(-0.976994 50.85898)", "organisation": "local-authority-eng:HAA", "planning-permission-date": "2015-12-18", "hectares": "2.26", "deliverable": "yes", "start-date": "2017-12-08", "notes": "HAVANT HEALTH AND WELLBEING CAMPUS, COMPRISING AN 80 BED NURSING HOME, 51 AFFORDABLE EXTRA CARE FLATS, 48 AFFORDABLE AND MARKET SUPPORTED LIVING FLATS & COMMUNITY HUB FACILITIES", "minimum-net-dwellings": "99", "planning-permission-status": "permissioned", "site": "HB70", "site-plan-url": "http://www.havant.gov.uk/evidence-base-studies/strategic-housing-land-availability-assessment", "site-address": "LAND AT FORMER OAK PARK SCHOOL HAVANT", "planning-permission-type": "full planning permission", "maximum-net-dwellings": "99", "slug": "/brownfield-land/local-authority-eng/HAA/HB70", "entry-date": "2017-12-08"}}