{"type": "Feature", "geometry": {"type": "Point", "coordinates": [-2.082691, 52.600176]}, "properties": {"resource": "d1ea336f6fd8dd1e8e9cfd16517a7bcd55ddcf8f06dd67839b3c95d15b40cd16", "name": "38710", "site-address": "The Angel Car Park, High Street, Wednesfield", "deliverable": "", "end-date": "", "entry-date": "2017-01-01", "hazardous-substances": "", "hectares": "0.05", "maximum-net-dwellings": "", "minimum-net-dwellings": "", "notes": "", "organisation": "local-authority-eng:WLV", "ownership-status": "", "planning-permission-date": "", "planning-permission-history": "", "planning-permission-status": "permissioned", "planning-permission-type": "", "point": "POINT(-2.082691 52.600176)", "site": "38710", "site-plan-url": "", "start-date": "2017-01-01", "slug": "/brownfield-land/local-authority-eng/WLV/38710", "href": "local-authority-eng/WLV/38710"}}