{"type": "Feature", "geometry": {"type": "Point", "coordinates": [-5.53731, 50.117336]}, "properties": {"name": "BR69", "site": "BR69", "organisation": "local-authority-eng:CON", "point": "POINT(-5.53731 50.117336)", "start-date": "2017-12-12", "notes": "The refurbishment of level 5 into the entrances and bedrooms for the 2 existing approved residential units plus 4 additional residential units", "planning-permission-date": "2016-06-28", "minimum-net-dwellings": "6", "site-address": "PZ360 St Marys Terrace Penzance Cornwall TR18 4DZ", "planning-permission-status": "permissioned", "maximum-net-dwellings": "6", "ownership-status": "not owned by a public authority", "planning-permission-type": "full planning permission", "deliverable": "yes", "site-plan-url": "https://map.cornwall.gov.uk/website/ccmap/?zoomlevel=1&xcoord=162690&ycoord=64380&wsName=ccmap&layerName", "hectares": "0.08", "planning-permission-history": "http://planning.cornwall.gov.uk/online-applications/", "slug": "/brownfield-land/local-authority-eng/CON/BR69", "entity": 480368, "entry-date": "2017-12-12"}}