{"type": "Feature", "geometry": {"type": "Point", "coordinates": [1.341487, 52.223255]}, "properties": {"resource": "d319ddf23371dfa619f399bc6ac231b78dd4cb58f51b3d047551336f50299e03", "site-address": "Atlasfram Group Ltd, New Road, Framlingham", "deliverable": "", "end-date": "", "entry-date": "2019-12-30", "hazardous-substances": "", "hectares": "0.44", "maximum-net-dwellings": "16", "minimum-net-dwellings": "16", "notes": "13 built", "organisation": "local-authority-eng:ESK", "ownership-status": "not owned by a public authority", "planning-permission-date": "2016-04-07", "planning-permission-history": "https://publicaccess.eastsuffolk.gov.uk/online-applications/applicationDetails.do?keyVal=NOA8Y9QXIHY00&activeTab=summary", "planning-permission-status": "permissioned", "planning-permission-type": "full planning permission", "point": "POINT(1.341487 52.223255)", "site": "ES064", "site-plan-url": "http://eastsuffolk.maps.arcgis.com/apps/MapJournal/index.html?appid=6eb61ef7c03744668814fba6f1587f4e", "start-date": "2019-12-30", "id": "d319ddf23371dfa619f399bc6ac231b78dd4cb58f51b3d047551336f50299e03:10498"}}