{"type": "Feature", "geometry": {"type": "Point", "coordinates": [-2.148263, 52.569157]}, "properties": {"resource": "3938ddedb2fedca20fa409e23118564ff80bfd283b05852eb5d968affc13697d", "site-address": "Beckminster Club 22 Coalway Road Wolverhampton West Midlands WV3 7LX", "deliverable": "", "end-date": "", "entry-date": "2018-05-22", "hazardous-substances": "", "hectares": "0.113", "maximum-net-dwellings": "", "minimum-net-dwellings": "", "notes": "", "organisation": "local-authority-eng:WLV", "ownership-status": "", "planning-permission-date": "", "planning-permission-history": "", "planning-permission-status": "permissioned", "planning-permission-type": "", "point": "POINT(-2.148263 52.569157)", "site": "37620", "site-plan-url": "", "start-date": "", "id": "37620"}}