{"type": "Feature", "geometry": {"type": "Point", "coordinates": [-3.150974, 51.150994]}, "properties": {"minimum-net-dwellings": "57", "ownership-status": "not owned by a public authority", "organisation": "local-authority-eng:SEG", "site-address": "Land And Buildings At, Cricketer Farm, Cannington Road, Nether Stowey, Bridgwater, TA5 1LL", "maximum-net-dwellings": "110", "planning-permission-history": "http://www.sedgemoor.gov.uk/Planning_Online/Details.aspx?App=36/16/00030", "deliverable": "yes", "start-date": "2017-11-27", "site": "H444", "site-plan-url": "http://webmaps.sedgemoor.gov.uk/connect/analyst/mobile/#/main?mapcfg=brownfield_register&x=319594.33&y=139711.76&zoom=10", "point": "POINT(-3.150974 51.150994)", "notes": "Hybrid application 36/16/00030 granted permission. Assessed in latest SHLAA. May have potential for larger number of dwellings.. Change of use and conversion of buildings to form 7 residential units and erection of up to 50 residential units.. https://www.sedgemoor.gov.uk/shlaa", "name": "H444", "planning-permission-status": "permissioned", "hectares": "3.33", "slug": "/brownfield-land/local-authority-eng/SEG/H444", "entry-date": "2018-11-27", "planning-permission-date": "2017-12-22", "planning-permission-type": "other"}}