{"type": "Feature", "geometry": {"type": "Point", "coordinates": [-2.526657, 53.575019]}, "properties": {"site-plan-url": "http://mappinggm.org.uk/gmodin/", "ownership-status": "not owned by a public authority", "site": "HLA-175", "planning-permission-date": "2015-03-03", "planning-permission-status": "permissioned", "name": "HLA-175", "site-address": "Car Sales Adjacent To Bromilow Arms, Lostock Lane, Lostock, Bolton, BL6 4BP", "notes": "ERECTION OF 8 HOUSES AND 6 APARTMENTS 93385/14. http://mappinggm.org.uk/gmodin/", "organisation": "local-authority-eng:BOL", "hectares": "0.17", "planning-permission-type": "outline planning permission", "maximum-net-dwellings": "14", "minimum-net-dwellings": "14", "planning-permission-history": "https://www.planningpa.bolton.gov.uk/online-applications-17/search.do?action=simple&searchType=Application", "start-date": "2017-12-31", "point": "POINT(-2.526657 53.575019)", "deliverable": "yes", "slug": "/brownfield-land/local-authority-eng/BOL/HLA-175", "entry-date": "2017-12-31"}}