{"type": "Feature", "geometry": {"type": "Point", "coordinates": [-0.090808, 51.345465]}, "properties": {"resource": "c9efead8107b7fdb58be9dd4117badd72df58f56a9137ea12110b570fd200003", "site-address": "1a West Hill", "deliverable": "yes", "end-date": "", "entry-date": "2018-11-30", "hazardous-substances": "", "hectares": "0.109", "maximum-net-dwellings": "9", "minimum-net-dwellings": "9", "notes": "Demolition of existing dwelling and erection of two storey building with accomodation in roofspace and basement comprising 7 two bedroom,1 three bedroom and 1 one bedroom flats : formation of vehicular access and provision of 8 parking spaces, refuse store and bike storage. https://publicaccess3.croydon.gov.uk/online-applications/applicationDetails.do?keyVal=OZI42WJLHFC00&activeTab=summary", "organisation": "local-authority-eng:CRY", "ownership-status": "not owned by a public authority", "planning-permission-date": "2018-01-25", "planning-permission-history": "https://publicaccess3.croydon.gov.uk/online-applications/applicationDetails.do?keyVal=OZI42WJLHFC00&activeTab=summary", "planning-permission-status": "permissioned", "planning-permission-type": "full planning permission", "point": "POINT(-0.090808 51.345465)", "site": "17/05708/FUL", "site-plan-url": "https://publicaccess3.croydon.gov.uk/online-applications/applicationDetails.do?keyVal=OZI42WJLHFC00&activeTab=summary", "start-date": "2018-11-30", "id": "17-05708-FUL"}}