{"type": "Feature", "geometry": {"type": "Point", "coordinates": [-2.091964, 52.508859]}, "properties": {"planning-permission-history": "https://mapping.dudley.gov.uk/atMyDudley.aspx", "start-date": "2020-03-12", "hectares": "2.21", "site": "DEVOPP0120", "minimum-net-dwellings": "74", "site-plan-url": "https://mapping.dudley.gov.uk/atMyDudley.aspx?MapSource=DMBC/AllMaps&SearchLayer=brownfield_register&SearchField=br_reference&SearchValue=DEVOPP0120", "site-address": "Site at Wellington Road and Dock Lane, Dudley", "maximum-net-dwellings": "74", "point": "POINT(-2.091964 52.508859)", "ownership-status": "not owned by a public authority", "name": "DEVOPP0120", "planning-permission-status": "not permissioned", "organisation": "local-authority-eng:DUD", "slug": "/brownfield-land/local-authority-eng/DUD/DEVOPP0120", "entry-date": "2020-03-12"}}