{"type": "Feature", "geometry": {"type": "Point", "coordinates": [-2.143919, 52.992762]}, "properties": {"organisation": "local-authority-eng:STE", "minimum-net-dwellings": "14", "hectares": "0.23", "planning-permission-date": "2019-05-01", "name": "63564", "planning-permission-status": "permissioned", "site-plan-url": "https://webmaplayers.stoke.gov.uk/webmaplayers8/Map.aspx?MapName=SHLAA", "site-address": "Land to the rear of 400 King Street, Stoke-on-Trent, ST4 3DB", "ownership-status": "not owned by a public authority", "planning-permission-type": "full planning permission", "start-date": "2020-04-01", "maximum-net-dwellings": "14", "site": "63564", "deliverable": "yes", "point": "POINT(-2.143919 52.992762)", "slug": "/brownfield-land/local-authority-eng/STE/63564", "entry-date": "2020-04-01"}}