{"type": "Feature", "geometry": {"type": "Point", "coordinates": [-1.540539, 54.140666]}, "properties": {"resource": "ea371d852bf376c050e00acbe72461b5cf1363ccb5ebb6331e6aaa55acb22152", "site-address": "Ash Grove Industrial Estate, Ash Grove, Ripon", "deliverable": "yes", "end-date": "", "entry-date": "2017-10-04", "hazardous-substances": "", "hectares": "1.5", "maximum-net-dwellings": "36", "minimum-net-dwellings": "36", "notes": "Erection of 36 dwellings", "organisation": "local-authority-eng:HAG", "ownership-status": "not owned by a public authority", "planning-permission-date": "2017-11-30", "planning-permission-history": "https://uniformonline.harrogate.gov.uk/online-applications/applicationDetails.do?activeTab=map&keyVal=OILK07HYKH700", "planning-permission-status": "permissioned", "planning-permission-type": "full planning permission", "point": "POINT(-1.540539 54.140666)", "site": "BR44", "site-plan-url": "http://harrogatebc.maps.arcgis.com/apps/webappviewer/index.html?id=35605b223adf4a81b45b1a6e1f129a75&find=BR44", "start-date": "2017-10-04", "id": "ea371d852bf376c050e00acbe72461b5cf1363ccb5ebb6331e6aaa55acb22152:66691"}}