{"type": "Feature", "geometry": {"type": "Point", "coordinates": [-2.101582, 54.970118]}, "properties": {"resource": "5243981762fe6ab302e111b141981d97a4c25e05c918c34172f2aa9fb4be30bf", "site-address": "5 Battle Hill, Hexham", "deliverable": "", "end-date": "", "entry-date": "2017-12-17", "hazardous-substances": "", "hectares": "0.02", "maximum-net-dwellings": "5", "minimum-net-dwellings": "5", "notes": "Scheme for change of use to 1 three-bed and 4 two-bed dwellings consented but permission has now lapsed - 12/00255/FUL. Potential opportunity for redevelopment of existing listed buildings within town centre through urban infill - previous permission lapsed without commencement. High density of development would be fitting to reflect conversion scheme in the heart of the town. https://www.northumberland.gov.uk/NorthumberlandCountyCouncil/media/Planning-and-Building/planning%20policy/Studies%20and%20Evidence%20Reports/Housing%20Studies/1.%20SHLAA/Appendix-G-SHLAA-Sites-Summary-Assessment-Schedule.pdf", "organisation": "local-authority-eng:NBL", "ownership-status": "", "planning-permission-date": "2013-01-10", "planning-permission-history": "https://publicaccess.northumberland.gov.uk/online-applications/propertyDetails.do?activeTab=relatedCases&keyVal=00DRWSTGLI000", "planning-permission-status": "not permissioned", "planning-permission-type": "", "point": "POINT(-2.101582 54.970118)", "site": "6577", "site-plan-url": "http://northumberland.maps.arcgis.com/apps/webappviewer/index.html?id=c1b801d50f8040efbf8c9bc9f916cfae", "start-date": "2016-06-30", "id": "5243981762fe6ab302e111b141981d97a4c25e05c918c34172f2aa9fb4be30bf:19055"}}