{"type": "Feature", "geometry": {"type": "Point", "coordinates": [-1.171085, 52.973549]}, "properties": {"point": "POINT(-1.171085 52.973549)", "maximum-net-dwellings": "16", "site": "'2335", "site-plan-url": "http://maps.nottinghamcity.gov.uk/insightmapping/?l=0.21,9.63&xmin=455713.7000000002&xmax=455771.767&ymin=342099.80000000075&ymax=342148.7990000006", "organisation": "local-authority-eng:NGM", "planning-permission-date": "2017-04-18", "planning-permission-type": "full planning permission", "name": "'2335", "start-date": "2018-12-14", "hectares": "0.19", "site-address": "Djanogly Court, Chelsea Street, New Basford, Nottingham NG7 7JG", "planning-permission-status": "permissioned", "planning-permission-history": "http://publicaccess.nottinghamcity.gov.uk/online-applications/applicationDetails.do?activeTab=summary&keyVal=O1JVLSLYCB000", "minimum-net-dwellings": "16", "slug": "/brownfield-land/local-authority-eng/NGM/-2335", "entity": 488849, "entry-date": "2018-12-14"}}