{"type": "Feature", "geometry": {"type": "Point", "coordinates": [-2.1724, 53.8774]}, "properties": {"site-address": "Weston Electrical Units Ltd, County Brook Lane, Foulridge", "planning-permission-history": "https://publicaccess.pendle.gov.uk/online-applications/", "point": "POINT(-2.1724 53.8774)", "hectares": "0.99", "notes": "Full: Major: Demolition of commercial buildings, erection of twenty two dwelling houses (3 terraced, 16 semis and 3 detached) accessed off Station Road and Whitemoor Lane including estate roads. Work has not started at this site. No Building Control records available.", "organisation": "local-authority-eng:PEN", "planning-permission-type": "other", "site-plan-url": "https://www.pendle.gov.uk/downloads/download/3052/brownfield_register_site_plans", "planning-permission-date": "2015-07-10", "minimum-net-dwellings": "22", "ownership-status": "not owned by a public authority", "planning-permission-status": "not permissioned", "site": "FO034", "name": "FO034", "start-date": "2017-12-14", "deliverable": "yes", "maximum-net-dwellings": "22", "slug": "/brownfield-land/local-authority-eng/PEN/FO034", "entity": 490227, "entry-date": "2019-10-14"}}