{"type": "Feature", "geometry": {"type": "Point", "coordinates": [-1.405193, 54.076756]}, "properties": {"resource": "0fe7d8938c29638e82634712517d27fe66e07b09a08d6ff86fe100e67de3e8a0", "site-address": "Springbank Works, Minskip", "deliverable": "", "end-date": "", "entry-date": "2017-10-04", "hazardous-substances": "", "hectares": "0.91", "maximum-net-dwellings": "27", "minimum-net-dwellings": "27", "notes": "Erection of minimum of 27 dwellings", "organisation": "local-authority-eng:HAG", "ownership-status": "not owned by a public authority", "planning-permission-date": "", "planning-permission-history": "", "planning-permission-status": "Not permissioned", "planning-permission-type": "", "point": "POINT(-1.405193 54.076756)", "site": "BR29", "site-plan-url": "http://harrogatebc.maps.arcgis.com/apps/webappviewer/index.html?id=35605b223adf4a81b45b1a6e1f129a75&find=BR29", "start-date": "2017-10-04", "id": "0fe7d8938c29638e82634712517d27fe66e07b09a08d6ff86fe100e67de3e8a0:31889"}}