{"type": "Feature", "geometry": {"type": "Point", "coordinates": [-1.554022, 52.420112]}, "properties": {"maximum-net-dwellings": "5", "hectares": "0.05", "site": "S11", "organisation": "local-authority-eng:COV", "planning-permission-status": "not permissioned", "site-address": "658 Allesley Old Road", "planning-permission-type": "full planning permission", "minimum-net-dwellings": "5", "deliverable": "yes", "name": "S11", "planning-permission-date": "2011-01-05", "planning-permission-history": "http://planning.coventry.gov.uk/portal/servlets/ApplicationSearchServlet?PKID=726364", "point": "POINT(-1.554022 52.420112)", "notes": "commercial property as part of wider car sales and storage", "site-plan-url": "http://www.coventry.gov.uk/downloads/file/19663/lp53_shlaa_2016_report_and_appendices", "slug": "/brownfield-land/local-authority-eng/COV/S11", "entity": 480563, "entry-date": "2019-11-30"}}