{"type": "Feature", "geometry": {"type": "Point", "coordinates": [-0.284888, 51.592393]}, "properties": {"resource": "74c7b0f00404598a9a822077017d74ac25cbbfdbce2166986d805e62a8350d58", "site-address": "Clock Cottage, Kenton Road, HA3", "deliverable": "yes", "end-date": "", "entry-date": "2019-12-13", "hazardous-substances": "", "hectares": "3.69", "maximum-net-dwellings": "17", "minimum-net-dwellings": "17", "notes": "16/3294", "organisation": "local-authority-eng:BEN", "ownership-status": "owned by a public authority", "planning-permission-date": "2017-01-18", "planning-permission-history": "https://pa.brent.gov.uk/online-applications/simpleSearchResults.do?action=firstPage", "planning-permission-status": "permissioned", "planning-permission-type": "full planning permission", "point": "POINT(-0.284888 51.592393)", "site": "BR00062", "site-plan-url": "https://maps.london.gov.uk/brownfield-site-register", "start-date": "2017-12-15", "id": "74c7b0f00404598a9a822077017d74ac25cbbfdbce2166986d805e62a8350d58:11658"}}