{"type": "Feature", "geometry": {"type": "Point", "coordinates": [-0.213217, 51.531889]}, "properties": {"resource": "74c7b0f00404598a9a822077017d74ac25cbbfdbce2166986d805e62a8350d58", "site-address": "133, Kilburn Lane, W10 4AN", "deliverable": "yes", "end-date": "", "entry-date": "2018-12-14", "hazardous-substances": "", "hectares": "0.098", "maximum-net-dwellings": "6", "minimum-net-dwellings": "6", "notes": "17/5358", "organisation": "local-authority-eng:BEN", "ownership-status": "not owned by a public authority", "planning-permission-date": "2018-09-06", "planning-permission-history": "https://pa.brent.gov.uk/online-applications/simpleSearchResults.do?action=firstPage", "planning-permission-status": "permissioned", "planning-permission-type": "full planning permission", "point": "POINT(-0.213217 51.531889)", "site": "BR00066", "site-plan-url": "https://maps.london.gov.uk/brownfield-site-register", "start-date": "2018-12-14", "id": "74c7b0f00404598a9a822077017d74ac25cbbfdbce2166986d805e62a8350d58:31183"}}