{"type": "Feature", "geometry": {"type": "Point", "coordinates": [-2.459714, 53.704939]}, "properties": {"notes": "Pre determination assessment may be required at technical details stage due to potential issues with noise, odour and light. EA to be consulted at techical details stage due to potential contaminants. Planning permission for 87 homes now expired.", "planning-permission-date": "2017-12-19", "hectares": "1.9", "maximum-net-dwellings": "114", "planning-permission-type": "permission in principle", "site": "6", "start-date": "2017-09-07", "organisation": "local-authority-eng:BBD", "name": "6", "ownership-status": "not owned by a public authority", "site-plan-url": "https://www.blackburn.gov.uk/sites/default/files/media/pdfs/06%20Hoddlesden%20Mill.pdf", "planning-permission-history": "http://planning.blackburn.gov.uk/northgate/documentexplorer/application/folderview.aspx?type=PLNP11_DC_PLANAPP&key=42863&iWgrnzsWW4I=aH8Pp24Bn4U=", "planning-permission-status": "permissioned", "point": "POINT(-2.459714 53.704939)", "site-address": "Hoddlesden Mill, Johnson New Road, Hoddlesden", "minimum-net-dwellings": "57", "slug": "/brownfield-land/local-authority-eng/BBD/6", "entry-date": "2020-06-30", "deliverable": "yes"}}