{"type": "Feature", "geometry": {"type": "Point", "coordinates": [-2.216455, 53.064898]}, "properties": {"hectares": "0.15", "organisation": "local-authority-eng:STE", "planning-permission-date": "2018-05-31", "site-plan-url": "https://webmaplayers.stoke.gov.uk/webmaplayers8/Map.aspx?MapName=SHLAA", "site-address": "Land adjacent to 18 Summerbank Road, Tunstall, Stoke-on-Trent, ST6 5EY", "start-date": "2019-09-26", "ownership-status": "not owned by a public authority", "maximum-net-dwellings": "10", "site": "62172", "point": "POINT(-2.216455 53.064898)", "minimum-net-dwellings": "10", "deliverable": "yes", "planning-permission-type": "outline planning permission", "planning-permission-status": "permissioned", "name": "62172", "slug": "/brownfield-land/local-authority-eng/STE/62172", "entry-date": "2019-09-26"}}