{"type": "Feature", "geometry": {"type": "Point", "coordinates": [-2.595933, 51.441156]}, "properties": {"maximum-net-dwellings": "143", "planning-permission-type": "outline planning permission", "point": "POINT(-2.595933 51.441156)", "planning-permission-date": "2017-06-21", "planning-permission-history": "https://pa.bristol.gov.uk/online-applications/applicationDetails.do?keyVal=MXE9YBDNK8000&activeTab=summary", "name": "13/05616/P", "notes": "Alternative site reference: O10_1333A", "site": "13/05616/P", "minimum-net-dwellings": "143", "site-plan-url": "https://pa.bristol.gov.uk/online-applications/applicationDetails.do?activeTab=map&keyVal=MXE9YBDNK8000", "hectares": "0.41", "start-date": "2017-12-19", "site-address": "St Catherines Place Shopping Centre East Street Bedminster Bristol", "organisation": "local-authority-eng:BST", "planning-permission-status": "permissioned", "slug": "/brownfield-land/local-authority-eng/BST/13-05616-P", "entry-date": "2020-12-18", "deliverable": "yes"}}