{"type": "Feature", "geometry": {"type": "Point", "coordinates": [-0.066908, 51.468022]}, "properties": {"notes": "Construction of a mansard extension to Rye Lane facing building and construction of a two storey extension to face Bournemouth Close to provide three flats (1xstudio, 1x1-bedroom and 1x2-bedroom units) together with alterations at ground floor level to provide cycle and refuse storage accessible from Bournemouth Close", "name": "18-AP-2792", "hectares": "0.011", "maximum-net-dwellings": "3", "minimum-net-dwellings": "3", "planning-permission-date": "2018-11-07", "site-address": "189,Rye Lane,,SE15 4TP", "point": "POINT(-0.066908 51.468022)", "start-date": "2020-03-24", "organisation": "local-authority-eng:SWK", "site": "18-AP-2792", "slug": "/brownfield-land/local-authority-eng/SWK/18-AP-2792", "entity": 495961, "entry-date": "2020-03-24"}}