{"type": "Feature", "geometry": {"type": "Point", "coordinates": [-0.158565, 51.275714]}, "properties": {"hectares": "0.95", "site": "RBBCBLR127", "planning-permission-status": "permissioned", "organisation": "local-authority-eng:REI", "site-address": "Harps Oak House, 180 London Road North, Merstham", "start-date": "2019-12-31", "maximum-net-dwellings": "5", "planning-permission-type": "full planning permission", "point": "POINT(-0.158565 51.275714)", "ownership-status": "not owned by a public authority", "planning-permission-history": "https://planning.reigate-banstead.gov.uk/online-applications/propertyDetails.do?activeTab=relatedCases&keyVal=0008LNMVLI000", "site-plan-url": "http://www.reigate-banstead.gov.uk/downloads/file/5943/rbbcblr127", "minimum-net-dwellings": "5", "deliverable": "yes", "planning-permission-date": "2019-04-18", "notes": "Planning permission (18/02456/F) and listed buildings consent (18/02457/LBC) granted 2019-04-18 for alteration (including partial rebuilding of the north wing), repair, refurbishment and conversion of Grade I Listed Harps Oak House to create four residential dwellings and the rebuilding, extension and conversion of the associated outbuildings to create a further two residential dwellings.", "name": "RBBCBLR127", "slug": "/brownfield-land/local-authority-eng/REI/RBBCBLR127", "entity": 491466, "entry-date": "2020-12-31"}}