{"type": "Feature", "geometry": {"type": "Point", "coordinates": [-0.206717, 51.097458]}, "properties": {"resource": "e091db1ff7881f03430ff41d27ebb5603bd085be858e8d55f8b396fd7ab0ecea", "site-address": "The Imperial, Broadfield Barton, Broadfield, Crawley", "deliverable": "yes", "end-date": "", "entry-date": "2019-12-17", "hazardous-substances": "", "hectares": "0.1", "maximum-net-dwellings": "19", "minimum-net-dwellings": "19", "notes": "Benefits from planning permission CR/2017/0519/FUL: 'Demolition of the existing public house and associated flat and the erection of a five storey mixed use development consisting of 7 x one bedroom and 12 x two bedroom flats, 1 x drinking establishment (A4 use) and 2 x retail units (A1 use), with lower ground floor parking (amended description and plans).' Minimum figure of 19 is on the assumption of implementation of approved scheme CR/2017/0519/FUL.", "organisation": "local-authority-eng:CRW", "ownership-status": "not owned by a public authority", "planning-permission-date": "2018-11-22", "planning-permission-history": "", "planning-permission-status": "permissioned", "planning-permission-type": "full planning permission", "point": "POINT(-0.206717 51.097458)", "site": "CBCBLR039", "site-plan-url": "http://www.crawley.gov.uk/pw/web/PUB354223", "start-date": "2019-12-11", "id": "e091db1ff7881f03430ff41d27ebb5603bd085be858e8d55f8b396fd7ab0ecea:20747"}}