{"type": "Feature", "geometry": {"type": "Point", "coordinates": [-0.6826, 51.3588]}, "properties": {"resource": "a08a14445fb6c748bfb035a9f8ba40285af8862357a70cfacf14ad1db74b87d7", "site-address": "Kennels, 79 Guildford Road, Bagshot", "deliverable": "yes", "end-date": "", "entry-date": "2017-12-18", "hazardous-substances": "", "hectares": "0.27", "maximum-net-dwellings": "6", "minimum-net-dwellings": "6", "notes": "Demolition of boarding kennels and erection of six 3 bed dwelling houses.. http://www.surreyheath.gov.uk/sites/default/files/documents/residents/planning/planning-policy/SLAA2017/4SLAA2017Ap2BagshotSiteAssmts.pdf", "organisation": "local-authority-eng:SUR", "ownership-status": "", "planning-permission-date": "2015-03-10", "planning-permission-history": "", "planning-permission-status": "permissioned", "planning-permission-type": "", "point": "POINT(-0.6826 51.3588)", "site": "SHBR4", "site-plan-url": "http://www.surreyheath.gov.uk/sites/default/files/documents/residents/planning/planning-policy/SLAA2017/4SLAA2017Ap2BagshotSiteAssmts.pdf", "start-date": "2017-12-18", "id": "a08a14445fb6c748bfb035a9f8ba40285af8862357a70cfacf14ad1db74b87d7:61431"}}