{"type": "Feature", "geometry": {"type": "Point", "coordinates": [-2.958305, 53.538314]}, "properties": {"resource": "9a3ad29f571004785999d4d310a16ee47c6e318c628ec504f3740c2a781f0a1a", "site-address": "Oak Lea Racing Stables, Southport Road, Lydiate", "deliverable": "yes", "end-date": "", "entry-date": "2017-10-17", "hazardous-substances": "", "hectares": "0.97", "maximum-net-dwellings": "0", "minimum-net-dwellings": "0", "notes": "Racing stables. Replacement buildings for brownfield in the Green Belt. Permission for 5 dwellings.. Erection of five detached dwellinghouses after demolition of existing buildings", "organisation": "local-authority-eng:SFT", "ownership-status": "not owned by a public authority", "planning-permission-date": "2016-04-28", "planning-permission-history": "http://pa.sefton.gov.uk/online-applications/applicationDetails.do?activeTab=summary&keyVal=NYGRKYNWHQ300", "planning-permission-status": "permissioned", "planning-permission-type": "full planning permission", "point": "POINT(-2.958305 53.538314)", "site": "M0045", "site-plan-url": "http://maps.sefton.gov.uk/webmaplayers/?x=336557&y=405022&resolution=0.5&epsg=27700&mapname=smbc&baseLayer=ColourMapping&datalayers=Sefton%20Boundary%2CBrownfield%20Land%20Register%202017%2CselectFeaturesControl_container", "start-date": "2017-10-17", "id": "9a3ad29f571004785999d4d310a16ee47c6e318c628ec504f3740c2a781f0a1a:42784"}}