{"type": "Feature", "geometry": {"type": "Point", "coordinates": [-1.373292, 53.100504]}, "properties": {"name": "BFLR0007", "planning-permission-date": "2015-05-14", "site-address": "Land at Salcombe Road Alfreton", "start-date": "2017-12-06", "site-plan-url": "http://info.ambervalley.gov.uk/maps/brownfieldmap.html?lat=53.1005040651&lng=-1.3732924756", "organisation": "local-authority-eng:AMB", "planning-permission-status": "permissioned", "point": "POINT(-1.373292 53.100504)", "maximum-net-dwellings": "21", "notes": "The site is currently under construction. erection of new 21 dwellings consisting of 13 two storey dwellings and 8 maisonettes", "planning-permission-history": "https://www.ambervalley.gov.uk/planning/development-management/view-a-planning-application?appNumber=AVA-2014-0791", "deliverable": "yes", "planning-permission-type": "full planning permission", "minimum-net-dwellings": "21", "ownership-status": "not owned by a public authority", "site": "BFLR0007", "hectares": "0.34", "slug": "/brownfield-land/local-authority-eng/AMB/BFLR0007", "entry-date": "2019-03-31"}}