{"type": "Feature", "geometry": {"type": "Point", "coordinates": [-0.092878, 51.375527]}, "properties": {"start-date": "2019-12-23", "ownership-status": "owned by a public authority", "organisation": "local-authority-eng:CRY", "notes": "Mixed use development including redevelopment of the existing railway station. http://www.planvu.co.uk/croydon2018/index.php?map=review", "deliverable": "yes", "site-address": "East Croydon Station", "site-plan-url": "http://www.planvu.co.uk/croydon2018/index.php?map=review", "site": "45", "hectares": "1.79", "planning-permission-status": "not permissioned", "name": "45", "point": "POINT(-0.092878 51.375527)", "slug": "/brownfield-land/local-authority-eng/CRY/45", "entry-date": "2019-12-23"}}