{"type": "Feature", "geometry": {"type": "Point", "coordinates": [-0.540546, 51.213835]}, "properties": {"resource": "7699b2e8b2c443162c13445e32f32bc35c51be4d256d6845581c5fa1f70f9af8", "site-address": "Land rear of 90 - 96, New Road, Chilworth, GU4 8LU", "deliverable": "yes", "end-date": "", "entry-date": "2019-11-01", "hazardous-substances": "", "hectares": "0.19", "maximum-net-dwellings": "5", "minimum-net-dwellings": "5", "notes": "Application ref. 18/P/02248. Erection of 5 dwellings (2 semi-detached & 3 terrace) with associated car parking and landscaping.", "organisation": "local-authority-eng:GRT", "ownership-status": "not owned by a public authority", "planning-permission-date": "2019-01-24", "planning-permission-history": "http://www2.guildford.gov.uk/publicaccess/applicationDetails.do?activeTab=documents&keyVal=_GUILD_DCAPR_184599", "planning-permission-status": "permissioned", "planning-permission-type": "full planning permission", "point": "POINT(-0.540546 51.213835)", "site": "BLR_082", "site-plan-url": "https://www2.guildford.gov.uk/ishare5.2.web/atsolomap_brownfield_land_register.html", "start-date": "2019-11-01", "id": "7699b2e8b2c443162c13445e32f32bc35c51be4d256d6845581c5fa1f70f9af8:31588"}}