{"type": "Feature", "geometry": {"type": "Point", "coordinates": [-2.633755, 54.106033]}, "properties": {"start-date": "2017-03-21", "site-address": "Barn north east of Ingleborough View, Hornby,", "hectares": "0.5", "point": "POINT(-2.633755 54.106033)", "site-plan-url": "http://www.lancaster.gov.uk/planning/planning-policy/brownfield-register", "planning-permission-status": "permissioned", "name": "236", "organisation": "local-authority-eng:LAC", "notes": "14/01030/FUL - Under construction", "site": "236", "maximum-net-dwellings": "9", "ownership-status": "not owned by a public authority", "planning-permission-history": "https://planning.lancaster.gov.uk/online-applications/", "minimum-net-dwellings": "9", "slug": "/brownfield-land/local-authority-eng/LAC/236", "entity": 485327, "entry-date": "2017-03-21"}}