{"type": "Feature", "geometry": {"type": "Point", "coordinates": [-0.177635, 50.839517]}, "properties": {"resource": "0abd8a357da3b458504a8e16969a1c7ede85e8b7ef2bdef274d382f1db4108fc", "site-address": "65 Orchard Gardens Hove", "deliverable": "yes", "end-date": "", "entry-date": "2019-12-16", "hazardous-substances": "", "hectares": "0.14", "maximum-net-dwellings": "23", "minimum-net-dwellings": "23", "notes": "Not Started 2019", "organisation": "local-authority-eng:BNH", "ownership-status": "not owned by a public authority", "planning-permission-date": "2018-08-07", "planning-permission-history": "https://planningapps.brighton-hove.gov.uk/online-applications/applicationDetails.do?activeTab=summary&keyVal=ODJWIODMH5100", "planning-permission-status": "permissioned", "planning-permission-type": "full planning permission", "point": "POINT(-0.177635 50.839517)", "site": "SHLAA6145", "site-plan-url": "https://new.brighton-hove.gov.uk/sites/default/files/planning_bc_regen/policy/brownfield-sites/shlaa6145-65-orchard-gardens-hove.pdf", "start-date": "2017-09-25", "id": "SHLAA6145"}}