{"type": "Feature", "geometry": {"type": "Point", "coordinates": [-0.061724, 51.407927]}, "properties": {"organisation": "local-authority-eng:BRY", "site-address": "130 Croydon Road SE20 7YZ-", "planning-permission-status": "permissioned", "site-plan-url": "https://searchapplications.bromley.gov.uk/online-applications/applicationDetails.do?activeTab=map&keyVal=OGO7FUBTJ8600", "name": "BLR45", "start-date": "2017-12-31", "hectares": "0.071", "planning-permission-date": "2017-05-12", "point": "POINT(-0.061724 51.407927)", "notes": "Construction of a four storey residential block comprising 8 two bedroom self-contained units.", "planning-permission-history": "https://searchapplications.bromley.gov.uk/online-applications/applicationDetails.do?activeTab=summary&keyVal=OGO7FUBTJ8600", "maximum-net-dwellings": "8", "site": "BLR45", "deliverable": "yes", "minimum-net-dwellings": "8", "planning-permission-type": "full planning permission", "slug": "/brownfield-land/local-authority-eng/BRY/BLR45", "entity": 478151, "entry-date": "2018-05-22"}}