{"type": "Feature", "geometry": {"type": "Point", "coordinates": [-0.184985, 52.326003]}, "properties": {"resource": "9a482681cd5cceb96153db3dde34c251ca999eb4870c73d84f8c197a968f3489", "site-address": "Land At And Including British Gas Plc, Mill Common, Huntingdon", "deliverable": "yes", "end-date": "", "entry-date": "2018-12-14", "hazardous-substances": "", "hectares": "0.6", "maximum-net-dwellings": "11", "minimum-net-dwellings": "11", "notes": "16/02093/FUL. Draft allocation HU7: Gas Depot, Mill Common, Huntingdon in the Local Plan to 2036.. Residential development for 11 dwellings and creation of access. http://huntsdc.objective.co.uk/portal/pp/hlp2036/cd2017/helaa2017?pointId=s1432199916927#s1432199916927", "organisation": "local-authority-eng:HUN", "ownership-status": "not owned by a public authority", "planning-permission-date": "2018-01-05", "planning-permission-history": "https://publicaccess.huntingdonshire.gov.uk/online-applications/propertyDetails.do?activeTab=relatedCases&keyVal=JNUP5ZIK03P00", "planning-permission-status": "permissioned", "planning-permission-type": "full planning permission", "point": "POINT(-0.184985 52.326003)", "site": "HDCBLR02", "site-plan-url": "https://publicaccess.huntingdonshire.gov.uk/online-applications/applicationDetails.do?activeTab=map&keyVal=OEF2OOIKHXA00", "start-date": "2017-12-20", "id": "HDCBLR02"}}