{"type": "Feature", "geometry": {"type": "Point", "coordinates": [-2.79585, 53.724453]}, "properties": {"name": "MF05", "planning-permission-date": "2017-03-22", "planning-permission-type": "reserved matters approval", "planning-permission-status": "permissioned", "hectares": "1.7", "site-plan-url": "https://www.southribble.gov.uk/content/housing-land-availability", "site-address": "The Maltings, Hill Road South", "deliverable": "yes", "ownership-status": "not owned by a public authority", "organisation": "local-authority-eng:SRI", "maximum-net-dwellings": "43", "notes": "07/2017/1266/REM - pending decision.. Reserved Matters application for the erection of 61 residential units comprising of dwellings and apartments with associated landscaping", "point": "POINT(-2.79585 53.724453)", "planning-permission-history": "http://publicaccess.southribble.gov.uk/online-applications/", "minimum-net-dwellings": "43", "site": "MF05", "start-date": "2017-09-20", "slug": "/brownfield-land/local-authority-eng/SRI/MF05", "entry-date": "2017-09-20"}}