{"type": "Feature", "geometry": {"type": "Point", "coordinates": [-1.521653, 53.776205]}, "properties": {"resource": "a3efc12b4374fc4d186f7998987cd390c269ce1c99ff3e43995a864ffa0cd03e", "site-address": "Rocheford Court, Pepper Lane, Hunslet, Leeds", "deliverable": "yes", "end-date": "", "entry-date": "2016-11-07", "hazardous-substances": "", "hectares": "0.34", "maximum-net-dwellings": "11", "minimum-net-dwellings": "11", "notes": "Residential development - 9 houses and 2 bungalows", "organisation": "local-authority-eng:LDS", "ownership-status": "owned by a public authority", "planning-permission-date": "2015-06-17", "planning-permission-history": "", "planning-permission-status": "permissioned", "planning-permission-type": "full planning permission", "point": "POINT(-1.521653 53.776205)", "site": "SHL00996", "site-plan-url": "https://leedscc.maps.arcgis.com/apps/webappviewer/index.html?id=612532561dc547fa93e683a5fca73079&find=SHL00996", "start-date": "2016-11-07", "id": "a3efc12b4374fc4d186f7998987cd390c269ce1c99ff3e43995a864ffa0cd03e:45816"}}