{"type": "Feature", "geometry": {"type": "Point", "coordinates": [-1.712498, 52.172494]}, "properties": {"site-address": "'Suite 3 Clifford Mill , Clifford Road , Clifford Chambers, Stratford-upon-Avon , CV37 8HW ''", "site-plan-url": "https://apps.stratford.gov.uk/eplanning/Map.aspx", "point": "POINT(-1.712498 52.172494)", "notes": "Change of use from office (use class B1) to 5 residential units (use class C3).\u02d9", "maximum-net-dwellings": "5", "organisation": "local-authority-eng:STR", "start-date": "2017-12-08", "planning-permission-date": "2016-07-26", "hectares": "0.03", "ownership-status": "not owned by a public authority", "minimum-net-dwellings": "5", "planning-permission-history": "https://apps.stratford.gov.uk/eplanning/PropDetail.aspx?ref=L31AYNPM03P01", "deliverable": "yes", "planning-permission-type": "full planning permission", "planning-permission-status": "permissioned", "name": "SDC00007", "site": "SDC00007", "slug": "/brownfield-land/local-authority-eng/STR/SDC00007", "entry-date": "2020-01-13"}}