{"type": "Feature", "geometry": {"type": "Point", "coordinates": [-1.434379, 54.902949]}, "properties": {"hectares": "0.3", "start-date": "2016-06-30", "organisation": "local-authority-eng:SND", "point": "POINT(-1.434379 54.902949)", "notes": "Permitted application ref. 13/03796/FUL. https://www.sunderland.gov.uk/media/19094/SHLAA-Appendices-Sunderland-South/pdf/13a_SHLAA_Appendices_-_Sunderland_South.pdf|https://www.sunderland.gov.uk/media/19089/Strategic-Land-Review-West/pdf/14C_Strategic_Land_Review_West.pdf", "name": "629", "planning-permission-status": "permissioned", "planning-permission-type": "full planning permission", "site": "629", "ownership-status": "not owned by a public authority", "site-address": "Site of former Ford & Hylton Social Club, Poole Road", "planning-permission-date": "2014-08-22", "minimum-net-dwellings": "14", "deliverable": "yes", "maximum-net-dwellings": "14", "site-plan-url": "https://www.sunderland.gov.uk/article/12739/Brownfield-Land-Register", "slug": "/brownfield-land/local-authority-eng/SND/629", "entry-date": "2017-11-30"}}