{"type": "Feature", "geometry": {"type": "Point", "coordinates": [-0.491149, 51.707391]}, "properties": {"deliverable": "yes", "site-address": "Garden Scene Nursery Chapel Croft Chipperfield", "maximum-net-dwellings": "15", "start-date": "2017-12-31", "notes": "4/00780/14/PRE 4/02659/06/PRE 4/00369/93/4 refer to simmonds nursery", "ownership-status": "not owned by a public authority", "site-plan-url": "http://bit.ly/Dacorum-BLR", "hectares": "0.81", "minimum-net-dwellings": "15", "planning-permission-status": "permissioned", "name": "BLR/022", "site": "BLR/022", "organisation": "local-authority-eng:DAC", "point": "POINT(-0.491149 51.707391)", "planning-permission-history": "http://www.dacorum.gov.uk/brownfield-land-register", "slug": "/brownfield-land/local-authority-eng/DAC/BLR-022", "entry-date": "2019-10-14", "planning-permission-date": "2019-07-29", "planning-permission-type": "full planning permission"}}