{"type": "Feature", "geometry": {"type": "Point", "coordinates": [-0.188385, 54.083106]}, "properties": {"resource": "d4a7936681636d97326ba063c841e1d0321d6cde37d329a699c06a5c1757e2ce", "site-address": "22-24 Promenade Bridlington", "deliverable": "yes", "end-date": "", "entry-date": "2017-12-04", "hazardous-substances": "", "hectares": "0.03", "maximum-net-dwellings": "9", "minimum-net-dwellings": "9", "notes": "16/02921/PLF (PP)", "organisation": "local-authority-eng:ERY", "ownership-status": "not owned by a public authority", "planning-permission-date": "2016-11-16", "planning-permission-history": "https://newplanningaccess.eastriding.gov.uk/newplanningaccess/PLAN/16/02921/PLF", "planning-permission-status": "permissioned", "planning-permission-type": "full planning permission", "point": "POINT(-0.188385 54.083106)", "site": "200", "site-plan-url": "http://www2.eastriding.gov.uk/environment/planning-and-building-control/east-riding-local-plan/housing-monitoring/#latest-shlaa-online", "start-date": "2017-12-04", "id": "200"}}