{"type": "Feature", "geometry": {"type": "Point", "coordinates": [0.443531, 51.571421]}, "properties": {"resource": "8337e6c353594d27078cdbacabb323cae315c68407042dcf0405f5483d8a7dd7", "site-address": "Garages to the north of 84 Falstones, Basildon. SS15 5BX", "deliverable": "yes", "end-date": "", "entry-date": "2017-08-07", "hazardous-substances": "", "hectares": "0.15", "maximum-net-dwellings": "5", "minimum-net-dwellings": "4", "notes": "Deliverable within 3 years. Within approx 1.9km of SSSI. 07/08/17.", "organisation": "local-authority-eng:BAI", "ownership-status": "owned by a public authority", "planning-permission-date": "", "planning-permission-history": "", "planning-permission-status": "not permissioned", "planning-permission-type": "", "point": "POINT(0.443531 51.571421)", "site": "BAS0033", "site-plan-url": "http://www.basildon.gov.uk/CHttpHandler.ashx?id=7762&p=0", "start-date": "2017-08-07", "id": "8337e6c353594d27078cdbacabb323cae315c68407042dcf0405f5483d8a7dd7:35341"}}