{"type": "Feature", "geometry": {"type": "Point", "coordinates": [-0.220321, 51.523284]}, "properties": {"deliverable": "yes", "hectares": "0.07", "name": "RBKC038", "planning-permission-date": "2017-02-14", "planning-permission-type": "full planning permission", "minimum-net-dwellings": "5", "start-date": "2017-12-31", "organisation": "local-authority-eng:KEC", "notes": "Demolition of single storey extension and construction of three storey extension to eastern side to include 5 x residential apartments. Construction of additional single storey building to rear.", "site-address": "Ladbroke Hall South Wing 79 Barlby Road W10 6AZ", "maximum-net-dwellings": "5", "ownership-status": "not owned by a public authority", "site-plan-url": "https://lbhf.maps.arcgis.com/apps/webappviewer/index.html?id=931fa3b3294b4147a518648579b12d4a", "planning-permission-history": "https://www.rbkc.gov.uk/PP/16/08360", "point": "POINT(-0.220321 51.523284)", "planning-permission-status": "permissioned", "site": "RBKC038", "slug": "/brownfield-land/local-authority-eng/KEC/RBKC038", "entry-date": "2019-12-31"}}