{"type": "Feature", "geometry": {"type": "Point", "coordinates": [-0.24481, 51.598138]}, "properties": {"resource": "53ff7410d03797e7747d4df128ca450bbe808f4eacc79d0e2d18623ab4a99554", "site-address": "Phase 1B, Grahame Park Estate, Colindale, London NW9", "deliverable": "yes", "end-date": "", "entry-date": "2017-12-04", "hazardous-substances": "", "hectares": "4.0295903881999999", "maximum-net-dwellings": "441", "minimum-net-dwellings": "441", "notes": "Part of W01731JS/04 outline planning permission. Reserved matters application seeking approval for design, external appearance and landscaping for Phase 1B of the Grahame Park Estate Regeneration comprising 441 residential units (excluding Block A9)", "organisation": "local-authority-eng:BNE", "ownership-status": "not owned by a public authority", "planning-permission-date": "2012-02-21", "planning-permission-history": "", "planning-permission-status": "permissioned", "planning-permission-type": "reserved matters approval", "point": "POINT(-0.24481 51.598138)", "site": "H/00308/11", "site-plan-url": "https://maps.london.gov.uk/brownfield-site-register", "start-date": "2017-12-04", "id": "H-00308-11"}}