{"type": "Feature", "geometry": {"type": "Point", "coordinates": [-0.196463, 51.576294]}, "properties": {"ownership-status": "not owned by a public authority", "notes": "Extension to the time limit for implementing planning permission C/06012/AJ/07 dated 06/05/08 for 'Demolition of building and erection of a 5 storey building with offices (Class A2) at ground floor and 9 self contained flats on upper floors. Provision of", "point": "POINT(-0.196463 51.576294)", "site-plan-url": "https://maps.london.gov.uk/brownfield-site-register", "minimum-net-dwellings": "9", "maximum-net-dwellings": "9", "start-date": "2017-12-19", "deliverable": "yes", "planning-permission-type": "full planning permission", "planning-permission-date": "2011-05-06", "hectares": "0.06", "site-address": "698 Finchley Road, London", "site": "F/00550/11", "name": "F/00550/11", "planning-permission-status": "permissioned", "organisation": "local-authority-eng:BNE", "slug": "/brownfield-land/local-authority-eng/BNE/F-00550-11", "entry-date": "2017-12-19"}}