{"type": "Feature", "geometry": {"type": "Point", "coordinates": [-2.776039, 53.263797]}, "properties": {"resource": "9b4bf51edb0fde008239fa4a284e2dcee2b3db7151f1a1407174fdfe481d21f8", "site-address": "MERE'S EDGE (Phase 4) site of existing Helsby Community Sports Club, between chester Road and Hornsmill Brook, Heslby", "deliverable": "", "end-date": "", "entry-date": "2017-12-21", "hazardous-substances": "", "hectares": "1.596", "maximum-net-dwellings": "120", "minimum-net-dwellings": "120", "notes": "08/02901/OUM 14/04044/OUT. Outline application for the construction of 96 dwellings, with associated highway improvements and landscaping. 2014 application permitted December 2015 for 120 dwellings with open space, access and associated infrastructure (incl demolition of existing buildings). 30 additional units also reamaing in permission 08/02901/OUM", "organisation": "local-authority-eng:CHW", "ownership-status": "not owned by a public authority", "planning-permission-date": "2015-12-03", "planning-permission-history": "", "planning-permission-status": "permissioned", "planning-permission-type": "outline planning permission", "point": "POINT(-2.776039 53.263797)", "site": "HEL/0029(a)", "site-plan-url": "http://consult.cheshirewestandchester.gov.uk/portal/cwc_ldf/land/blr?tab=files", "start-date": "2017-12-21", "id": "local-authority-eng/CHW/HEL-0029-a-"}}