{"type": "Feature", "geometry": {"type": "Point", "coordinates": [-1.88566, 52.24606]}, "properties": {"ownership-status": "not owned by a public authority", "planning-permission-date": "2008-08-11", "deliverable": "yes", "name": "SDC00068", "notes": "Proposed first floor extension to provide additional bedrooms and proposed replacement cottage to provide managers accommodation and disabled bedroom.", "planning-permission-history": "https://apps.stratford.gov.uk/eplanning/AppDetail.aspx?appkey=JYALSZPM08800", "minimum-net-dwellings": "1", "planning-permission-type": "full planning permission", "planning-permission-status": "permissioned", "organisation": "local-authority-eng:STR", "point": "POINT(-1.88566 52.24606)", "maximum-net-dwellings": "1", "start-date": "2020-01-13", "site": "SDC00068", "site-address": "Thockmorton Arms, Coughton Hill, Coughton, B49 5HX''", "hectares": "2.22", "site-plan-url": "https://apps.stratford.gov.uk/eplanning/Map.aspx", "slug": "/brownfield-land/local-authority-eng/STR/SDC00068", "entry-date": "2020-01-13"}}