{"type": "Feature", "geometry": {"type": "Point", "coordinates": [-0.165461, 51.173061]}, "properties": {"planning-permission-history": "https://planning.reigate-banstead.gov.uk/online-applications/propertyDetails.do?activeTab=relatedCases&keyVal=000Y8JMVLI000", "name": "RBBCBLR056", "minimum-net-dwellings": "40", "organisation": "local-authority-eng:REI", "site-plan-url": "http://www.reigate-banstead.gov.uk/downloads/file/3877/rbbcblr056", "site": "RBBCBLR056", "notes": "The site has a resolution to grant outline planning permission (18/0022/OUT) for the demolition of the existing building and redevelopment of the site for residential purposes and provision of replacement public carpark with 12 spaces. The site has been allocated in the DMP for mixed-use community, carparking and residential development (DMP site allocation policy HOR5). The library has been relocated to Russell Square.", "deliverable": "yes", "ownership-status": "owned by a public authority", "planning-permission-status": "Not permissioned", "start-date": "2017-12-31", "site-address": "Horley Library, Kings Road, Horley", "hectares": "0.29", "point": "POINT(-0.165461 51.173061)", "maximum-net-dwellings": "40", "slug": "/brownfield-land/local-authority-eng/REI/RBBCBLR056", "entry-date": "2020-12-31"}}