{"type": "Feature", "geometry": {"type": "Point", "coordinates": [-1.602033, 54.964365]}, "properties": {"resource": "becc2c28d541aa411702272ca66bc1fc3440fbd1916fee794efa830d9241c970", "site-address": "Hudson St car park, Gateshead", "deliverable": "yes", "end-date": "", "entry-date": "2017-12-21", "hazardous-substances": "", "hectares": "0.39", "maximum-net-dwellings": "165", "minimum-net-dwellings": "78", "notes": "", "organisation": "local-authority-eng:GAT", "ownership-status": "not owned by a public authority", "planning-permission-date": "", "planning-permission-history": "", "planning-permission-status": "not permissioned", "planning-permission-type": "", "point": "POINT(-1.602033 54.964365)", "site": "HLC4", "site-plan-url": "http://www.gateshead.gov.uk/DocumentLibrary/Building/PlanningPolicy/MSGP-Documents-2017/Evidence/Draft-SHLAA-report.pdf", "start-date": "2017-12-21", "id": "becc2c28d541aa411702272ca66bc1fc3440fbd1916fee794efa830d9241c970:50694"}}