{"type": "Feature", "geometry": {"type": "Point", "coordinates": [-0.09122, 51.476082]}, "properties": {"organisation": "local-authority-eng:SWK", "site": "NSP32", "maximum-net-dwellings": "90", "name": "NSP32", "point": "POINT(-0.09122 51.476082)", "site-address": "Camberwell Green Magistrate's Court", "planning-permission-status": "not permissioned", "notes": "required: new homes (C3)", "minimum-net-dwellings": "90", "hectares": "0.4814", "start-date": "2020-03-25", "slug": "/brownfield-land/local-authority-eng/SWK/NSP32", "entry-date": "2020-03-25"}}