{"type": "Feature", "geometry": {"type": "Point", "coordinates": [-2.601917, 53.401865]}, "properties": {"resource": "e626e52de15e9af1e4518031bf1bc0157c9aaf661312b2da6e121488717e5673", "site-address": "Hawthorne Business Park, Hawthorne Street, Warrington, WA5 0BT", "deliverable": "yes", "end-date": "", "entry-date": "2017-01-01", "hazardous-substances": "", "hectares": "1.03", "maximum-net-dwellings": "46", "minimum-net-dwellings": "46", "notes": "See most recent planning history at warrington.gov.uk. See most recent planning history at warrington.gov.uk", "organisation": "local-authority-eng:WRT", "ownership-status": "", "planning-permission-date": "", "planning-permission-history": "", "planning-permission-status": "pending decision", "planning-permission-type": "", "point": "POINT(-2.601917 53.401865)", "site": "2658.0", "site-plan-url": "", "start-date": "2017-01-01", "id": "e626e52de15e9af1e4518031bf1bc0157c9aaf661312b2da6e121488717e5673:51441"}}