{"type": "Feature", "geometry": {"type": "Point", "coordinates": [-1.615279, 52.205591]}, "properties": {"resource": "d3a3166d06459a494d581986b58f338769405207a5838eddb38948ba0837326d", "site-address": "Dog Kennel Close, Wellesbourne Road, Charlcote, CV35 9EW", "deliverable": "yes", "end-date": "", "entry-date": "2020-01-13", "hazardous-substances": "", "hectares": "0.38", "maximum-net-dwellings": "1", "minimum-net-dwellings": "1", "notes": "Conversion of 5-bed dwelling to National Trust production kitchen, offices, storage and 1-bed flat; conversion of former plant nursery to base for National Trust Park and Gardens Team", "organisation": "local-authority-eng:STR", "ownership-status": "not owned by a public authority", "planning-permission-date": "2018-03-16", "planning-permission-history": "https://apps.stratford.gov.uk/eplanning/PropDetail.aspx?ref=KEUKSRPM03P00", "planning-permission-status": "permissioned", "planning-permission-type": "full planning permission", "point": "POINT(-1.615279 52.205591)", "site": "SDC00039", "site-plan-url": "https://apps.stratford.gov.uk/eplanning/Map.aspx", "start-date": "2018-12-05", "id": "d3a3166d06459a494d581986b58f338769405207a5838eddb38948ba0837326d:56793"}}