{"type": "Feature", "geometry": {"type": "Point", "coordinates": [-1.239179, 53.701643]}, "properties": {"maximum-net-dwellings": "165", "site-address": "Former Quarry Womersley Road, Knottingley", "hectares": "7.77", "minimum-net-dwellings": "165", "planning-permission-status": "not permissioned", "organisation": "local-authority-eng:WKF", "site-plan-url": "http://map.wakefield.gov.uk/connect/analyst/?mapcfg=BLregister&x=450326&y=423068&zoom=10", "name": "BLR17060", "start-date": "2017-12-31", "site": "BLR17060", "planning-permission-history": "https://planning.wakefield.gov.uk/online-applications/applicationDetails.do?activeTab=summary&keyVal=MB9TWFQQ08600", "point": "POINT(-1.239179 53.701643)", "slug": "/brownfield-land/local-authority-eng/WKF/BLR17060", "entity": 498053, "entry-date": "2017-12-31"}}