{"type": "Feature", "geometry": {"type": "Point", "coordinates": [0.188937, 51.286642]}, "properties": {"site-address": "Sevenoaks Town Council Offices, Bradbourne Vale Road, Sevenoaks", "site-plan-url": "https://maps.sevenoaks.gov.uk/brownfield_register/", "organisation": "local-authority-eng:SEV", "minimum-net-dwellings": "32", "ownership-status": "owned by a public authority", "name": "BFR14", "point": "POINT(0.188937 51.286642)", "hectares": "0.32", "start-date": "2017-11-01", "planning-permission-status": "not permissioned", "maximum-net-dwellings": "32", "notes": "Emerging Local Plan Ref ST2-10 - Careful design and layout to minimise impact on the amenity of neighbouring properties. The review of the existing use is to be considered as part of any planning application. An air quality assessment is to be submitted as part of any planning application. An assessment of the impact of the development on the source protection zone is to be submitted as part of any planning application. Retain existing trees and hedges.", "site": "BFR14", "deliverable": "yes", "slug": "/brownfield-land/local-authority-eng/SEV/BFR14", "entry-date": "2021-02-13"}}