{"type": "Feature", "geometry": {"type": "Point", "coordinates": [0.716521, 51.540082]}, "properties": {"organisation": "local-authority-eng:SOS", "site-address": "96 (Acorn Stationers) Southchurch Road, Southend-On-Sea, Essex, SS1 2LX", "point": "POINT(0.716521 51.540082)", "start-date": "2017-03-31", "planning-permission-date": "2016-06-06", "hectares": "0.028", "site-plan-url": "http://www.southend.gov.uk/downloads/200160/local_planning_framework", "deliverable": "yes", "minimum-net-dwellings": "8", "site": "BR34", "notes": "1 x 1 Bed House, 4 x 1 Bed Houses and 3 x 1 Bed Houses", "maximum-net-dwellings": "8", "ownership-status": "not owned by a public authority", "planning-permission-status": "permissioned", "planning-permission-type": "full planning permission", "name": "BR34", "slug": "/brownfield-land/local-authority-eng/SOS/BR34", "entry-date": "2017-03-31"}}