{"type": "Feature", "geometry": {"type": "Point", "coordinates": [0.517012, 51.28499]}, "properties": {"site-address": "KCC Springfield Library Site,, Sandling Road, Maidstone, Kent", "site": "09/0862", "name": "09/0862", "hectares": "0.58", "point": "POINT(0.517012 51.28499)", "ownership-status": "owned by a public authority", "maximum-net-dwellings": "114", "planning-permission-status": "not permissioned", "start-date": "2017-12-01", "organisation": "local-authority-eng:MAI", "deliverable": "yes", "minimum-net-dwellings": "114", "slug": "/brownfield-land/local-authority-eng/MAI/09-0862", "entry-date": "2019-05-01"}}