{"type": "Feature", "geometry": {"type": "Point", "coordinates": [-1.817754, 52.39575]}, "properties": {"organisation": "local-authority-eng:SOL", "ownership-status": "mixed ownership", "planning-permission-date": "2018-09-07", "planning-permission-status": "permissioned", "site-plan-url": "http://www.solihull.gov.uk/Portals/0/Planning/BLR/CfS-124.pdf", "minimum-net-dwellings": "66", "end-date": "2019-12-09", "planning-permission-type": "full planning permission", "hectares": "1.53", "start-date": "2018-12-03", "planning-permission-history": "https://publicaccess.solihull.gov.uk/online-applications/propertyDetails.do?activeTab=relatedCases&keyVal=J1VP3TOE30000", "name": "PR45", "site": "PR45", "deliverable": "no", "point": "POINT(-1.817754 52.39575)", "site-address": "The Green, Stratford Road, Shirley B90 4LA", "maximum-net-dwellings": "66", "slug": "/brownfield-land/local-authority-eng/SOL/PR45", "entity": 501457, "entry-date": "2018-12-03"}}