{"type": "Feature", "geometry": {"type": "Point", "coordinates": [0.067334, 51.556747]}, "properties": {"resource": "86dee119f806d0c7f62295e6aae502851827e848202c4e43e833126ed62773db", "site-address": "Britainnia Music - 60-70 Roden Street and land between Chapel Road and Roden Street, Ilford", "deliverable": "yes", "end-date": "", "entry-date": "2019-07-12", "hazardous-substances": "", "hectares": "0.69999999999999996", "maximum-net-dwellings": "354", "minimum-net-dwellings": "354", "notes": "Approved planning application - 2434/12 - Located within Ilford Housing Zone - Local Plan allocation site number: 3. Employment/Retail/ Housing. https://www.redbridge.gov.uk/media/3988/lbr-2061-revised-appendix-1-development-opportunity-sites-august-2017.pdf", "organisation": "local-authority-eng:RDB", "ownership-status": "not owned by a public authority", "planning-permission-date": "2013-02-10", "planning-permission-history": "http://planning.redbridge.gov.uk/swiftlg/apas/run/wphappcriteria.display", "planning-permission-status": "permissioned", "planning-permission-type": "full planning permission", "point": "POINT(0.067334 51.556747)", "site": "BRLBR0003", "site-plan-url": "", "start-date": "2019-07-12", "id": "86dee119f806d0c7f62295e6aae502851827e848202c4e43e833126ed62773db:37755"}}