{"type": "Feature", "geometry": {"type": "Point", "coordinates": [0.75102, 51.80762]}, "properties": {"site": "TIP/01", "organisation": "local-authority-eng:COL", "planning-permission-status": "not permissioned", "start-date": "2016-07-01", "name": "TIP/01", "hectares": "0.266", "notes": "Predominantly Residential. Unknown", "site-address": "BT BUILDINGS, CARPARK AND SMALL GARDENS AREA, STATION ROAD", "point": "POINT(0.75102 51.80762)", "slug": "/brownfield-land/local-authority-eng/COL/TIP-01", "entry-date": "2017-12-19", "minimum-net-dwellings": "8", "maximum-net-dwellings": "8"}}