{"type": "Feature", "geometry": {"type": "Point", "coordinates": [-2.727184, 53.76161]}, "properties": {"resource": "c0f874ac423d633e2fb43f9c547cdd2642338e96ec4e10d746987ac4a04d0df4", "site-address": "Oyston Mill, Strand Road", "deliverable": "", "end-date": "", "entry-date": "2018-11-19", "hazardous-substances": "", "hectares": "0.7 Not owned by a public authority", "maximum-net-dwellings": "", "minimum-net-dwellings": "", "notes": "", "organisation": "local-authority-eng:PRE", "ownership-status": "", "planning-permission-date": "2017-10-10", "planning-permission-history": "", "planning-permission-status": "permissioned", "planning-permission-type": "under an order", "point": "POINT(-2.727184 53.76161)", "site": "BR42", "site-plan-url": "", "start-date": "2016-09-06", "id": "c0f874ac423d633e2fb43f9c547cdd2642338e96ec4e10d746987ac4a04d0df4:51271"}}