{"type": "Feature", "geometry": {"type": "Point", "coordinates": [-2.15398, 53.619347]}, "properties": {"ownership-status": "not owned by a public authority", "organisation": "local-authority-eng:RCH", "maximum-net-dwellings": "14", "deliverable": "yes", "name": "SH 2219", "minimum-net-dwellings": "14", "hectares": "0.27", "site-address": "Townhead Offices,Yorkshire Street,Rochdale", "planning-permission-status": "permissioned", "site": "SH 2219", "point": "POINT(-2.15398 53.619347)", "start-date": "2017-11-28", "slug": "/brownfield-land/local-authority-eng/RCH/SH-2219", "entry-date": "2018-12-05", "site-plan-url": "https://mappinggm.org.uk/gmodin/?lyrs=brownfield_2018_gm#os_maps_light/19/53.619347/-2.1539803"}}