{"type": "Feature", "geometry": {"type": "Point", "coordinates": [0.17208, 51.197682]}, "properties": {"resource": "93da33cb203fda2a6f2866049b6a239c50804cba68446d538fcbcf8f23bc93d2", "site-address": "Highways Depot, Tonbridge Road, Chiddingstone Causeway", "deliverable": "yes", "end-date": "1970/01/01 00:00:00+00", "entry-date": "2020-05-20", "hazardous-substances": "", "hectares": "0.20853708", "maximum-net-dwellings": "8", "minimum-net-dwellings": "8", "notes": "Emerging Local Plan ST2-46 - A noise assessment is to be submitted as part of any planning application. Retain existing trees and hedges along railway line. Careful design and layout to minimise impact on the amenity of neighbouring properties.", "organisation": "local-authority-eng:SEV", "ownership-status": "not owned by a public authority", "planning-permission-date": "", "planning-permission-history": "", "planning-permission-status": "not permissioned", "planning-permission-type": "", "point": "POINT(0.17208 51.197682)", "site": "BFR126", "site-plan-url": "https://maps.sevenoaks.gov.uk/brownfield_register/", "start-date": "", "id": "93da33cb203fda2a6f2866049b6a239c50804cba68446d538fcbcf8f23bc93d2:62935"}}