{"type": "Feature", "geometry": {"type": "Point", "coordinates": [0.91096, 51.88502]}, "properties": {"site": "COL/23", "planning-permission-status": "not permissioned", "organisation": "local-authority-eng:COL", "point": "POINT(0.91096 51.88502)", "notes": "East Colchester Special Policy Growth Area Regeneration Area. Former depot", "hectares": "0.08", "name": "COL/23", "start-date": "2016-07-01", "site-address": "80 MAGDALEN STREET. COLCHESTER", "slug": "/brownfield-land/local-authority-eng/COL/COL-23", "entry-date": "2017-12-19"}}