{"type": "Feature", "geometry": {"type": "Point", "coordinates": [-0.767669, 51.307898]}, "properties": {"start-date": "2017-12-11", "site-plan-url": "http://www.rushmoor.gov.uk/article/10524/Brownfield-land-register", "site-address": "Former Garage Site at Bideford Close and Carmarthen Close, Farnborough", "name": "SHELAA ID: 550", "organisation": "local-authority-eng:RUH", "hectares": "0.1", "ownership-status": "not owned by a public authority", "minimum-net-dwellings": "5", "planning-permission-status": "not permissioned", "deliverable": "yes", "point": "POINT(-0.767669 51.307898)", "maximum-net-dwellings": "5", "site": "SHELAA ID: 550", "slug": "/brownfield-land/local-authority-eng/RUH/-550", "entity": 491815, "entry-date": "2019-12-09"}}