{"type": "Feature", "geometry": {"type": "Point", "coordinates": [-1.401521, 50.899661]}, "properties": {"deliverable": "yes", "site-plan-url": "http://www.southampton.gov.uk/planning/planning-policy/brownfield-land-register/brownfield-land-register-map.aspx?FINDLAYER=SCC:BROWNFIELD_REGISTER_EXT&FINDFIELD=SITE_NAME&FINDVALUE=BLR%20CC%2013", "hectares": "0.07", "ownership-status": "not owned by a public authority", "site": "BLR CC 13", "planning-permission-status": "pending decision", "site-address": "11 Queensway", "start-date": "2017-11-17", "organisation": "local-authority-eng:STH", "name": "BLR CC 13", "point": "POINT(-1.401521 50.899661)", "maximum-net-dwellings": "25", "minimum-net-dwellings": "25", "slug": "/brownfield-land/local-authority-eng/STH/BLR-CC-13", "entry-date": "2017-12-18"}}