{"type": "Feature", "geometry": {"type": "Point", "coordinates": [-1.2, 53.17]}, "properties": {"site-address": "Former garage site Alexandra Avenue, Mansfield", "organisation": "local-authority-eng:MAS", "deliverable": "yes", "site": "164", "maximum-net-dwellings": "5", "planning-permission-date": "2014-06-02", "planning-permission-status": "permissioned", "planning-permission-type": "full planning permission", "notes": "RESIDENTIAL DEVELOPMENT OF 5 NO. 3 BEDROOM HOUSES", "name": "164", "point": "POINT(-1.2 53.17)", "hectares": "0.19", "minimum-net-dwellings": "5", "site-plan-url": "http://www.mansfield.gov.uk/CHttpHandler.ashx?id=9547&p=0", "start-date": "2017-09-26", "ownership-status": "not owned by a public authority", "slug": "/brownfield-land/local-authority-eng/MAS/164", "entry-date": "2017-09-26"}}