{"type": "Feature", "geometry": {"type": "Point", "coordinates": [-0.281284, 51.376805]}, "properties": {"resource": "4d36cd34b2a0e6d68d42445b56373a6972e44587bbd208737cc7bd1a88fcf50f", "site-address": "Former Government Offices, Hook Rise South, Surbiton", "deliverable": "", "end-date": "", "entry-date": "2017-12-12", "hazardous-substances": "", "hectares": "4.01", "maximum-net-dwellings": "705", "minimum-net-dwellings": "705", "notes": "Identified as an indicative area of housing delivery in the Core Strategy (adopted 2012).. Outline application (means of access only) for 705 residential dwellings (C3).", "organisation": "local-authority-eng:KTT", "ownership-status": "", "planning-permission-date": "", "planning-permission-history": "", "planning-permission-status": "pending decision", "planning-permission-type": "", "point": "POINT(-0.281284 51.376805)", "site": "RBK0072", "site-plan-url": "https://maps.london.gov.uk/brownfield-site-register", "start-date": "2017-12-12", "id": "4d36cd34b2a0e6d68d42445b56373a6972e44587bbd208737cc7bd1a88fcf50f:21670"}}