{"type": "Feature", "geometry": {"type": "Point", "coordinates": [-0.141527, 50.825655]}, "properties": {"name": "SHLAA4032", "hectares": "0.19", "minimum-net-dwellings": "19", "maximum-net-dwellings": "19", "planning-permission-history": "https://planningapps.brighton-hove.gov.uk/online-applications/applicationDetails.do?activeTab=summary&keyVal=PQ5XEADMHOC00|https://planningapps.brighton-hove.gov.uk/online-applications/applicationDetails.do?activeTab=summary&keyVal=ONMO65DMK6900|https://planningapps.brighton-hove.gov.uk/online-applications/applicationDetails.do?activeTab=summary&keyVal=ZZZR63DMXE566|https://planningapps.brighton-hove.gov.uk/online-applications/applicationDetails.do?activeTab=summary&keyVal=ZZZR7HDMXE731", "planning-permission-status": "not permissioned", "organisation": "local-authority-eng:BNH", "site-address": "Tower Point 44 North Road Brighton", "site-plan-url": "https://new.brighton-hove.gov.uk/sites/default/files/planning_bc_regen/policy/brownfield-sites/shlaa4032-tower-point-44-north-road-brighton.pdf", "start-date": "2017-10-02", "site": "SHLAA4032", "ownership-status": "not owned by a public authority", "slug": "/brownfield-land/local-authority-eng/BNH/SHLAA4032", "entity": 476956, "entry-date": "2020-12-21", "point": "POINT(-0.141527 50.825655)"}}