{"type": "Feature", "geometry": {"type": "Point", "coordinates": [-0.239992, 51.531448]}, "properties": {"resource": "de3918b3af88df0eebce7fbb3f8bc36f571f59fda90470f9b1e8bee3145f8ca0", "site-address": "Willesden Junction Depot", "deliverable": "", "end-date": "", "entry-date": "2027-12-15", "hazardous-substances": "", "hectares": "0.2", "maximum-net-dwellings": "50", "minimum-net-dwellings": "50", "notes": "", "organisation": "development-corporation:Q20648596", "ownership-status": "owned by a public authority", "planning-permission-date": "", "planning-permission-history": "", "planning-permission-status": "not permissioned", "planning-permission-type": "", "point": "POINT(-0.239992 51.531448)", "site": "DCS12", "site-plan-url": "https://data.london.gov.uk/dataset/brownfield-land-register", "start-date": "2027-12-15", "id": "de3918b3af88df0eebce7fbb3f8bc36f571f59fda90470f9b1e8bee3145f8ca0:59174"}}