{"type": "Feature", "geometry": {"type": "Point", "coordinates": [-1.578861, 50.875149]}, "properties": {"start-date": "2019-12-02", "maximum-net-dwellings": "1", "site-plan-url": "https://www.newforestnpa.gov.uk/planning/brownfield-sites-register/", "point": "POINT(-1.578861 50.875149)", "planning-permission-date": "2018-06-11", "planning-permission-type": "full planning permission", "organisation": "national-park-authority:Q72617158", "planning-permission-status": "permissioned", "ownership-status": "not owned by a public authority", "notes": "Conversion from outbuilding to 1 dwelling", "hectares": "0.1", "name": "BFS19", "minimum-net-dwellings": "1", "site": "BFS19", "deliverable": "yes", "site-address": "17 Forest Gardens, Lyndhurst, SO43 7AF", "slug": "/brownfield-land/national-park-authority/Q72617158/BFS19", "entity": 500470, "entry-date": "2020-12-09"}}