{"type": "Feature", "geometry": {"type": "Point", "coordinates": [-1.123164, 51.270351]}, "properties": {"resource": "79cdc3e1c43097bd770fcf43fbd54109178ef6c6e8ed0aa7903914919bb3094e", "site-address": "Land At Former Newman Bassett House Basingstoke", "deliverable": "", "end-date": "", "entry-date": "2018-12-31", "hazardous-substances": "", "hectares": "0.38", "maximum-net-dwellings": "12", "minimum-net-dwellings": "12", "notes": "Consent was originally granted on the wider site for the demolition of the Former Newman Bassett House building and a replacement smaller \u2018respite unit\u2019 which has now been completed. (Hindson House).Therefore, this retains the facility and service use and frees up the remainder of the land for residential redevelopment. The land is vacant but not currently available as it is being used as a temporary construction compound, the requirement for which is due to cease in late 2018. Afterwhich HCC confirm that they intend to apply for planning permission for residential development. The site is deliverable within five years.. Residential development of 12 units. http:www.basingstoke.gov.uk/SHELAA", "organisation": "local-authority-eng:BAN", "ownership-status": "owned by a public authority", "planning-permission-date": "", "planning-permission-history": "", "planning-permission-status": "not permissioned", "planning-permission-type": "", "point": "POINT(-1.123164 51.270351)", "site": "BAS031", "site-plan-url": "http://www.basingstoke.gov.uk/SHELAA", "start-date": "2017-12-31", "slug": "local-authority-eng/BAN/BAS031"}}