{"type": "Feature", "geometry": {"type": "Point", "coordinates": [-0.10568, 51.497778]}, "properties": {"planning-permission-status": "not permissioned", "minimum-net-dwellings": "446", "point": "POINT(-0.10568 51.497778)", "name": "NSP42", "site": "NSP42", "maximum-net-dwellings": "446", "start-date": "2017-12-20", "site-address": "Bakerloo Line Sidings and 7 St George's Circus", "organisation": "local-authority-eng:SWK", "hectares": "1.17", "slug": "/brownfield-land/local-authority-eng/SWK/NSP42", "entry-date": "2020-03-25"}}