{"type": "Feature", "geometry": {"type": "Point", "coordinates": [-1.678971, 52.267653]}, "properties": {"resource": "b180c769eeda28f9d94cf55d97126c52d388697fe8dcae6af5782e4f5f4bc79e", "site-address": "'Waverley, Wolverton Fields, Norton Lindsey, CV35 8JN''", "deliverable": "yes", "end-date": "", "entry-date": "2018-12-05", "hazardous-substances": "", "hectares": "0.45", "maximum-net-dwellings": "1", "minimum-net-dwellings": "1", "notes": "Proposed replacement dwelling and proposed new dwelling.", "organisation": "local-authority-eng:STR", "ownership-status": "not owned by a public authority", "planning-permission-date": "2015-11-09", "planning-permission-history": "https://apps.stratford.gov.uk/eplanning/PropDetail.aspx?ref=005L4CPMDT000", "planning-permission-status": "permissioned", "planning-permission-type": "full planning permission", "point": "POINT(-1.678971 52.267653)", "site": "SDC00018", "site-plan-url": "https://apps.stratford.gov.uk/eplanning/Map.aspx", "start-date": "2017-12-08", "id": "b180c769eeda28f9d94cf55d97126c52d388697fe8dcae6af5782e4f5f4bc79e:48378"}}