{"type": "Feature", "geometry": {"type": "Point", "coordinates": [-2.699722, 53.756638]}, "properties": {"start-date": "2016-09-06", "ownership-status": "not owned by a public authority", "organisation": "local-authority-eng:PRE", "planning-permission-type": "full planning permission", "site-plan-url": "http://maps.preston.gov.uk/planning/map.aspx", "notes": "06/2015/0374 Change of use from B1 offices to 30 apartments (C3).", "planning-permission-date": "2015-08-13", "maximum-net-dwellings": "1", "planning-permission-status": "permissioned", "name": "BR54", "site": "BR54", "hectares": "0.04", "point": "POINT(-2.699722 53.756638)", "site-address": "Govers House, 35 Glovers Court.", "minimum-net-dwellings": "1", "slug": "/brownfield-land/local-authority-eng/PRE/BR54", "entry-date": "2017-09-08"}}