{"type": "Feature", "geometry": {"type": "Point", "coordinates": [-0.136406, 51.540261]}, "properties": {"resource": "86dee119f806d0c7f62295e6aae502851827e848202c4e43e833126ed62773db", "site-address": "Bangor Wharf, Georgiana Street", "deliverable": "yes", "end-date": "", "entry-date": "2018-10-12", "hazardous-substances": "", "hectares": "0.27000000000000002", "maximum-net-dwellings": "36", "minimum-net-dwellings": "36", "notes": "Redevelopment of the site to provide replacement employment floorspace and new permanent (Class C3) residential accommodation. Development will be expected to:\u00e2\u20ac\u00a2 Optimise the potential of the site to", "organisation": "local-authority-eng:CMD", "ownership-status": "not owned by a public authority", "planning-permission-date": "", "planning-permission-history": "http://planningrecords.camden.gov.uk/Northgate/PlanningExplorer17/Generic/StdDetails.aspx?PT=Planning%20Applications%20On-Line&TYPE=PL/PlanningPK.xml&PARAM0=431160&XSLT=/Northgate/PlanningExplorer17/S", "planning-permission-status": "Not permissioned", "planning-permission-type": "", "point": "POINT(-0.136406 51.540261)", "site": "LBCBLR015", "site-plan-url": "https://opendata.camden.gov.uk/Environment/Camden-Brownfield-Register-Polygons/wi65-z696/data", "start-date": "2018-10-12", "id": "86dee119f806d0c7f62295e6aae502851827e848202c4e43e833126ed62773db:24871"}}