{"type": "Feature", "geometry": {"type": "Point", "coordinates": [-0.405264, 53.27612]}, "properties": {"start-date": "2017-12-17", "name": "133773", "planning-permission-type": "reserved matters approval", "maximum-net-dwellings": "36", "organisation": "local-authority-eng:WLI", "hectares": "2.02", "site-address": "George Hotel, 15 Main Road, Langworth", "point": "POINT(-0.405264 53.27612)", "deliverable": "yes", "site": "133773", "planning-permission-date": "2016-05-23", "notes": "Reserved matters application for the development of 36no. dwellings, including flooding compensatory storage strategy and the provision of a community store- following outline planning permission 130773 granted 24 April 2015.", "minimum-net-dwellings": "36", "planning-permission-status": "permissioned", "site-plan-url": "https://www.west-lindsey.gov.uk/_resources/assets/attachment/full/0/55645.pdf", "slug": "/brownfield-land/local-authority-eng/WLI/133773", "entry-date": "2017-12-17"}}