{"type": "Feature", "geometry": {"type": "Point", "coordinates": [-2.444694, 53.373219]}, "properties": {"deliverable": "yes", "start-date": "2018-12-01", "site": "1638.0", "maximum-net-dwellings": "5", "planning-permission-status": "Not Permissioned", "organisation": "local-authority-eng:WRT", "name": "1638.0", "minimum-net-dwellings": "5", "hectares": "3", "site-address": "Broomedge Nurseries (formerly Hampson Nursery)", "point": "POINT(-2.444694 53.373219)", "notes": "Not applicable", "slug": "/brownfield-land/local-authority-eng/WRT/1638-0", "entry-date": "2018-12-01"}}