{"type": "Feature", "geometry": {"type": "Point", "coordinates": [-3.044179, 53.433423]}, "properties": {"planning-permission-type": "full planning permission", "planning-permission-history": "https://planning.wirral.gov.uk/online-applications/applicationDetails.do?activeTab=summary&keyVal=_WIRRA_DCAPR_94589", "hectares": "0.05", "point": "POINT(-3.044179 53.433423)", "site": "644400", "deliverable": "yes", "name": "644400", "start-date": "2017-12-22", "site-plan-url": "https://mapping.wirral.gov.uk/wml8/Map.aspx?MapName=Brownfield", "site-address": "15-25 Field Road, New Brighton", "organisation": "local-authority-eng:WRL", "planning-permission-status": "permissioned", "planning-permission-date": "2015-02-20", "minimum-net-dwellings": "13", "notes": "NMA/18/00291 Non Material Amendment pending. Apartments", "ownership-status": "not owned by a public authority", "maximum-net-dwellings": "13", "slug": "/brownfield-land/local-authority-eng/WRL/644400", "entry-date": "2018-12-21"}}