{"type": "Feature", "geometry": {"type": "Point", "coordinates": [-0.166315, 51.552408]}, "properties": {"resource": "b96e6053550c20dbaaf4422474600143f23d0eef9b788cd8b4149d899c9d8016", "site-address": "Bartrams Convent Hostel Rowland Hill Street London NW3 2AD", "deliverable": "yes", "end-date": "", "entry-date": "2020-05-24", "hazardous-substances": "", "hectares": "0.29", "maximum-net-dwellings": "60", "minimum-net-dwellings": "60", "notes": "Demolition of the existing student hostel building (Sui Generis) and replacement with a part 4, 6, 7, 10 storey building plus basement to provide extra-care accommodation for older people (Class C3), comprising 60 flats and associated communal facilities including restaurant, lounges, health and well-being facility and staff facilities, plus basement level carparking, cycle and mobility scooter parking, basement and 10th floor plant, ground floor communal gardens, and 3rd & 6th floor roof terraces.", "organisation": "local-authority-eng:CMD", "ownership-status": "", "planning-permission-date": "2015-08-28", "planning-permission-history": "http://planningrecords.camden.gov.uk/Northgate/PlanningExplorer17/Generic/StdResults.aspx?PT=Planning%20Applications%20On-Line&SC=Application%20Number%20is%202014/6449/P%20and%20Date%20Validated%20is%20between%2001%20January%201927%20and%2031%20December%202017&FT=Planning%20Application%20Search%20Results&XMLSIDE=/Northgate/PlanningExplorer17/SiteFiles/Skins/Camden/Menus/PL.xml&XSLTemplate=/Northgate/PlanningExplorer17/SiteFiles/Skins/Camden/xslt/PL/PLResults.xslt&PS=10&XMLLoc=/Northgate/PlanningExplorer17/generic/XMLtemp/xtcpr1jw2rbnjc55fab2yvay/5059a87d-0cb4-4511-a1b0-9cb29c59cbb8.xml", "planning-permission-status": "permissioned", "planning-permission-type": "full planning permission", "point": "POINT(-0.166315 51.552408)", "site": "LBCBLR066", "site-plan-url": "https://opendata.camden.gov.uk/Environment/Brownfield-Land-Register-Map/g8xk-ktap", "start-date": "2017-12-22", "id": "b96e6053550c20dbaaf4422474600143f23d0eef9b788cd8b4149d899c9d8016:29498"}}