{"type": "Feature", "geometry": {"type": "Point", "coordinates": [-0.065952, 51.500712]}, "properties": {"resource": "53ff7410d03797e7747d4df128ca450bbe808f4eacc79d0e2d18623ab4a99554", "site-address": "Chambers Wharf", "deliverable": "", "end-date": "", "entry-date": "2017-12-20", "hazardous-substances": "", "hectares": "1.3999999999999999", "maximum-net-dwellings": "646", "minimum-net-dwellings": "528", "notes": "", "organisation": "local-authority-eng:SWK", "ownership-status": "", "planning-permission-date": "", "planning-permission-history": "", "planning-permission-status": "Not permissioned", "planning-permission-type": "", "point": "POINT(-0.065952 51.500712)", "site": "NSP12", "site-plan-url": "", "start-date": "2017-12-20", "id": "53ff7410d03797e7747d4df128ca450bbe808f4eacc79d0e2d18623ab4a99554:40518"}}