{"type": "Feature", "geometry": {"type": "Point", "coordinates": [1.150091, 52.051914]}, "properties": {"resource": "bfa5ff764c7b2ba3b6876da4fc654846d137a2d9b159e80d3bf43482701cd42b", "site-address": "Land at Commercial Road", "deliverable": "yes", "end-date": "", "entry-date": "2017-12-21", "hazardous-substances": "", "hectares": "3.18", "maximum-net-dwellings": "259", "minimum-net-dwellings": "259", "notes": "https://www.ipswich.gov.uk/sites/default/files/adopted_site_allocations_and_policies_dpd_and_appendix_3a_site_sheets.pdf#page=132", "organisation": "local-authority-eng:IPS", "ownership-status": "not owned by a public authority", "planning-permission-date": "", "planning-permission-history": "https://ppc.ipswich.gov.uk/appndetails.asp?iAppID=17/00638/FUL&sType=APP&search_params=pageNumber%3D1%26txtAppNum%3D17%252F00638%26pnlAdvancedOpen%3D1%26&prev_search_params=&det_search_params=", "planning-permission-status": "pending decision", "planning-permission-type": "", "point": "POINT(1.150091 52.051914)", "site": "BLR/IP047", "site-plan-url": "http://maps.ipswich.gov.uk/Online_Mapping/Full.aspx?gpm=1262da87-61ce-45f7-857e-d5fb87a96251", "start-date": "2017-12-21", "id": "BLR-IP047"}}