{"type": "Feature", "geometry": {"type": "Point", "coordinates": [-2.303163, 50.92783]}, "properties": {"site-plan-url": "http://explorer.geowessex.com/nddc/shlaa?basemap=26&x=378790&y=114308&epsg=27700&zoom=20", "site-address": "Former livestock market site & railway gardens, , Sturminster Newton,", "ownership-status": "not owned by a public authority", "minimum-net-dwellings": "28", "site": "2-54-0042", "organisation": "local-authority-eng:NDO", "notes": "Site is being marketed.. Erect 28 No flats, car park,", "deliverable": "yes", "planning-permission-history": "http://planning.north-dorset.gov.uk/online-applications/", "point": "POINT(-2.303163 50.92783)", "planning-permission-date": "2006-11-30", "hectares": "0.19", "planning-permission-status": "permissioned", "name": "2-54-0042", "maximum-net-dwellings": "28", "planning-permission-type": "reserved matters approval", "start-date": "2017-12-15", "slug": "/brownfield-land/local-authority-eng/NDO/2-54-0042", "entity": 488336, "entry-date": "2017-12-15"}}