{"type": "Feature", "geometry": {"type": "Point", "coordinates": [-0.444415, 51.428108]}, "properties": {"organisation": "local-authority-eng:SPE", "planning-permission-status": "not permissioned", "minimum-net-dwellings": "30", "deliverable": "yes", "notes": "Allocation within the current Development Plan", "start-date": "2017-09-01", "site-address": "Depot at Feltham Hill Road and Poplar Road, Ashford", "site": "BL1", "point": "POINT(-0.444415 51.428108)", "ownership-status": "not owned by a public authority", "hectares": "1.47", "name": "BL1", "maximum-net-dwellings": "30", "site-plan-url": "https://www.spelthorne.gov.uk/media/1438/Allocations-DPD/pdf/allocations_dpd_-_final_17.12.09.pdf", "slug": "/brownfield-land/local-authority-eng/SPE/BL1", "entry-date": "2017-12-22"}}