{"type": "Feature", "geometry": {"type": "Point", "coordinates": [-0.332973, 51.393801]}, "properties": {"resource": "520a566a469a4b7c0e3d9f24dc75a5e293a91b427813bd5b09502d4cca1d1ada", "site-address": "Taggs Boatyard 44 Summer Road Thames Ditton Surrey KT7 0QQ", "deliverable": "yes", "end-date": "", "entry-date": "2017-12-15", "hazardous-substances": "", "hectares": "0.16", "maximum-net-dwellings": "", "minimum-net-dwellings": "", "notes": "Redevelopment of the site to provide a detached three storey building located to the rear comprising of boatyard and offices at ground floor and 8 flats above and detached two storey building to the front comprising of access with 1 flat above, along with associated parking following demolition of all existing buildings on site", "organisation": "local-authority-eng:ELM", "ownership-status": "not owned by a public authority", "planning-permission-date": "2015-02-10", "planning-permission-history": "http://emaps.elmbridge.gov.uk/ebc_planning.aspx?pagerecs=500&maxrecords=500&template=SearchResultsTab.tmplt&requestType=parseTemplate&ADDRESS%3APARAM=taggs", "planning-permission-status": "permissioned", "planning-permission-type": "full planning permission", "point": "POINT(-0.332973 51.393801)", "site": "2", "site-plan-url": "http://edocs.elmbridge.gov.uk/IAM/IAMCache/1941899/1941899.pdf", "start-date": "2017-12-15", "id": "520a566a469a4b7c0e3d9f24dc75a5e293a91b427813bd5b09502d4cca1d1ada:34104"}}