{"type": "Feature", "geometry": {"type": "Point", "coordinates": [-0.076935, 51.455333]}, "properties": {"resource": "53ff7410d03797e7747d4df128ca450bbe808f4eacc79d0e2d18623ab4a99554", "site-address": "148-150 Lordship Lane SE22 8HB", "deliverable": "yes", "end-date": "", "entry-date": "2017-12-20", "hazardous-substances": "", "hectares": "0.02", "maximum-net-dwellings": "0", "minimum-net-dwellings": "0", "notes": "Change of use from Use Class B1 (offices) to Use Class C3 (residential) comprising 2 x 2bed flats and 1bedsit.", "organisation": "local-authority-eng:SWK", "ownership-status": "", "planning-permission-date": "2016-11-16", "planning-permission-history": "", "planning-permission-status": "permissioned", "planning-permission-type": "full planning permission", "point": "POINT(-0.076935 51.455333)", "site": "16-AP-3842", "site-plan-url": "", "start-date": "2017-12-20", "id": "53ff7410d03797e7747d4df128ca450bbe808f4eacc79d0e2d18623ab4a99554:19643"}}