{"type": "Feature", "geometry": {"type": "Point", "coordinates": [-1.647603, 52.399357]}, "properties": {"site-address": "Land Rear of Lavender Hall Farm, Lavender Hall Lane, Berkswell", "start-date": "2018-03-23", "minimum-net-dwellings": "1", "hectares": "3.83", "planning-permission-history": "https://publicaccess.solihull.gov.uk/online-applications/propertyDetails.do?activeTab=relatedCases&keyVal=000YGMOELI000", "deliverable": "yes", "maximum-net-dwellings": "2", "site-plan-url": "http://www.solihull.gov.uk/Portals/0/Planning/BLR/BLR-044.pdf", "site": "BLR/044", "name": "BLR/044", "organisation": "local-authority-eng:SOL", "planning-permission-status": "not permissioned", "ownership-status": "not owned by a public authority", "point": "POINT(-1.647603 52.399357)", "slug": "/brownfield-land/local-authority-eng/SOL/BLR-044", "entry-date": "2018-12-03"}}