{"type": "Feature", "geometry": {"type": "Point", "coordinates": [0.520308, 51.273946]}, "properties": {"start-date": "2018-06-01", "planning-permission-status": "completed", "ownership-status": "not owned by a public authority", "maximum-net-dwellings": "7", "site-address": "Cornwallis House, Pudding Lane, Maidstone, Kent, ME14 1NY", "minimum-net-dwellings": "7", "name": "17/500405", "organisation": "local-authority-eng:MAI", "point": "POINT(0.520308 51.273946)", "hectares": "0.08", "deliverable": "yes", "planning-permission-type": "full planning permission", "site": "17/500405", "slug": "/brownfield-land/local-authority-eng/MAI/17-500405", "entry-date": "2019-05-01"}}