{"type": "Feature", "geometry": {"type": "Point", "coordinates": [-1.44569, 53.232578]}, "properties": {"planning-permission-history": "https://publicaccess.chesterfield.gov.uk/online-applications/propertyDetails.do?activeTab=relatedCases&keyVal=0010KREPLI000", "point": "POINT(-1.44569 53.232578)", "deliverable": "yes", "minimum-net-dwellings": "8", "site-address": "Land Used For Storage and Premises Goyt Side Road, Chesterfield", "hectares": "0.22", "planning-permission-status": "permissioned", "ownership-status": "not owned by a public authority", "site-plan-url": "https://www.chesterfield.gov.uk/media/824249/415-land-used-for-storage-and-premises-goyt-side-road-chesterfield.pdf", "notes": "Outline permission received.", "planning-permission-date": "2017-12-12", "planning-permission-type": "outline planning permission", "maximum-net-dwellings": "8", "site": "415", "start-date": "2018-12-11", "organisation": "local-authority-eng:CHS", "name": "415", "slug": "/brownfield-land/local-authority-eng/CHS/415", "entity": 479570, "entry-date": "2018-12-11"}}