{"type": "Feature", "geometry": {"type": "Point", "coordinates": [-1.465378, 53.370185]}, "properties": {"resource": "6b550bfc3c67f77e313aa8c44018e3fb7e0ce2017692f025ed25af4ababd20e9", "site-address": "Royal Works, 60 Priestley Street, Sheffield, S2 4DD", "deliverable": "", "end-date": "", "entry-date": "2017-12-12", "hazardous-substances": "", "hectares": "0.23", "maximum-net-dwellings": "26", "minimum-net-dwellings": "26", "notes": "Estimated to comprise of 26 Student Clusters", "organisation": "local-authority-eng:SHF", "ownership-status": "not owned by a public authority", "planning-permission-date": "2014-11-19", "planning-permission-history": "https://planningapps.sheffield.gov.uk/online-applications/applicationDetails.do?activeTab=summary&keyVal=NCV56INY0A500", "planning-permission-status": "permissioned", "planning-permission-type": "full planning permission", "point": "POINT(-1.465378 53.370185)", "site": "S00073", "site-plan-url": "https://www.sheffield.gov.uk/content/sheffield/home/planning-development/housing-land-sites.html", "start-date": "2017-12-05", "id": "6b550bfc3c67f77e313aa8c44018e3fb7e0ce2017692f025ed25af4ababd20e9:66369"}}