{"type": "Feature", "geometry": {"type": "Point", "coordinates": [-2.109214, 53.984376]}, "properties": {"resource": "76b5d6f58c019347ef23ddae1e190f368c1976adc72bb10ee4dd6504c4fc1563", "site-address": "NevilleHouse,NevilleCrescent", "deliverable": "yes", "end-date": "", "entry-date": "2018-02-02", "hazardous-substances": "", "hectares": "0.42", "maximum-net-dwellings": "14", "minimum-net-dwellings": "14", "notes": "Land allocated within Draft Local Plan", "organisation": "local-authority-eng:CRA", "ownership-status": "owned by a public authority", "planning-permission-date": "", "planning-permission-history": "", "planning-permission-status": "Not permissioned", "planning-permission-type": "", "point": "POINT(-2.109214 53.984376)", "site": "BRL09", "site-plan-url": "", "start-date": "2018-01-09", "id": "76b5d6f58c019347ef23ddae1e190f368c1976adc72bb10ee4dd6504c4fc1563:11847"}}