{"type": "Feature", "geometry": {"type": "Point", "coordinates": [-1.233416, 51.757468]}, "properties": {"site-plan-url": "https://www.oxford.gov.uk/downloads/file/7132/site_560_-_headington_hill_hall_and_clive_booth_student_village", "organisation": "local-authority-eng:OXO", "maximum-net-dwellings": "200", "name": "560", "site": "560", "planning-permission-history": "https://public.oxford.gov.uk/online-applications/", "site-address": "Headington Hill Site and Clive Booth Village", "planning-permission-status": "not permissioned", "ownership-status": "not owned by a public authority", "minimum-net-dwellings": "200", "start-date": "2020-03-31", "point": "POINT(-1.233416 51.757468)", "notes": "The site is allocated as Policy SP17 in the Local Plan 2036 adopted in June 2020. The site is also allocated as part of Area of Change Policy AOC8 in the Local Plan 2036. The Local Plan identifies a minimum of 200 homes to be delivered on the site.", "hectares": "10.05", "slug": "/brownfield-land/local-authority-eng/OXO/560", "entity": 490193, "entry-date": "2021-02-26"}}