{"type": "Feature", "geometry": {"type": "Point", "coordinates": [-3.602662, 54.49041]}, "properties": {"resource": "02f2cce9ee3f63f69e74262e5350d553f05805d49645b7c9823d778e86012090", "site-address": "Former Outbuildings Seacote Hotel", "deliverable": "yes", "end-date": "", "entry-date": "2017-12-22", "hazardous-substances": "", "hectares": "0.46", "maximum-net-dwellings": "8", "minimum-net-dwellings": "8", "notes": "Improved Vehicle Access & Proposed Alterations To Car Park, Plus Construction Of 8 New Houses", "organisation": "local-authority-eng:COP", "ownership-status": "not owned by a public authority", "planning-permission-date": "2013-09-23", "planning-permission-history": "", "planning-permission-status": "permissioned", "planning-permission-type": "full planning permission", "point": "POINT(-3.602662 54.49041)", "site": "CBR008", "site-plan-url": "https://www.copeland.gov.uk/sites/default/files/attachments/cbr008_former_outbuildings_0.pdf", "start-date": "2017-12-22", "id": "CBR008"}}