{"type": "Feature", "geometry": {"type": "Point", "coordinates": [-0.216454, 51.527899]}, "properties": {"resource": "86167bb457c56ec6e4160e0df7ca208161bb11c443a1baf5e8bfae4ba2f1de8e", "site-address": "605 And 609 Harrow Road W10 4RA", "deliverable": "yes", "end-date": "", "entry-date": "2017-12-31", "hazardous-substances": "", "hectares": "0.064", "maximum-net-dwellings": "5", "minimum-net-dwellings": "5", "notes": "", "organisation": "local-authority-eng:KEC", "ownership-status": "not owned by a public authority", "planning-permission-date": "2017-06-01", "planning-permission-history": "https://www.rbkc.gov.uk/PP/17/02065", "planning-permission-status": "permissioned", "planning-permission-type": "full planning permission", "point": "POINT(-0.216454 51.527899)", "site": "RBKC040", "site-plan-url": "https://lbhf.maps.arcgis.com/apps/webappviewer/index.html?id=931fa3b3294b4147a518648579b12d4a", "start-date": "2017-12-31", "id": "86167bb457c56ec6e4160e0df7ca208161bb11c443a1baf5e8bfae4ba2f1de8e:35922"}}