{"type": "Feature", "geometry": {"type": "Point", "coordinates": [-0.949967, 51.278517]}, "properties": {"maximum-net-dwellings": "122", "planning-permission-type": "other", "ownership-status": "not owned by a public authority", "minimum-net-dwellings": "116", "organisation": "local-authority-eng:HAT", "name": "18/02748/PRIOR", "planning-permission-status": "permissioned", "site-address": "Building 260 and 270, Bartley Wood Business Park, Bartley Way, Hook, Hampshire", "start-date": "2017-12-22", "notes": "Change of use of offices (B1a) to dwellinghouse (C3) (122 dwgs). Previous approval (18/00624/PRIOR) for Change of use from B1a to C3 (116 dwgs) granted 2018-05-16. Scheme has no SANG mitigation and therefore can not be considered deliverable. Site not included in housing trajectory. Site covered by Article 4 Direction removing right to change from B1 to C3 with effect from 2019-05-06. Final permission lapses 2022-01-31.", "planning-permission-date": "2019-01-31", "site": "18/02748/PRIOR", "site-plan-url": "https://publicaccess.hart.gov.uk/online-applications/", "point": "POINT(-0.949967 51.278517)", "hectares": "2.15", "slug": "/brownfield-land/local-authority-eng/HAT/18-02748-PRIOR", "entry-date": "2019-11-21"}}