{"type": "Feature", "geometry": {"type": "Point", "coordinates": [1.486426, 52.216509]}, "properties": {"site-address": "Former County Primary School Fairfield Road Saxmundham Suffolk", "organisation": "local-authority-eng:SUF", "deliverable": "yes", "maximum-net-dwellings": "0", "planning-permission-history": "http://publicaccess.eastsuffolk.gov.uk/online-applications/applicationDetails.do?activeTab=summary&keyVal=O2QRTHQXI6K00", "point": "POINT(1.486426 52.216509)", "site-plan-url": "http://waveney.maps.arcgis.com/apps/MapJournal/index.html?appid=1a787ff0d2604387987c86ac1ae56188", "start-date": "2017-12-01", "planning-permission-type": "reserved matters approval", "name": "SCDC016", "site": "SCDC016", "planning-permission-status": "permissioned", "hectares": "0.59", "ownership-status": "owned by a public authority", "notes": "Reserved matters (layout appearance scale and landscaping) for 16 dwellings.", "planning-permission-date": "2016-07-01", "minimum-net-dwellings": "0", "slug": "/brownfield-land/local-authority-eng/SUF/SCDC016", "entity": 495188, "entry-date": "2017-12-01"}}