{"type": "Feature", "geometry": {"type": "Point", "coordinates": [-1.20903, 53.20505]}, "properties": {"planning-permission-status": "permissioned", "start-date": "2017-10-31", "planning-permission-date": "2017-06-26", "site": "17/00191/FUL", "site-address": "Land East of 63 to 69 Thickley Close, Shirebrook", "maximum-net-dwellings": "15", "hectares": "0.14", "point": "POINT(-1.20903 53.20505)", "planning-permission-history": "http://planning.bolsover.gov.uk/online-applications/applicationDetails.do?keyVal=OOCNORDD06X00&activeTab=summary", "minimum-net-dwellings": "15", "planning-permission-type": "full planning permission", "name": "17/00191/FUL", "deliverable": "yes", "organisation": "local-authority-eng:BOS", "ownership-status": "not owned by a public authority", "slug": "/brownfield-land/local-authority-eng/BOS/17-00191-FUL", "entity": 477282, "entry-date": "2017-10-31"}}