{"type": "Feature", "geometry": {"type": "Point", "coordinates": [-0.366294, 51.470029]}, "properties": {"resource": "53ff7410d03797e7747d4df128ca450bbe808f4eacc79d0e2d18623ab4a99554", "site-address": "Land at Lampton Road,TW3 1JG", "deliverable": "yes", "end-date": "", "entry-date": "2017-12-31", "hazardous-substances": "", "hectares": "0.29999999999999999", "maximum-net-dwellings": "40", "minimum-net-dwellings": "40", "notes": "Demolition of existing vacant/ redundant single storey building and erection of a building up to eight storey's in height containing with 74 flats and commercial/community space with uses A2/D1 on gro", "organisation": "local-authority-eng:HNS", "ownership-status": "not owned by a public authority", "planning-permission-date": "", "planning-permission-history": "", "planning-permission-status": "permissioned", "planning-permission-type": "", "point": "POINT(-0.366294 51.470029)", "site": "HOLP40", "site-plan-url": "", "start-date": "2017-12-31", "id": "53ff7410d03797e7747d4df128ca450bbe808f4eacc79d0e2d18623ab4a99554:20598"}}