{"type": "Feature", "geometry": {"type": "Point", "coordinates": [-1.995427, 52.717571]}, "properties": {"minimum-net-dwellings": "8", "planning-permission-status": "not permissioned", "organisation": "local-authority-eng:CAN", "point": "POINT(-1.995427 52.717571)", "notes": "CH/18/145 is a planning application for the erection of 6no. 2 bed houses and 2no. 3 bed houses, not yet determined. Former workshop/yard.", "site": "C469", "start-date": "2019-11-01", "name": "C469", "hectares": "0.18", "maximum-net-dwellings": "8", "site-plan-url": "http://cannockchase.addresscafe.com/app/exploreit/", "site-address": "1 Brindley Heath Road, Cannock", "ownership-status": "not owned by a public authority", "slug": "/brownfield-land/local-authority-eng/CAN/C469", "entry-date": "2019-11-01"}}