{"type": "Feature", "geometry": {"type": "Point", "coordinates": [0.069482, 51.558623]}, "properties": {"resource": "30a93d60a53723e9bf458f74f45675bcdef1eb4dcc80ca195188fc2d68fe7e16", "site-address": "73-85 Ilford Hill and 1-7 Cranbrook Road, Ilford", "deliverable": "yes", "end-date": "", "entry-date": "2017-12-31", "hazardous-substances": "", "hectares": "0.26", "maximum-net-dwellings": "98", "minimum-net-dwellings": "98", "notes": "Located within Ilford Housing Zone - Local Plan allocation site number: 18. Employment/Housing. https://www.redbridge.gov.uk/media/3988/lbr-2061-revised-appendix-1-development-opportunity-sites-august-2017.pdf", "organisation": "local-authority-eng:RDB", "ownership-status": "mixed ownership", "planning-permission-date": "", "planning-permission-history": "http://planning.redbridge.gov.uk/swiftlg/apas/run/wphappcriteria.display", "planning-permission-status": "Not permissioned", "planning-permission-type": "", "point": "POINT(0.069482 51.558623)", "site": "BRLBR0018", "site-plan-url": "https://my.redbridge.gov.uk/map/brownfield-land-register/BRLBR0018", "start-date": "2017-12-31", "id": "BRLBR0018"}}