{"type": "Feature", "geometry": {"type": "Point", "coordinates": [-0.97295, 51.745897]}, "properties": {"resource": "ef3de6b7ad0832dd8e26d33d1c91053ffa1f8ef56ba1544abc1493d0bc4eb791", "site-address": "Goodsons Industrial Mews, Thame", "deliverable": "yes", "end-date": "", "entry-date": "2017-12-22", "hazardous-substances": "", "hectares": "1.01", "maximum-net-dwellings": "29", "minimum-net-dwellings": "29", "notes": "`", "organisation": "local-authority-eng:SOX", "ownership-status": "not owned by a public authority", "planning-permission-date": "2016-12-22", "planning-permission-history": "", "planning-permission-status": "permissioned", "planning-permission-type": "full planning permission", "point": "POINT(-0.97295 51.745897)", "site": "P15/S3848/FUL (SHELAA: 347)", "site-plan-url": "", "start-date": "2017-12-22", "slug": "local-authority-eng/SOX/P15-S3848-FUL--SHELAA--347-"}}