{"type": "Feature", "geometry": {"type": "Point", "coordinates": [-0.086692, 51.467113]}, "properties": {"resource": "314a6fc71008dd8e91a2e7420b73ad3616a8ed8c76863e30fe5d7f1cf7d938eb", "site-address": "47b Champion Grove SE5 8BN", "deliverable": "yes", "end-date": "", "entry-date": "2017-12-20", "hazardous-substances": "", "hectares": "0.01", "maximum-net-dwellings": "0", "minimum-net-dwellings": "0", "notes": "Conversion of first and second floors (and roof) into two separate one bedroom flats", "organisation": "local-authority-eng:SWK", "ownership-status": "", "planning-permission-date": "2017-01-11", "planning-permission-history": "", "planning-permission-status": "permissioned", "planning-permission-type": "full planning permission", "point": "POINT(-0.086692 51.467113)", "site": "16-AP-4254", "site-plan-url": "", "start-date": "2017-12-20", "id": "314a6fc71008dd8e91a2e7420b73ad3616a8ed8c76863e30fe5d7f1cf7d938eb:37007"}}