{"type": "Feature", "geometry": {"type": "Point", "coordinates": [-1.178175, 52.678164]}, "properties": {"resource": "ab85c24f14fd2c75be27e526ee3a95ef647140424d09a4f27fc7cdf64ea0112a", "site-address": "Rear of 129 157 & 159 Cropston Road Anstey", "deliverable": "yes", "end-date": "", "entry-date": "2017-11-15", "hazardous-substances": "", "hectares": "1.7", "maximum-net-dwellings": "36", "minimum-net-dwellings": "36", "notes": "Erection of 36 dwellings", "organisation": "local-authority-eng:CHA", "ownership-status": "not owned by a public authority", "planning-permission-date": "2017-03-02", "planning-permission-history": "http://portal.charnwood.gov.uk/Northgate/PlanningExplorerAA/Home.aspx", "planning-permission-status": "permissioned", "planning-permission-type": "full planning permission", "point": "POINT(-1.178175 52.678164)", "site": "PSH3", "site-plan-url": "https://www.charnwood.gov.uk/pages/strategic_housing_and_employment_land_availability_assessments_2014", "start-date": "2017-11-15", "id": "ab85c24f14fd2c75be27e526ee3a95ef647140424d09a4f27fc7cdf64ea0112a:47230"}}