{"type": "Feature", "geometry": {"type": "Point", "coordinates": [-1.47775, 55.00424]}, "properties": {"hectares": "0.45", "site-plan-url": "http://my.northtyneside.gov.uk/category/1134/housing-and-employment", "point": "POINT(-1.47775 55.00424)", "minimum-net-dwellings": "12", "site-address": "Percy Main Bus Depot, Norham Road, North Shields", "start-date": "2017-12-22", "name": "91", "maximum-net-dwellings": "12", "site": "91", "ownership-status": "not owned by a public authority", "organisation": "local-authority-eng:NTY", "planning-permission-status": "not permissioned", "slug": "/brownfield-land/local-authority-eng/NTY/91", "entry-date": "2020-04-15"}}