{"type": "Feature", "geometry": {"type": "Point", "coordinates": [-0.093012, 51.331193]}, "properties": {"point": "POINT(-0.093012 51.331193)", "organisation": "local-authority-eng:CRY", "start-date": "2018-11-30", "notes": "Demolition of existing dwelling. Erection of a building with lower ground floor and accomodation in roofspace comprising 7 two bedroom apartments. formation of revised vehicular access and provision of associated parking spaces, bicycle storages and refuse store.. http://publicaccess2.croydon.gov.uk/online-applications/applicationDetails.do?activeTab=summary&keyVal=OE9SD9JLIHN00", "hectares": "0.1", "site": "16/05057/FUL", "site-plan-url": "http://publicaccess2.croydon.gov.uk/online-applications/applicationDetails.do?activeTab=summary&keyVal=OE9SD9JLIHN00", "site-address": "98, Hyde Road", "ownership-status": "not owned by a public authority", "planning-permission-type": "full planning permission", "planning-permission-history": "http://publicaccess2.croydon.gov.uk/online-applications/applicationDetails.do?activeTab=summary&keyVal=OE9SD9JLIHN00", "name": "16/05057/FUL", "minimum-net-dwellings": "6", "maximum-net-dwellings": "6", "planning-permission-date": "2017-02-14", "planning-permission-status": "permissioned", "deliverable": "yes", "slug": "/brownfield-land/local-authority-eng/CRY/16-05057-FUL", "entry-date": "2018-11-30"}}