{"type": "Feature", "geometry": {"type": "Point", "coordinates": [-2.115004, 53.260792]}, "properties": {"minimum-net-dwellings": "80", "ownership-status": "not owned by a public authority", "site-address": "LPS 14: Land East of Fence Avenue, Macclesfield", "hectares": "2.18", "organisation": "local-authority-eng:CHE", "site-plan-url": "http://cheshireeast.gov.uk/planning/spatial_planning/brownfield-register.aspx", "planning-permission-status": "permissioned", "maximum-net-dwellings": "80", "planning-permission-history": "http://planning.cheshireeast.gov.uk/applicationdetails.aspx?pr=15/4287M&query=36e3d6b4-c5ce-4ecb-8c08-4e080d217af3", "notes": "Planning permission ref: 15/4287M -Partial change of use and partial demolition of existing buildings and structures, residential development for up to 300 units, landscaping, supporting infrastructure and means of access", "point": "POINT(-2.115004 53.260792)", "planning-permission-type": "outline planning permission", "start-date": "2017-10-19", "planning-permission-date": "2017-01-23", "name": "4320", "site": "4320", "slug": "/brownfield-land/local-authority-eng/CHE/4320", "entry-date": "2020-10-30"}}