{"type": "Feature", "geometry": {"type": "Point", "coordinates": [-1.582286, 55.084654]}, "properties": {"resource": "861b110ca9fb6ce201b997d8c904056946a15f6e596400415558060fc0a7699a", "site-address": "Westfield, Church Street, Cramlington", "deliverable": "", "end-date": "", "entry-date": "2019-12-17", "hazardous-substances": "", "hectares": "0.18", "maximum-net-dwellings": "7", "minimum-net-dwellings": "6", "notes": "Potential development opportunity within urban environment that is likely to involve demolition of existing buildings prior to redevelopment. A previous permission, allowed on appeal, has lapsed for clearance and replacement with 6 unit apartment block and 3 cottages (B/07/00598/FUL). The site part occupied by an existing dwelling and any proposal is likely to involve demolition prior to redevelopment. Indicative yield represents slightly higher density fitting for location, potentially through a flatted scheme.", "organisation": "local-authority-eng:NBL", "ownership-status": "not owned by a public authority", "planning-permission-date": "", "planning-permission-history": "https://publicaccess.northumberland.gov.uk/online-applications/propertyDetails.do?activeTab=relatedCases&keyVal=KRLX15LW00A00", "planning-permission-status": "not permissioned", "planning-permission-type": "", "point": "POINT(-1.582286 55.084654)", "site": "4655", "site-plan-url": "http://northumberland.maps.arcgis.com/apps/webappviewer/index.html?id=c1b801d50f8040efbf8c9bc9f916cfae", "start-date": "2016-06-30", "id": "861b110ca9fb6ce201b997d8c904056946a15f6e596400415558060fc0a7699a:36035"}}