{"type": "Feature", "geometry": {"type": "Point", "coordinates": [-3.030549, 53.415871]}, "properties": {"resource": "5f6bcb66967d6c4c7f3bf6e31355e44b067502eb18889e86c4ea0e4e68831cfe", "site-address": "156 Falkland Road, Egremont", "deliverable": "yes", "end-date": "", "entry-date": "2017-12-27", "hazardous-substances": "", "hectares": "0.02", "maximum-net-dwellings": "5", "minimum-net-dwellings": "5", "notes": "16/01246. Conversion of building from three to five self contained flats", "organisation": "local-authority-eng:WRL", "ownership-status": "not owned by a public authority", "planning-permission-date": "2017-01-09", "planning-permission-history": "https://planning.wirral.gov.uk/online-applications/applicationDetails.do?activeTab=summary&keyVal=_WIRRA_DCAPR_99697", "planning-permission-status": "permissioned", "planning-permission-type": "full planning permission", "point": "POINT(-3.030549 53.415871)", "site": "671400", "site-plan-url": "https://mapping.wirral.gov.uk/wml8/Map.aspx?MapName=Brownfield", "start-date": "2017-12-27", "id": "5f6bcb66967d6c4c7f3bf6e31355e44b067502eb18889e86c4ea0e4e68831cfe:20313"}}