{"type": "Feature", "geometry": {"type": "Point", "coordinates": [-0.144699, 51.497353]}, "properties": {"resource": "8ed1928d72d46e293eefc00199dd82e514e492b9583cb2d97d5970d0993227dd", "site-address": "32 Buckingham Palace Road, London, SW1W 0RE", "deliverable": "yes", "end-date": "", "entry-date": "2017-11-30", "hazardous-substances": "", "hectares": "0.009037245", "maximum-net-dwellings": "0", "minimum-net-dwellings": "0", "notes": "5-15 House Supply. Construction of mansard roof extension at fourth floor level and use of first, second, third and new fourth floor to provide 23 intermediate affordable housing units (Class C3). Use of the ground and basement floors for retail (Class A1/A3) including replacement shopfronts. External works to the front, rear and side elevations and other associated works.. http://idoxpa.westminster.gov.uk/online-applications/applicationDetails.do?activeTab=summary&keyVal=NRKQSMRP0C400", "organisation": "local-authority-eng:WSM", "ownership-status": "", "planning-permission-date": "2016-04-21", "planning-permission-history": "http://idoxpa.westminster.gov.uk/online-applications/applicationDetails.do?activeTab=summary&keyVal=NRKQSMRP0C400", "planning-permission-status": "permissioned", "planning-permission-type": "full planning permission", "point": "POINT(-0.144699 51.497353)", "site": "15/06445/FULL", "site-plan-url": "https://lbhf.maps.arcgis.com/apps/View/index.html?appid=d0d51e7d013a4d1a953ecc1cff697d24&site=15/06445/FULL", "start-date": "2017-11-30", "slug": "local-authority-eng/WSM/15-06445-FULL"}}