{"type": "Feature", "geometry": {"type": "Point", "coordinates": [-0.764912, 51.41814]}, "properties": {"start-date": "2018-04-05", "planning-permission-history": "https://www.bracknell-forest.gov.uk/view-or-comment-planning-applications/access-online-planning-register", "hectares": "1.1", "planning-permission-type": "full planning permission", "planning-permission-date": "2018-04-05", "ownership-status": "not owned by a public authority", "site-plan-url": "https://www.bracknell-forest.gov.uk/sites/default/files/documents/brownfield-register-map.pdf", "planning-permission-status": "permissioned", "maximum-net-dwellings": "126", "name": "Map Ref 31 18/00514/FUL (S73)", "site-address": "OTV House Wokingham Road, Bracknell", "point": "POINT(-0.764912 51.41814)", "minimum-net-dwellings": "126", "organisation": "local-authority-eng:BRC", "site": "Map Ref 31 18/00514/FUL (S73)", "slug": "/brownfield-land/local-authority-eng/BRC/Map-Ref-31-18-00514-FUL--S73-", "entry-date": "2018-12-19"}}