{"type": "Feature", "geometry": {"type": "Point", "coordinates": [-0.171697, 50.834466]}, "properties": {"resource": "163a15518ad8e5437a2471adf78aabf61a16c49b79a0c9f7c425730829b95349", "site-address": "Ethel Street Garages", "deliverable": "", "end-date": "", "entry-date": "2017-09-26", "hazardous-substances": "", "hectares": "0.15", "maximum-net-dwellings": "23", "minimum-net-dwellings": "23", "notes": "Within Hove Station Conservation Area. Whilst some rear workshops/garages have had upper floor extensions approved others have been refused on amenity grounds. Possible multiple ownership might make a comprehensive approach difficult to achieve. However individual garage units might come forward separately.", "organisation": "local-authority-eng:BNH", "ownership-status": "not owned by a public authority", "planning-permission-date": "", "planning-permission-history": "http://ww3.brighton-hove.gov.uk/index.cfm?request=c1199915&action=showDetail&APPLICATION_NUMBER=BH2017%2F00486|http://ww3.brighton-hove.gov.uk/index.cfm?request=c1199915&action=showDetail&APPLICATION_NUMBER=BH2007%2F02897|http://ww3.brighton-hove.gov.uk/index.cfm?request=c1199915&action=showDetail&APPLICATION_NUMBER=BH2007%2F01683|http://ww3.brighton-hove.gov.uk/index.cfm?request=c1199915&action=showDetail&APPLICATION_NUMBER=BH2004%2F03578%2FFP|http://ww3.brighton-hove.gov.uk/index.cfm?request=c1199915&action=showDetail&APPLICATION_NUMBER=BH2004%2F02058%2FFP|http://ww3.brighton-hove.gov.uk/index.cfm?request=c1199915&action=showDetail&APPLICATION_NUMBER=BH2004%2F00118%2FFP", "planning-permission-status": "not permissioned", "planning-permission-type": "", "point": "POINT(-0.171697 50.834466)", "site": "SHLAA0034", "site-plan-url": "https://www.brighton-hove.gov.uk/sites/brighton-hove.gov.uk/files/SHLAA0034%20Ethel%20Street%20Garages.pdf", "start-date": "2017-09-26", "id": "local-authority-eng/BNH/SHLAA0034"}}