{"type": "Feature", "geometry": {"type": "Point", "coordinates": [-1.76283, 53.770794]}, "properties": {"site-plan-url": "http://cbmdc.maps.arcgis.com/apps/webappviewer/index.html?id=2134938ccf5843649ef0e555c0926dae&extent=415707.4354,430498.5,415748.32,430540.0,27700", "planning-permission-history": "https://planning.bradford.gov.uk/online-applications/applicationDetails.do?keyVal=KYPSCADH02100&activeTab=summary|https://planning.bradford.gov.uk/online-applications/applicationDetails.do?keyVal=LLQQQLDHC1000&activeTab=summary|https://planning.bradford.", "notes": "Land with permission for 6 homes approved on appeal", "planning-permission-date": "2016-10-24", "organisation": "local-authority-eng:BRD", "maximum-net-dwellings": "0", "site-address": "Faxfleet Street/ Carr Street", "minimum-net-dwellings": "0", "deliverable": "yes", "site": "SW/144", "start-date": "2018-11-01", "planning-permission-status": "permissioned", "point": "POINT(-1.76283 53.770794)", "name": "SW/144", "hectares": "0.09", "planning-permission-type": "full planning permission", "slug": "/brownfield-land/local-authority-eng/BRD/SW-144", "entry-date": "2018-11-01"}}