{"type": "Feature", "geometry": {"type": "Point", "coordinates": [-1.155557, 52.955997]}, "properties": {"site-plan-url": "http://maps.nottinghamcity.gov.uk/insightmapping/?l=0.21,9.63&xmin=456814.23000000045&xmax=456873.2000000002&ymin=340175.5&ymax=340230.80000000075", "planning-permission-date": "2019-03-27", "minimum-net-dwellings": "105", "site-address": "Stanley House , 56 Talbot Street , Nottingham NG1 5GL", "site": "2319", "planning-permission-history": "http://publicaccess.nottinghamcity.gov.uk/online-applications/applicationDetails.do?activeTab=summary&keyVal=PH3A2ALYIFX00", "planning-permission-type": "full planning permission", "name": "2319", "planning-permission-status": "permissioned", "hectares": "0.2", "point": "POINT(-1.155557 52.955997)", "deliverable": "yes", "organisation": "local-authority-eng:NGM", "start-date": "2018-12-14", "maximum-net-dwellings": "105", "notes": "DevelopmentDescription: Change of use of vacant office building to student accommodation.; SiteInformation: N/A; NonHousingDevelopment: N/A; ProposedForPIP: No; Notes: N/A", "ownership-status": "not owned by a public authority", "slug": "/brownfield-land/local-authority-eng/NGM/2319", "entry-date": "2019-08-14", "end-date": "2019-03-31"}}