{"type": "Feature", "geometry": {"type": "Point", "coordinates": [-1.226102, 51.719879]}, "properties": {"resource": "687eead7f7d89376a6dc0292f78ba2f4973f54fe0d7fe44bef1aac5f345daedf", "site-address": "Railway Lane, Oxford", "deliverable": "", "end-date": "", "entry-date": "2017-10-26", "hazardous-substances": "", "hectares": "0.97", "maximum-net-dwellings": "65", "minimum-net-dwellings": "34", "notes": "The site is allocated for housing in the Sites and Housing Plan adopted in February 2013 post NPPF.", "organisation": "local-authority-eng:OXO", "ownership-status": "not owned by a public authority", "planning-permission-date": "", "planning-permission-history": "http://public.oxford.gov.uk/online-applications/", "planning-permission-status": "not permissioned", "planning-permission-type": "", "point": "POINT(-1.226102 51.719879)", "site": "052", "site-plan-url": "https://www.oxford.gov.uk/downloads/file/4200/site_052_-_railway_lane", "start-date": "2017-10-26", "id": "687eead7f7d89376a6dc0292f78ba2f4973f54fe0d7fe44bef1aac5f345daedf:26475"}}