{"type": "Feature", "geometry": {"type": "Point", "coordinates": [0.147456, 51.313109]}, "properties": {"resource": "ce99fe244947ce96743c003acca6866e120a4b9137d91f9062dab459a639699c", "site-address": "Fort Halstead, Crow Drive, TN14 7BU", "deliverable": "yes", "end-date": "", "entry-date": "2017-12-01", "hazardous-substances": "", "hectares": "40.1", "maximum-net-dwellings": "450", "minimum-net-dwellings": "450", "notes": "", "organisation": "local-authority-eng:SEV", "ownership-status": "not owned by a public authority", "planning-permission-date": "2015-09-10", "planning-permission-history": "https://pa.sevenoaks.gov.uk/online-applications/simpleSearchResults.do?action=firstPage", "planning-permission-status": "permissioned", "planning-permission-type": "other", "point": "POINT(0.147456 51.313109)", "site": "BFR104", "site-plan-url": "https://pa.sevenoaks.gov.uk/online-applications/simpleSearchResults.do?action=firstPage", "start-date": "2017-11-01", "id": "ce99fe244947ce96743c003acca6866e120a4b9137d91f9062dab459a639699c:32591"}}