{"type": "Feature", "geometry": {"type": "Point", "coordinates": [-1.448075, 52.397981]}, "properties": {"site": "BW1", "notes": "Off road car park that is considered to be a viable redevelopment option that is available and unconstrained. Development will need to consider the loss of parking provision.", "maximum-net-dwellings": "5", "site-plan-url": "http://www.coventry.gov.uk/downloads/file/19663/lp53_shlaa_2016_report_and_appendices", "name": "BW1", "organisation": "local-authority-eng:COV", "point": "POINT(-1.448075 52.397981)", "site-address": "Parking area, Santos Close", "hectares": "0.07", "deliverable": "yes", "minimum-net-dwellings": "5", "planning-permission-status": "not permissioned", "ownership-status": "owned by a public authority", "slug": "/brownfield-land/local-authority-eng/COV/BW1", "entry-date": "2019-11-30"}}