{"type": "Feature", "geometry": {"type": "Point", "coordinates": [-2.182945, 52.585802]}, "properties": {"resource": "3938ddedb2fedca20fa409e23118564ff80bfd283b05852eb5d968affc13697d", "site-address": "1 Cherrington Gardens Wolverhampton West Midlands WV6 8AJ", "deliverable": "", "end-date": "", "entry-date": "2018-05-22", "hazardous-substances": "", "hectares": "0.0617", "maximum-net-dwellings": "", "minimum-net-dwellings": "", "notes": "", "organisation": "local-authority-eng:WLV", "ownership-status": "", "planning-permission-date": "", "planning-permission-history": "", "planning-permission-status": "permissioned", "planning-permission-type": "", "point": "POINT(-2.182945 52.585802)", "site": "36190", "site-plan-url": "", "start-date": "", "id": "local-authority-eng/WLV/36190"}}