{"type": "Feature", "geometry": {"type": "Point", "coordinates": [0.250214, 51.501906]}, "properties": {"organisation": "local-authority-eng:THR", "hectares": "0.4612", "site": "AVE_14", "planning-permission-date": "2017-10-20", "site-address": "Springfield, Mill Road, Aveley", "minimum-net-dwellings": "7", "deliverable": "yes", "point": "POINT(0.250214 51.501906)", "planning-permission-type": "full planning permission", "planning-permission-status": "permissioned", "name": "AVE_14", "start-date": "2016-06-30", "maximum-net-dwellings": "7", "ownership-status": "not owned by a public authority", "site-plan-url": "https://thurrock.gov.uk/brownfield-map", "slug": "/brownfield-land/local-authority-eng/THR/AVE-14", "entry-date": "2019-03-31"}}