{"type": "Feature", "geometry": {"type": "Point", "coordinates": [-1.529614, 55.126444]}, "properties": {"resource": "51fd36daf72b8b22fcaff19185e18c31456457ac8116b866c28959be3c69eb1a", "site-address": "Land around and including Malvins House Close, Blyth", "deliverable": "yes", "end-date": "", "entry-date": "2017-12-17", "hazardous-substances": "", "hectares": "0.45", "maximum-net-dwellings": "48", "minimum-net-dwellings": "48", "notes": "Planning permission in place for scheme of 48 dwellings on part of site, comprising 33 flats, 9 terraced houses, 4 detached houses and 2 bungalows - 10/S/00290/VARYCO. This extended the time limit of original application - 06/00225/FUL. Permission due to lapse in April 2017", "organisation": "local-authority-eng:NBL", "ownership-status": "not owned by a public authority", "planning-permission-date": "2014-01-12", "planning-permission-history": "https://publicaccess.northumberland.gov.uk/online-applications/propertyDetails.do?activeTab=relatedCases&keyVal=L5YDNIQS04N00", "planning-permission-status": "permissioned", "planning-permission-type": "full planning permission", "point": "POINT(-1.529614 55.126444)", "site": "4663", "site-plan-url": "http://northumberland.maps.arcgis.com/apps/webappviewer/index.html?id=c1b801d50f8040efbf8c9bc9f916cfae", "start-date": "2016-06-30", "id": "local-authority-eng/NBL/4663"}}