{"type": "Feature", "geometry": {"type": "Point", "coordinates": [-1.35473, 53.31104]}, "properties": {"notes": "Reserved matters application (18/00358/RM) conditionally approved for the erection of 20 dwellings and associated road and retention, in part, of employment use relating to 13/00176/OL. The north side of the site is Greenfield land and excluded from pdl; the overall housing figure is therefore reduced to 13 dwellings.|https://www.ne-derbyshire.gov.uk/documents/eb-hou6b-housing-sites-appendix-c/viewdocument", "organisation": "local-authority-eng:NED", "name": "ECK/2410", "planning-permission-type": "reserved matters approval", "site-plan-url": "https://www.ne-derbyshire.gov.uk/documents/eck-2410/download", "site": "ECK/2410", "planning-permission-status": "permissioned", "minimum-net-dwellings": "13", "point": "POINT(-1.35473 53.31104)", "ownership-status": "not owned by a public authority", "hectares": "0.97", "planning-permission-date": "2019-12-05", "deliverable": "yes", "site-address": "Bradley Lomas Electrolok Ltd, Church Street, Eckington", "planning-permission-history": "http://planapps-online.ne-derbyshire.gov.uk/online-applications/applicationDetails.do?activeTab=relatedCases&keyVal=MIXUAHLI2Z000", "maximum-net-dwellings": "13", "start-date": "2017-10-31", "slug": "/brownfield-land/local-authority-eng/NED/ECK-2410", "entry-date": "2020-03-31"}}