{"type": "Feature", "geometry": {"type": "Point", "coordinates": [-1.91614, 52.473101]}, "properties": {"name": "CC415", "site-address": "Auchinleck Square and Auchinleck House - Phase 2, Broad Street, Ladywood", "notes": "2017/04628/PA. Erection of 228 residential units varying between 6 & 17 storeys together with 6 no. ground floor retails units (Use Class A1), car parking & associated works.", "hectares": "0.49", "start-date": "2018-09-21", "deliverable": "yes", "planning-permission-type": "full planning permission", "maximum-net-dwellings": "228", "site-plan-url": "https://localview.birmingham.gov.uk/Planning/Sites/SHLAA/", "organisation": "local-authority-eng:BIR", "point": "POINT(-1.91614 52.473101)", "planning-permission-date": "2017-11-01", "minimum-net-dwellings": "228", "site": "CC415", "planning-permission-status": "permissioned", "slug": "/brownfield-land/local-authority-eng/BIR/CC415", "entry-date": "2018-09-21"}}