{"type": "Feature", "geometry": {"type": "Point", "coordinates": [-2.985177, 53.829423]}, "properties": {"minimum-net-dwellings": "2", "hectares": "0.31", "planning-permission-date": "2018-07-12", "planning-permission-type": "full planning permission", "organisation": "local-authority-eng:WYR", "point": "POINT(-2.985177 53.829423)", "site-address": "Land at Foxes Farm,Hardhorn Road, Poulton", "name": "BR026", "maximum-net-dwellings": "2", "planning-permission-history": "https://publicaccess.wyre.gov.uk/online-applications/", "site": "BR026", "site-plan-url": "https://arcg.is/1yDieW", "notes": "Application for the erection of 2 detached dwellings with associated access and landscaping (following the demolition of existing buildings) (re-submission of 17/00220/FUL)", "start-date": "2018-09-30", "deliverable": "yes", "planning-permission-status": "permissioned", "ownership-status": "not owned by a public authority", "slug": "/brownfield-land/local-authority-eng/WYR/BR026", "entry-date": "2019-10-30"}}