{"type": "Feature", "geometry": {"type": "Point", "coordinates": [-3.255877, 54.110077]}, "properties": {"site-plan-url": "https://webgis1.barrowbc.gov.uk/webgis/?easting=317992.49&northing=468973.55&zoom=8&action=layer&layer=BBC:CURRENTBROWNFIELDLANDREGIST", "maximum-net-dwellings": "70", "site": "BFLR/2017/0014", "notes": "Park Vale site is now in the Green Wedge and lease negotiations are taking place.. Forms part of proposed allocation - Housing", "name": "BFLR/2017/0014", "planning-permission-status": "not permissioned", "minimum-net-dwellings": "70", "ownership-status": "owned by a public authority", "start-date": "2017-12-18", "hectares": "5.93", "site-address": "Park Vale", "organisation": "local-authority-eng:BAR", "point": "POINT(-3.255877 54.110077)", "slug": "/brownfield-land/local-authority-eng/BAR/BFLR-2017-0014", "entry-date": "2018-12-20"}}