{"type": "Feature", "geometry": {"type": "Point", "coordinates": [0.377852, 51.385343]}, "properties": {"site": "20200033", "planning-permission-date": "2020-03-27", "site-address": "22 Manor Road Cobham Gravesend Kent DA13 9BN", "planning-permission-type": "full planning permission", "name": "20200033", "site-plan-url": "https://plan.gravesham.gov.uk/online-applications/applicationDetails.do?activeTab=map&keyVal=Q3VQ5GHPHZ700", "maximum-net-dwellings": "0", "notes": "Gain = 1; Loss = 1; Net Gain = 0.. Demolition of existing dwelling and erection of detached 5 bedroom Georgian house with standalone garage.. https://plan.gravesham.gov.uk/online-applications/applicationDetails.do?activeTab=constraints&keyVal=Q3VQ5GHPHZ700", "deliverable": "yes", "point": "POINT(0.377852 51.385343)", "organisation": "local-authority-eng:GRA", "hectares": "0.33", "minimum-net-dwellings": "0", "ownership-status": "not owned by a public authority", "planning-permission-status": "permissioned", "start-date": "2021-01-22", "planning-permission-history": "https://plan.gravesham.gov.uk/online-applications/applicationDetails.do?activeTab=relatedCases&keyVal=Q3VQ5GHPHZ700", "slug": "/brownfield-land/local-authority-eng/GRA/20200033", "entity": 510379, "entry-date": "2021-01-22"}}