{"type": "Feature", "geometry": {"type": "Point", "coordinates": [-0.14134, 50.962911]}, "properties": {"hectares": "0.4", "notes": "Planning Permission Reference: DM/15/1410 - Proposal for 15 residential units comprising of 7 houses and 8 flats.", "ownership-status": "not owned by a public authority", "minimum-net-dwellings": "15", "name": "SHLAAID73", "planning-permission-status": "permissioned", "planning-permission-date": "2016-01-27", "site-address": "Covers Timber Yard, 107 Fairfield Road, Burgess Hill", "planning-permission-type": "full planning permission", "site-plan-url": "https://www.midsussex.gov.uk/planning-building/evidence-supporting-documents/", "site": "SHLAAID73", "maximum-net-dwellings": "15", "start-date": "2017-12-13", "planning-permission-history": "http://www.midsussex.gov.uk/", "organisation": "local-authority-eng:MSS", "point": "POINT(-0.14134 50.962911)", "deliverable": "yes", "slug": "/brownfield-land/local-authority-eng/MSS/SHLAAID73", "entry-date": "2017-12-13", "end-date": "2018-12-13"}}