{"type": "Feature", "geometry": {"type": "Point", "coordinates": [-1.857755, 52.51437]}, "properties": {"resource": "77da1087f91eafee42797dbaa9bebef573d2eb759b39d9db130c99d34cbe4ec4", "site-address": "The Brookvale PH, Slade Road, Stockland Green", "deliverable": "yes", "end-date": "", "entry-date": "2019-12-31", "hazardous-substances": "", "hectares": "0.18", "maximum-net-dwellings": "4", "minimum-net-dwellings": "4", "notes": "2018/08238/PA", "organisation": "local-authority-eng:BIR", "ownership-status": "", "planning-permission-date": "2019-03-14", "planning-permission-history": "", "planning-permission-status": "permissioned", "planning-permission-type": "full planning permission", "point": "POINT(-1.857755 52.51437)", "site": "E914", "site-plan-url": "https://maps.birmingham.gov.uk/webapps/shlaa/", "start-date": "2019-12-31", "id": "E914"}}