{"type": "Feature", "geometry": {"type": "Point", "coordinates": [-2.011394, 52.46159]}, "properties": {"organisation": "local-authority-eng:BIR", "minimum-net-dwellings": "7", "point": "POINT(-2.011394 52.46159)", "site": "S479", "notes": "Expired Planning Permission 2007/01474/PA", "maximum-net-dwellings": "7", "planning-permission-status": "Not Permissioned", "start-date": "2017-12-19", "name": "S479", "site-plan-url": "https://localview.birmingham.gov.uk/Planning/Sites/SHLAA/", "site-address": "Rear of 817 to 829 Hagley Road West, Quinton", "hectares": "0.12", "slug": "/brownfield-land/local-authority-eng/BIR/S479", "entry-date": "2017-12-19"}}