{"type": "Feature", "geometry": {"type": "Point", "coordinates": [-0.204471, 51.525396]}, "properties": {"resource": "e15d044221879b726f765f81f353255e6801aad634d654f79d20068ff257a00e", "name": "18/05929/FULL", "site-address": "413-419 Harrow Road London W9 3QJ", "deliverable": "", "end-date": "", "entry-date": "2020-07-23", "hazardous-substances": "", "hectares": "0.12", "maximum-net-dwellings": "0", "minimum-net-dwellings": "0", "notes": "Redevelopment of the site to provide a 5 storey building comprising retail (Classes A1/A2) at ground floor and 19 residential units (Class C3) on the upper floors; provision of cycle parking, refuse storage, ancillary space, mechanical plant and other associated works incidental to the development.. http://idoxpa.westminster.gov.uk/online-applications/applicationDetails.do?activeTab=summary&keyVal=PBT505RPFTN00", "organisation": "local-authority-eng:WSM", "ownership-status": "", "planning-permission-date": "2019-09-27", "planning-permission-history": "http://idoxpa.westminster.gov.uk/online-applications/applicationDetails.do?activeTab=summary&keyVal=PBT505RPFTN00", "planning-permission-status": "permissioned", "planning-permission-type": "full planning permission", "point": "POINT(-0.204471 51.525396)", "site": "18/05929/FULL", "site-plan-url": "https://lbhf.maps.arcgis.com/apps/View/index.html?appid=d0d51e7d013a4d1a953ecc1cff697d24&site=18/05929/FULL", "start-date": "2020-07-23", "slug": "/brownfield-land/local-authority-eng/WSM/18-05929-FULL", "href": "local-authority-eng/WSM/18-05929-FULL"}}