{"type": "Feature", "geometry": {"type": "Point", "coordinates": [-0.013109, 51.466615]}, "properties": {"resource": "4f17f637b33516e34ce60864d5053c32d7913d59aeb15117775c84cc4fc3b24f", "site-address": "Tesco, Conington Road", "deliverable": "yes", "end-date": "", "entry-date": "2018-10-22", "hazardous-substances": "", "hectares": "2.63", "maximum-net-dwellings": "1115", "minimum-net-dwellings": "1115", "notes": "Site Allocation LTC5 for mixed use development including 367 residential units", "organisation": "local-authority-eng:LEW", "ownership-status": "not owned by a public authority", "planning-permission-date": "", "planning-permission-history": "", "planning-permission-status": "pending decision", "planning-permission-type": "full planning permission", "point": "POINT(-0.013109 51.466615)", "site": "LC016", "site-plan-url": "http://www.lewisham.gov.uk/brownfieldregister", "start-date": "2017-11-30", "id": "4f17f637b33516e34ce60864d5053c32d7913d59aeb15117775c84cc4fc3b24f:17560"}}