{"type": "Feature", "geometry": {"type": "Point", "coordinates": [-0.195131, 51.366237]}, "properties": {"resource": "6c2e9015d78d3f49828ddf5bea7ecbd28be26caace8b2adbcd26c59eaa9eac23", "site-address": "North of Greenford Road", "deliverable": "", "end-date": "", "entry-date": "2017-12-31", "hazardous-substances": "", "hectares": "0.07", "maximum-net-dwellings": "25", "minimum-net-dwellings": "12", "notes": "", "organisation": "local-authority-eng:STN", "ownership-status": "not owned by a public authority", "planning-permission-date": "", "planning-permission-history": "", "planning-permission-status": "not permissioned", "planning-permission-type": "other", "point": "POINT(-0.195131 51.366237)", "site": "LBS-BLR6", "site-plan-url": "https://drive.google.com/open?id=1jl2SWkVtclNniCMYGJG41PdNtN-p5OWu", "start-date": "2017-12-31", "slug": "local-authority-eng/STN/LBS-BLR6"}}