{"type": "Feature", "geometry": {"type": "Point", "coordinates": [-2.232918, 53.483978]}, "properties": {"start-date": "2017-12-31", "site-address": "Spear Street", "site-plan-url": "https://mappinggm.org.uk/gmodin/", "planning-permission-status": "not permissioned", "notes": "Approx 'MinNetDwellings' expected however proposals for a higher number of dwellings will be considered. No maximum has been set but all proposals must be in line with the Council's design quality requirements and any relevant Council-endorsed planning framework or masterplan", "site": "Anco_Cap_901", "planning-permission-history": "http://pa.manchester.gov.uk/online-applications/", "deliverable": "yes", "organisation": "local-authority-eng:MAN", "minimum-net-dwellings": "11", "point": "POINT(-2.232918 53.483978)", "maximum-net-dwellings": "11", "hectares": "0.01", "name": "Anco_Cap_901", "slug": "/brownfield-land/local-authority-eng/MAN/Anco-Cap-901", "entry-date": "2020-12-31"}}