{"type": "Feature", "geometry": {"type": "Point", "coordinates": [-1.410782, 53.385094]}, "properties": {"resource": "0edf56e3a97bc3b2118b3d811737d21c369efaf48952ad7e2038f05074854670", "site-address": "Prince of Wales Road/Station Road", "deliverable": "", "end-date": "", "entry-date": "2018-12-18", "hazardous-substances": "", "hectares": "1.1", "maximum-net-dwellings": "14", "minimum-net-dwellings": "14", "notes": "Estimated to comprise of 4 Apartments and 10 Houses", "organisation": "local-authority-eng:SHF", "ownership-status": "owned by a public authority", "planning-permission-date": "", "planning-permission-history": "", "planning-permission-status": "not permissioned", "planning-permission-type": "", "point": "POINT(-1.410782 53.385094)", "site": "S03178", "site-plan-url": "https://www.sheffield.gov.uk/content/sheffield/home/planning-development/housing-land-sites.html", "start-date": "2017-12-05", "id": "S03178"}}