{"type": "Feature", "geometry": {"type": "Point", "coordinates": [0.482826, 50.841034]}, "properties": {"resource": "78cff0703156173e855e451949b5010fc381d8b8a5f0fd72c9172d563c395eca", "site-address": "17 & 17A Dorset Road South, Bexhill", "deliverable": "yes", "end-date": "", "entry-date": "2017-10-01", "hazardous-substances": "", "hectares": "0.07", "maximum-net-dwellings": "5", "minimum-net-dwellings": "5", "notes": "This brownfield site is part of a larger site that includes greenfield land.. Demolition of existing buildings and erection of a building comprising 12 apartments.", "organisation": "local-authority-eng:ROH", "ownership-status": "not owned by a public authority", "planning-permission-date": "2016-06-13", "planning-permission-history": "http://planweb01.rother.gov.uk/OcellaWeb/planningDetails?reference=RR/2010/2485/P&from=planningSearch|http://planweb01.rother.gov.uk/OcellaWeb/planningDetails?reference=RR/2009/1398/P&from=planningSearch|http://planweb01.rother.gov.uk/OcellaWeb/planningDetails?reference=RR/2007/2011/P&from=planningSearch|http://planweb01.rother.gov.uk/OcellaWeb/planningDetails?reference=RR/2006/3466/P&from=planningSearch", "planning-permission-status": "permissioned", "planning-permission-type": "full planning permission", "point": "POINT(0.482826 50.841034)", "site": "RDCBLR0013", "site-plan-url": "https://www.rother.gov.uk/CHttpHandler.ashx?id=29511", "start-date": "2017-10-01", "id": "78cff0703156173e855e451949b5010fc381d8b8a5f0fd72c9172d563c395eca:65121"}}