{"type": "Feature", "geometry": {"type": "Point", "coordinates": [-2.272355, 52.347633]}, "properties": {"planning-permission-status": "not permissioned", "ownership-status": "not owned by a public authority", "minimum-net-dwellings": "12", "deliverable": "yes", "maximum-net-dwellings": "12", "name": "MI/12", "site-address": "Robbins Depot Manor Road", "organisation": "local-authority-eng:WYE", "start-date": "2017-12-31", "site-plan-url": "http://www.wyreforestdc.gov.uk/media/3411881/MI12-Robbins-Depot.png", "site": "MI/12", "hectares": "0.19", "slug": "/brownfield-land/local-authority-eng/WYE/MI-12", "entry-date": "2017-12-31", "point": "POINT(-2.272355 52.347633)"}}