{"type": "Feature", "geometry": {"type": "Point", "coordinates": [-1.975292, 52.959842]}, "properties": {"resource": "a10f13fdb8d3228182aaef78dd1954a41e8e2b0601843197a93a201c67d43f27", "site-address": "coregreenyard scrapyard tenford lane", "deliverable": "yes", "end-date": "", "entry-date": "2020-03-25", "hazardous-substances": "", "hectares": "0.73", "maximum-net-dwellings": "6", "minimum-net-dwellings": "6", "notes": "Redevelopment to provide 6 new dwellings. Completions expected on site within 5 years", "organisation": "local-authority-eng:STF", "ownership-status": "not owned by a public authority", "planning-permission-date": "2018-02-23", "planning-permission-history": "", "planning-permission-status": "permissioned", "planning-permission-type": "full planning permission", "point": "POINT(-1.975292 52.959842)", "site": "OC076", "site-plan-url": "https://www.staffsmoorlands.gov.uk/media/4698/Brownfield-Register/pdf/SMDC_Brownfield_Land_Register_2019_Maps.pdf?m=1576509255197", "start-date": "2017-01-12", "id": "a10f13fdb8d3228182aaef78dd1954a41e8e2b0601843197a93a201c67d43f27:44361"}}