{"type": "Feature", "geometry": {"type": "Point", "coordinates": [0.254896, 50.783255]}, "properties": {"site": "OC10", "maximum-net-dwellings": "20", "planning-permission-status": "not permissioned", "organisation": "local-authority-eng:EAS", "hectares": "0.5", "ownership-status": "not owned by a public authority", "site-plan-url": "http://www.lewes-eastbourne.gov.uk/planning-policy/brownfield-land-register/", "site-address": "St. Elizabeth\u2019s Church, Old Town", "start-date": "2017-12-20", "minimum-net-dwellings": "20", "name": "OC10", "slug": "/brownfield-land/local-authority-eng/EAS/OC10", "entry-date": "2018-12-11", "point": "POINT(0.254896 50.783255)"}}