{"type": "Feature", "geometry": {"type": "Point", "coordinates": [-2.272725, 53.386315]}, "properties": {"start-date": "2017-12-31", "minimum-net-dwellings": "32", "name": "CDN/18/0890", "point": "POINT(-2.272725 53.386315)", "planning-permission-type": "full planning permission", "planning-permission-history": "http://pa.manchester.gov.uk/online-applications/", "organisation": "local-authority-eng:MAN", "site-plan-url": "https://mappinggm.org.uk/gmodin/", "site-address": "Greenwood Road/Gladeside Road", "maximum-net-dwellings": "32", "hectares": "0.24", "planning-permission-date": "2019-01-17", "deliverable": "yes", "planning-permission-status": "permissioned", "site": "CDN/18/0890", "slug": "/brownfield-land/local-authority-eng/MAN/CDN-18-0890", "entry-date": "2020-12-31"}}