{"type": "Feature", "geometry": {"type": "Point", "coordinates": [-2.057268, 52.529707]}, "properties": {"site-address": "Land Off Alexandra Road/Spring Street, Tipton", "maximum-net-dwellings": "9", "site-plan-url": "http://www.sandwell.gov.uk/info/200317/planning_policy/3809/sandwell_brownfield_register", "site": "2035", "notes": "8 units already completed", "planning-permission-date": "2015-07-22", "minimum-net-dwellings": "9", "point": "POINT(-2.057268 52.529707)", "organisation": "local-authority-eng:SAW", "name": "2035", "planning-permission-type": "outline planning permission", "hectares": "0.2", "start-date": "2016-06-30", "slug": "/brownfield-land/local-authority-eng/SAW/2035", "entry-date": "2016-06-30"}}