{"type": "Feature", "geometry": {"type": "Point", "coordinates": [-2.1976, 53.8355]}, "properties": {"notes": "Outline: Major: Residential development for twelve dwelling house (Access and Layout only) and demolition of existing nursery building. Development at this site has not started - Outline permission only. A Reserved Matters application has not been submitted. The planning permission is due to expire in December 2017. No Building Control records available. Unclear as to whether the site will come forward. Retain in five year supply until end of 2017/18. The agent for the owner has moved away.", "site-plan-url": "https://www.pendle.gov.uk/downloads/download/3052/brownfield_register_site_plans", "ownership-status": "not owned by a public authority", "point": "POINT(-2.1976 53.8355)", "site": "NN124", "start-date": "2017-12-14", "organisation": "local-authority-eng:PEN", "planning-permission-type": "other", "planning-permission-history": "https://publicaccess.pendle.gov.uk/online-applications/", "name": "NN124", "deliverable": "yes", "planning-permission-date": "2014-12-03", "planning-permission-status": "not permissioned", "minimum-net-dwellings": "12", "site-address": "Barkerhouse Road Day Nursery, Barkerhouse Road, Nelson", "hectares": "0.32", "maximum-net-dwellings": "12", "slug": "/brownfield-land/local-authority-eng/PEN/NN124", "entity": 490233, "entry-date": "2019-10-14"}}