{"type": "Feature", "geometry": {"type": "Point", "coordinates": [-0.091666, 51.381162]}, "properties": {"maximum-net-dwellings": "6", "deliverable": "yes", "notes": "Rear and loft extensions and change of use from office to residential to create 6 no. flats including parking and cycle storage.. https://publicaccess3.croydon.gov.uk/online-applications/simpleSearchResults.do?action=firstPage", "name": "18/03549/FUL", "site": "18/03549/FUL", "ownership-status": "not owned by a public authority", "site-address": "Rear Of 2 To 6, Lambert's Place", "planning-permission-history": "https://publicaccess3.croydon.gov.uk/online-applications/simpleSearchResults.do?action=firstPage", "minimum-net-dwellings": "6", "site-plan-url": "https://publicaccess3.croydon.gov.uk/online-applications/simpleSearchResults.do?action=firstPage", "planning-permission-date": "2018-09-12", "start-date": "2019-12-23", "point": "POINT(-0.091666 51.381162)", "organisation": "local-authority-eng:CRY", "hectares": "0.04", "planning-permission-type": "full planning permission", "planning-permission-status": "permissioned", "slug": "/brownfield-land/local-authority-eng/CRY/18-03549-FUL", "entry-date": "2019-12-23"}}