{"type": "Feature", "geometry": {"type": "Point", "coordinates": [0.052579, 51.546696]}, "properties": {"maximum-net-dwellings": "5", "organisation": "local-authority-eng:NWM", "minimum-net-dwellings": "4", "start-date": "2017-11-29", "name": "UPRN:46251374", "hectares": "0.03", "planning-permission-status": "pending decision", "planning-permission-type": "full planning permission", "site-plan-url": "https://lbnewham.maps.arcgis.com/apps/webappviewer/index.html?id=730d34968dea4214a10e7d378f37ef2d", "planning-permission-history": "https://pa.newham.gov.uk/online-applications/propertyDetails.do?previousCaseType=Application&previousKeyVal=LYGDUPJY01M00&activeTab=summary&previousCaseNumber=12%2F00154%2FFUL&keyVal=0028YBJYLI000", "deliverable": "yes", "planning-permission-date": "2016-02-19", "site-address": "2 Rixsen Road, Manor Park, London, E12 6RN", "ownership-status": "not owned by a public authority", "site": "UPRN:46251374", "notes": "Demolition of existing single storey offices and Construction of block A 1 x 2 bed flat, 1 x 3 bed flat and Block B 2 x 1 bed flats separated by a communal garden and associated bin and cycle stores", "slug": "/brownfield-land/local-authority-eng/NWM/46251374", "entity": 490002, "entry-date": "2019-12-12", "point": "POINT(0.052579 51.546696)"}}