{"type": "Feature", "geometry": {"type": "Point", "coordinates": [-0.170066, 50.84311]}, "properties": {"site": "SHLAA6207", "point": "POINT(-0.170066 50.84311)", "hectares": "0.08", "notes": "BH2020/01620 Approved 20/21", "ownership-status": "not owned by a public authority", "planning-permission-type": "full planning permission", "site-address": "57 Goldstone Crescent Hove", "planning-permission-history": "https://planningapps.brighton-hove.gov.uk/online-applications/applicationDetails.do?activeTab=summary&keyVal=QC29VCDMGOH00", "name": "SHLAA6207", "deliverable": "yes", "start-date": "2020-12-21", "planning-permission-status": "permissioned", "maximum-net-dwellings": "6", "minimum-net-dwellings": "6", "planning-permission-date": "2020-10-01", "site-plan-url": "https://www.brighton-hove.gov.uk/sites/default/files/SHLAA6207-57-Goldstone-Crescent-Hove_0.pdf", "organisation": "local-authority-eng:BNH", "slug": "/brownfield-land/local-authority-eng/BNH/SHLAA6207", "entity": 477070, "entry-date": "2020-12-21"}}