{"type": "Feature", "geometry": {"type": "Point", "coordinates": [-0.412059, 54.282327]}, "properties": {"resource": "7be1de4ab474457ec0b3baa371a3e4d50ae92045d37158d33c405e7889117b71", "site-address": "Land at Cleveland Road, Scarborough", "deliverable": "", "end-date": "", "entry-date": "2017-12-18", "hazardous-substances": "", "hectares": "0.5", "maximum-net-dwellings": "30", "minimum-net-dwellings": "30", "notes": "The site is in employment use and was identified in the SHELAA as a site that would be appropriate for residential use if it became available. It is unknown if this is deliverable in the short term but if so it could accommodate circa 30 dwellings.", "organisation": "local-authority-eng:SCE", "ownership-status": "not owned by a public authority", "planning-permission-date": "", "planning-permission-history": "", "planning-permission-status": "not permissioned", "planning-permission-type": "", "point": "POINT(-0.412059 54.282327)", "site": "BR-029", "site-plan-url": "https://tinyurl.com/y6us6dxk", "start-date": "2017-12-18", "id": "7be1de4ab474457ec0b3baa371a3e4d50ae92045d37158d33c405e7889117b71:33865"}}