{"type": "Feature", "geometry": {"type": "Point", "coordinates": [-3.030456, 53.83649]}, "properties": {"resource": "b2dd227bcfa1b85cd3e029fa91f222b5026bed2485e818974090931efa28f934", "site-address": "50 Bispham Road, Blackpool, FY2 0SX", "deliverable": "yes", "end-date": "", "entry-date": "2017-12-15", "hazardous-substances": "", "hectares": "0.090475148", "maximum-net-dwellings": "12", "minimum-net-dwellings": "12", "notes": "Erection of part three storey, part four storey building to form 12 self contained permanent flats, with associated parking for 8 cars, access from Bispham Road, bin and cycle stores, landscaping and boundary treatment", "organisation": "local-authority-eng:BPL", "ownership-status": "not owned by a public authority", "planning-permission-date": "2017-08-31", "planning-permission-history": "http://idoxpa.blackpool.gov.uk/online-applications/applicationDetails.do?activeTab=summary&keyVal=_BLCKP_DCAPR_61569", "planning-permission-status": "permissioned", "planning-permission-type": "full planning permission", "point": "POINT(-3.030456 53.83649)", "site": "SN/032", "site-plan-url": "http://maps.blackpool.gov.uk/#zoom=3&lat=434255.06959&lon=333928.83324&layers=0BTFTFFFFFFFFFFFFFFFFFFFFFFFF", "start-date": "2017-12-15", "id": "SN-032"}}