{"type": "Feature", "geometry": {"type": "Point", "coordinates": [-1.489644, 53.546876]}, "properties": {"resource": "61037665de19446e5f458708ed9ead5d517a61d28fee72b93be3c8c8a5083a99", "site-address": "Site of former longcar conference centre, longcar lane, barnsley, s70 6bb", "deliverable": "yes", "end-date": "", "entry-date": "2017-08-02", "hazardous-substances": "", "hectares": "0.9", "maximum-net-dwellings": "32", "minimum-net-dwellings": "32", "notes": "Erection of 32 no. Dwellings and access road (outline)", "organisation": "local-authority-eng:BNS", "ownership-status": "", "planning-permission-date": "2016-01-29", "planning-permission-history": "", "planning-permission-status": "permissioned", "planning-permission-type": "outline planning permission", "point": "POINT(-1.489644 53.546876)", "site": "H2371", "site-plan-url": "https://www.barnsley.gov.uk/services/planning-and-buildings/local-planning-and-development/brownfield-land-register/", "start-date": "2017-08-02", "id": "61037665de19446e5f458708ed9ead5d517a61d28fee72b93be3c8c8a5083a99:30617"}}