{"type": "Feature", "geometry": {"type": "Point", "coordinates": [-0.218618, 52.365363]}, "properties": {"hectares": "84", "notes": "Allocation SEL 1.2 RAF Alconbury in Huntingdonshire's Local Plan to 2036 for approximately 1,680 homes and primary school, social and community facilities", "site": "HDCBLR13", "start-date": "2018-12-14", "ownership-status": "owned by a public authority", "name": "HDCBLR13", "planning-permission-status": "not permissioned", "planning-permission-history": "https://publicaccess.huntingdonshire.gov.uk/online-applications/propertyDetails.do?activeTab=relatedCases&keyVal=001KI700LI000", "deliverable": "yes", "site-plan-url": "http://huntsdc.objective.co.uk/portal/pp/hlp2036/cd2017/helaa2017?pointId=s1432732355600#section-s1432732355600", "site-address": "RAF Alconbury", "point": "POINT(-0.218618 52.365363)", "organisation": "local-authority-eng:HUN", "minimum-net-dwellings": "1512", "maximum-net-dwellings": "1848", "slug": "/brownfield-land/local-authority-eng/HUN/HDCBLR13", "entry-date": "2019-12-17"}}