{"type": "Feature", "geometry": {"type": "Point", "coordinates": [-2.678639, 51.495271]}, "properties": {"resource": "71557048ba0c0f9cbc7e8c5defc1688542c938a1b91a2d0bb3c4c3290e6c812e", "site-address": "Land To Rear Of 47 To 95 (odds) Kings Weston Avenue Bristol", "deliverable": "yes", "end-date": "", "entry-date": "2019-12-19", "hazardous-substances": "", "hectares": "0.45", "maximum-net-dwellings": "14", "minimum-net-dwellings": "14", "notes": "Alternative site reference: O10_1329", "organisation": "local-authority-eng:BST", "ownership-status": "", "planning-permission-date": "2014-11-10", "planning-permission-history": "https://planningonline.bristol.gov.uk/online-applications/applicationDetails.do?activeTab=summary&keyVal=N7GXFHDN0MC00", "planning-permission-status": "permissioned", "planning-permission-type": "full planning permission", "point": "POINT(-2.678639 51.495271)", "site": "14/03037/F", "site-plan-url": "https://planningonline.bristol.gov.uk/online-applications/applicationDetails.do?activeTab=map&keyVal=N7GXFHDN0MC00", "start-date": "2019-12-19", "id": "14-03037-F"}}