{"type": "Feature", "geometry": {"type": "Point", "coordinates": [-2.717027, 53.361292]}, "properties": {"resource": "8b9fc963cf61e498b12b16c5012993e87193bb824d7b26cb03beac8b3a0eaed0", "site-address": "Land Adjacent to St. Helens Canal (Routledge Site), Tanhouse Lane", "deliverable": "yes", "end-date": "", "entry-date": "2018-10-26", "hazardous-substances": "", "hectares": "7.56", "maximum-net-dwellings": "230", "minimum-net-dwellings": "211", "notes": "Potential capacity based on a density multiplier with the minimum based on 40dph and maximum based on the PREAPP Application. The site has potential contamination due to past works.. Outline 05/00057/OUTEIA 624 Residential units. PREAPP - Proposed residential development for c230 dwellings - Pending now a Full Application submission", "organisation": "local-authority-eng:HAL", "ownership-status": "not owned by a public authority", "planning-permission-date": "2016-12-12", "planning-permission-history": "", "planning-permission-status": "permissioned", "planning-permission-type": "outline planning permission", "point": "POINT(-2.717027 53.361292)", "site": "H1336", "site-plan-url": "http://map.halton.gov.uk/WebMapLayers8External/map.aspx?MapName=Linked&overlayname=Brownfield%20Register&schemacolumn=Ref&resolution=1&UID=H1336", "start-date": "2018-10-26", "id": "8b9fc963cf61e498b12b16c5012993e87193bb824d7b26cb03beac8b3a0eaed0:39942"}}