{"type": "Feature", "geometry": {"type": "Point", "coordinates": [-1.477605, 53.375726]}, "properties": {"minimum-net-dwellings": "63", "maximum-net-dwellings": "63", "site-address": "Charter Works 20 Hodgson Street Sheffield S3 7WQ", "hectares": "0.06", "start-date": "2017-12-05", "name": "S00093", "planning-permission-history": "https://planningapps.sheffield.gov.uk/online-applications/applicationDetails.do?activeTab=summary&keyVal=J34114NYNB000", "site-plan-url": "https://www.sheffield.gov.uk/content/sheffield/home/planning-development/housing-land-sites.html", "site": "S00093", "organisation": "local-authority-eng:SHF", "deliverable": "yes", "notes": "Estimated to comprise of 63 Apartments", "planning-permission-status": "not permissioned", "ownership-status": "not owned by a public authority", "point": "POINT(-1.477605 53.375726)", "slug": "/brownfield-land/local-authority-eng/SHF/S00093", "entry-date": "2018-12-18"}}