{"type": "Feature", "geometry": {"type": "Point", "coordinates": [-0.422959, 51.572253]}, "properties": {"point": "POINT(-0.422959 51.572253)", "maximum-net-dwellings": "9", "planning-permission-status": "permissioned", "planning-permission-history": "http://www.hillingdon.gov.uk/article/31455/Planning-search-guide", "name": "28388/APP/2017/1447", "deliverable": "yes", "site-address": "Quilters, 178-182, Highs Street, Ruilsip", "start-date": "2017-12-31", "hectares": "0.04", "notes": "First and second floor rear extension, extension and conversion of roofspace to habitable use to include 3 front dormers, 4 side dormers and change of use from retail (Use Class A1) to create 6 x 2-be", "organisation": "local-authority-eng:HIL", "planning-permission-type": "full planning permission", "minimum-net-dwellings": "9", "planning-permission-date": "2017-10-09", "site-plan-url": "https://maps.london.gov.uk/brownfield-site-register", "site": "28388/APP/2017/1447", "slug": "/brownfield-land/local-authority-eng/HIL/28388-APP-2017-1447", "entity": 484035, "entry-date": "2017-12-31"}}