{"type": "Feature", "geometry": {"type": "Point", "coordinates": [-4.951293, 54.681333]}, "properties": {"ownership-status": "not owned by a public authority", "name": "BR39", "hectares": "1.532", "organisation": "local-authority-eng:BRX", "site": "BR39", "site-address": "Fitzpatrick Contractors Ltd, Woollens Brook, Hertford Road, Hoddesdon, EN11 9BX, Volker Fitzpatrick", "point": "POINT(-4.951293 54.681333)", "planning-permission-status": "permissioned", "slug": "/brownfield-land/local-authority-eng/BRX/BR39", "entry-date": "2018-05-22"}}