{"type": "Feature", "geometry": {"type": "Point", "coordinates": [-1.536676, 53.988869]}, "properties": {"resource": "4ffa507c3a54ebf8ff68f9a954d078e93ebc38ac9e05cf0e179c81eeec8ebf35", "site-address": "108 Station Parade, Harrogate", "deliverable": "yes", "end-date": "", "entry-date": "2017-10-04", "hazardous-substances": "", "hectares": "0.12", "maximum-net-dwellings": "6", "minimum-net-dwellings": "6", "notes": "Demolition of Lambert House, erection of 6 dwellings", "organisation": "local-authority-eng:HAG", "ownership-status": "not owned by a public authority", "planning-permission-date": "2016-04-13", "planning-permission-history": "https://uniformonline.harrogate.gov.uk/online-applications/applicationDetails.do?activeTab=map&keyVal=NZRS1EHYHWY00", "planning-permission-status": "permissioned", "planning-permission-type": "full planning permission", "point": "POINT(-1.536676 53.988869)", "site": "BR59", "site-plan-url": "http://harrogatebc.maps.arcgis.com/apps/webappviewer/index.html?id=35605b223adf4a81b45b1a6e1f129a75&find=BR59", "start-date": "2017-10-04", "id": "4ffa507c3a54ebf8ff68f9a954d078e93ebc38ac9e05cf0e179c81eeec8ebf35:66644"}}