{"type": "Feature", "geometry": {"type": "Point", "coordinates": [-1.090731, 51.261103]}, "properties": {"maximum-net-dwellings": "9", "hectares": "0.811121", "site-plan-url": "https://planning.basingstoke.gov.uk/online-applications/applicationDetails.do?activeTab=summary&keyVal=OX1TGCCRJY000", "organisation": "local-authority-eng:BAN", "start-date": "2018-12-31", "point": "POINT(-1.090731 51.261103)", "notes": "Small site granted outline permission for 9 dwellings in March 2017 (17/03309/OUT). Reserved matters (19/00761/RES). All 9 units were recorded as starts at 1 April 2020. The site is considered deliverable within five years.", "deliverable": "yes", "name": "17/03309/OUT", "ownership-status": "not owned by a public authority", "planning-permission-date": "2017-03-01", "planning-permission-history": "https://planning.basingstoke.gov.uk/online-applications/applicationDetails.do?keyVal=OX1TGCCRJY000&activeTab=summary", "planning-permission-status": "permissioned", "planning-permission-type": "outline planning permission", "site": "17/03309/OUT", "minimum-net-dwellings": "9", "site-address": "Centenary House 10 Winchester Road", "slug": "/brownfield-land/local-authority-eng/BAN/17-03309-OUT", "entry-date": "2020-12-21"}}