{"type": "Feature", "geometry": {"type": "Point", "coordinates": [-0.118742, 50.997039]}, "properties": {"planning-permission-history": "https://pa.midsussex.gov.uk/online-applications/", "site-address": "Beech Hurst Depot, Bolnore Road, Haywards Heath", "start-date": "2017-12-13", "organisation": "local-authority-eng:MSS", "ownership-status": "not owned by a public authority", "minimum-net-dwellings": "24", "name": "SHLAAID619", "maximum-net-dwellings": "24", "site": "SHLAAID619", "deliverable": "yes", "site-plan-url": "https://www.midsussex.gov.uk/planning-building/evidence-supporting-documents/", "planning-permission-status": "not permissioned", "notes": "Haywards Heath Neighbourhood Plan allocation.. https://www.midsussex.gov.uk/planning-building/evidence-supporting-documents/", "hectares": "0.8", "point": "POINT(-0.118742 50.997039)", "slug": "/brownfield-land/local-authority-eng/MSS/SHLAAID619", "entry-date": "2017-12-13", "planning-permission-type": "full planning permission", "planning-permission-date": "2020-08-27"}}