{"type": "Feature", "geometry": {"type": "Point", "coordinates": [-2.936055, 54.892453]}, "properties": {"resource": "8952372c090d641127efe46b9021715bcc16707ce294468f0dfed69967f9d6e9", "site-address": "Central Plaza Hotel Carlisle", "deliverable": "", "end-date": "", "entry-date": "2017-12-31", "hazardous-substances": "", "hectares": "0.08", "maximum-net-dwellings": "10", "minimum-net-dwellings": "10", "notes": "Former hotel falling into disrepair. Small site area, but potentially developable over several floors", "organisation": "local-authority-eng:CAR", "ownership-status": "not owned by a public authority", "planning-permission-date": "", "planning-permission-history": "", "planning-permission-status": "not permissioned", "planning-permission-type": "", "point": "POINT(-2.936055 54.892453)", "site": "", "site-plan-url": "http://www.carlisle.gov.uk/planning-policy/Evidence-Base/Brownfield-Register", "start-date": "2017-12-31", "id": "8952372c090d641127efe46b9021715bcc16707ce294468f0dfed69967f9d6e9:39285"}}