{"type": "Feature", "geometry": {"type": "Point", "coordinates": [-0.162895, 50.828934]}, "properties": {"resource": "0abd8a357da3b458504a8e16969a1c7ede85e8b7ef2bdef274d382f1db4108fc", "site-address": "27 Palmeira Avenue Hove", "deliverable": "yes", "end-date": "", "entry-date": "2019-12-16", "hazardous-substances": "", "hectares": "0.04", "maximum-net-dwellings": "6", "minimum-net-dwellings": "6", "notes": "Commenced 2018", "organisation": "local-authority-eng:BNH", "ownership-status": "not owned by a public authority", "planning-permission-date": "2015-08-20", "planning-permission-history": "https://planningapps.brighton-hove.gov.uk/online-applications/applicationDetails.do?activeTab=summary&keyVal=OQ1WKADMMTR00|https://planningapps.brighton-hove.gov.uk/online-applications/applicationDetails.do?activeTab=summary&keyVal=ZZZR65DMXE099", "planning-permission-status": "permissioned", "planning-permission-type": "full planning permission", "point": "POINT(-0.162895 50.828934)", "site": "SHLAA6136", "site-plan-url": "https://new.brighton-hove.gov.uk/sites/default/files/planning_bc_regen/policy/brownfield-sites/shlaa6136-27-palmeira-avenue-hove.pdf", "start-date": "2017-09-25", "id": "SHLAA6136"}}