{"type": "Feature", "geometry": {"type": "Point", "coordinates": [-2.004144, 55.766336]}, "properties": {"resource": "861b110ca9fb6ce201b997d8c904056946a15f6e596400415558060fc0a7699a", "site-address": "Berwick Eastern Arc - The Quayside, Berwick-upon-Tweed", "deliverable": "", "end-date": "", "entry-date": "2019-12-17", "hazardous-substances": "", "hectares": "0.94", "maximum-net-dwellings": "20", "minimum-net-dwellings": "18", "notes": "Opportunity for redevelopment of a site that is currently in use for car parking in part but largely vacant. Offers an attractive riverside location for residential development. A number of applications have been permitted concerning the existing business, but they only relate to a small portion of the site (17/02027/COU, 16/01664/COU).", "organisation": "local-authority-eng:NBL", "ownership-status": "not owned by a public authority", "planning-permission-date": "", "planning-permission-history": "", "planning-permission-status": "not permissioned", "planning-permission-type": "", "point": "POINT(-2.004144 55.766336)", "site": "1516", "site-plan-url": "http://northumberland.maps.arcgis.com/apps/webappviewer/index.html?id=c1b801d50f8040efbf8c9bc9f916cfae", "start-date": "2017-12-17", "id": "861b110ca9fb6ce201b997d8c904056946a15f6e596400415558060fc0a7699a:35967"}}