{"type": "Feature", "geometry": {"type": "Point", "coordinates": [0.184939, 51.277358]}, "properties": {"resource": "d8f0bf38a549322049def5c791474eca29e1d3fe5776153bce8e2f0fd5b1fc39", "site-address": "15 St Botolphs Road, Sevenoaks", "deliverable": "yes", "end-date": "", "entry-date": "2020-05-27", "hazardous-substances": "", "hectares": "0.3177174", "maximum-net-dwellings": "12", "minimum-net-dwellings": "12", "notes": "Emerging Local Plan Ref ST2-3 - Careful design and layout to minimise impact on the amenity of neighbouring properties and the locally listed building. Retain existing trees and hedges.", "organisation": "local-authority-eng:SEV", "ownership-status": "not owned by a public authority", "planning-permission-date": "", "planning-permission-history": "", "planning-permission-status": "not permissioned", "planning-permission-type": "", "point": "POINT(0.184939 51.277358)", "site": "BFR157", "site-plan-url": "https://maps.sevenoaks.gov.uk/brownfield_register/", "start-date": "", "id": "BFR157"}}