{"type": "Feature", "geometry": {"type": "Point", "coordinates": [-0.265517, 51.413191]}, "properties": {"resource": "86dee119f806d0c7f62295e6aae502851827e848202c4e43e833126ed62773db", "site-address": "43 Burghley Avenue, New Malden", "deliverable": "yes", "end-date": "", "entry-date": "2017-12-12", "hazardous-substances": "", "hectares": "0.12", "maximum-net-dwellings": "5", "minimum-net-dwellings": "5", "notes": "Planning permission 16/14387/FUL for 0 net additional homes (C3) granted on 15/06/2016. Site has capacity to deliver at least 5 net additional homes (C3).. Demolition of existing house and erection of two-storey house (C3)", "organisation": "local-authority-eng:KTT", "ownership-status": "", "planning-permission-date": "2016-06-15", "planning-permission-history": "https://maps.kingston.gov.uk/propertyServices/planning/Details?caseNo=16/14387/FUL", "planning-permission-status": "permissioned", "planning-permission-type": "full planning permission", "point": "POINT(-0.265517 51.413191)", "site": "RBK0021", "site-plan-url": "https://maps.london.gov.uk/brownfield-site-register", "start-date": "2017-12-12", "id": "86dee119f806d0c7f62295e6aae502851827e848202c4e43e833126ed62773db:24600"}}