{"type": "Feature", "geometry": {"type": "Point", "coordinates": [-2.167764, 52.955069]}, "properties": {"maximum-net-dwellings": "71", "organisation": "local-authority-eng:STE", "minimum-net-dwellings": "71", "planning-permission-status": "permissioned", "hectares": "11.77", "site-plan-url": "https://webmaplayers.stoke.gov.uk/webmaplayers8/Map.aspx?MapName=SHLAA", "planning-permission-date": "2013-10-08", "site-address": "Wedgwood Estate (Employment), Wedgwood Drive, Trentham, Stoke-on-Trent, ST12 9ER", "notes": "Site UC - 71 remaining - Initial application was for 120 dwellings.. Redevelopment of the existing factory complex", "start-date": "2017-12-31", "name": "55286", "site": "55286", "planning-permission-type": "reserved matters approval", "ownership-status": "not owned by a public authority", "point": "POINT(-2.167764 52.955069)", "deliverable": "yes", "slug": "/brownfield-land/local-authority-eng/STE/55286", "entity": 494632, "entry-date": "2018-12-05"}}