{"type": "Feature", "geometry": {"type": "Point", "coordinates": [-2.060211, 52.584069]}, "properties": {"resource": "1f57061ab1128107cd734a5010136376105124f5f1d646e0907aea36aa9c498c", "site-address": "Rear of Pinson Road, Willenhall", "deliverable": "", "end-date": "", "entry-date": "2017-12-29", "hazardous-substances": "", "hectares": "0.4", "maximum-net-dwellings": "15", "minimum-net-dwellings": "15", "notes": "", "organisation": "local-authority-eng:WLL", "ownership-status": "", "planning-permission-date": "", "planning-permission-history": "", "planning-permission-status": "not permissioned", "planning-permission-type": "", "point": "POINT(-2.060211 52.584069)", "site": "HO0201", "site-plan-url": "", "start-date": "2017-12-29", "id": "HO0201"}}