{"type": "Feature", "geometry": {"type": "Point", "coordinates": [-1.530029, 53.788417]}, "properties": {"maximum-net-dwellings": "90", "site-address": "Sayner Lane / Carlisle Road", "site": "SHL01688", "planning-permission-status": "not permissioned", "name": "SHL01688", "deliverable": "yes", "site-plan-url": "https://leedscc.maps.arcgis.com/apps/webappviewer/index.html?id=612532561dc547fa93e683a5fca73079&find=SHL01688", "start-date": "2016-11-07", "organisation": "local-authority-eng:LDS", "minimum-net-dwellings": "90", "ownership-status": "owned by a public authority", "hectares": "1.37", "slug": "/brownfield-land/local-authority-eng/LDS/SHL01688", "entry-date": "2016-11-07", "point": "POINT(-1.530029 53.788417)"}}