{"type": "Feature", "geometry": {"type": "Point", "coordinates": [-1.814404, 53.141424]}, "properties": {"organisation": "national-park-authority:Q72617988", "minimum-net-dwellings": "26", "hectares": "1.78", "planning-permission-status": "permissioned", "maximum-net-dwellings": "26", "ownership-status": "not owned by a public authority", "planning-permission-type": "full planning permission", "start-date": "2017-12-08", "planning-permission-history": "https://pam.peakdistrict.gov.uk/?r=NP/DDD/1014/1045", "deliverable": "yes", "name": "NP/BLR/DDD/004", "site": "NP/BLR/DDD/004", "planning-permission-date": "2016-10-13", "site-plan-url": "http://www.peakdistrict.gov.uk/brownfield", "site-address": "Dove Dairy, Stonewell Lane, Hartington", "notes": "Demolition of existing factory building and the subsequent construction of total 26 new dwellings including 4 'affordable' and 2 conversion of former factory buildings. Demolition of existing factory building and the subsequent construction of total 26 new dwellings including 4 'affordable' and 2 conversion of former factory buildings", "point": "POINT(-1.814404 53.141424)", "slug": "/brownfield-land/national-park-authority/Q72617988/NP-BLR-DDD-004", "entry-date": "2017-12-08"}}