{"type": "Feature", "geometry": {"type": "Point", "coordinates": [-1.630617, 53.753715]}, "properties": {"organisation": "local-authority-eng:LDS", "maximum-net-dwellings": "85", "ownership-status": "not owned by a public authority", "site": "SHL01113", "hectares": "3.81", "site-address": "Finning (uk) Ltd, Gelderd Road, Gildersome, LS27 7JS", "site-plan-url": "https://leedscc.maps.arcgis.com/apps/webappviewer/index.html?id=612532561dc547fa93e683a5fca73079&find=SHL01113", "name": "SHL01113", "start-date": "2016-11-07", "minimum-net-dwellings": "85", "planning-permission-status": "not permissioned", "point": "POINT(-1.630617 53.753715)", "slug": "/brownfield-land/local-authority-eng/LDS/SHL01113", "entity": 485725, "entry-date": "2016-11-07"}}