{"type": "Feature", "geometry": {"type": "Point", "coordinates": [-2.579576, 51.456899]}, "properties": {"planning-permission-history": "http://planningonline.bristol.gov.uk/online-applications/applicationDetails.do?activeTab=summary&keyVal=NJ8XIFDNH3800", "hectares": "0.09", "site-plan-url": "http://planningonline.bristol.gov.uk/online-applications/applicationDetails.do?activeTab=map&keyVal=NJ8XIFDNH3800", "site-address": "13 - 15 West Street St Philips Bristol BS2 0DF", "name": "15/00558/F", "point": "POINT(-2.579576 51.456899)", "start-date": "2017-12-19", "planning-permission-date": "2015-12-22", "maximum-net-dwellings": "11", "notes": "11 Dwellings", "minimum-net-dwellings": "11", "organisation": "local-authority-eng:BST", "planning-permission-type": "full planning permission", "planning-permission-status": "permissioned", "site": "15/00558/F", "slug": "/brownfield-land/local-authority-eng/BST/15-00558-F", "entity": 478273, "entry-date": "2017-12-19"}}