{"type": "Feature", "geometry": {"type": "Point", "coordinates": [0.011777, 51.568765]}, "properties": {"point": "POINT(0.011777 51.568765)", "planning-permission-date": "2017-01-25", "planning-permission-status": "permissioned", "ownership-status": "not owned by a public authority", "organisation": "local-authority-eng:WFT", "planning-permission-type": "full planning permission", "hectares": "0.15", "site": "162160", "notes": "Partial demolition of the existing building and construction of part one part two-storey rear extension and a three-storey building comprising of retail floor space (Class use A1/A3 and nine residential units (3 x 1 bedroom 5 x 2 bedroom 1 x 3 bedroo", "start-date": "2017-12-06", "site-plan-url": "https://maps.london.gov.uk/brownfield-site-register", "maximum-net-dwellings": "9", "deliverable": "yes", "minimum-net-dwellings": "9", "name": "162160", "site-address": "676-678 High Road Leytonstone", "slug": "/brownfield-land/local-authority-eng/WFT/162160", "entity": 497588, "entry-date": "2019-12-15"}}