{"type": "Feature", "geometry": {"type": "Point", "coordinates": [0.478921, 51.729363]}, "properties": {"start-date": "2017-10-24", "name": "CFS263", "ownership-status": "owned by a public authority", "organisation": "local-authority-eng:CHL", "hectares": "0.03", "site": "CFS263", "site-address": "Baddow Road Car Park Baddow Road Chelmsford", "site-plan-url": "https://www.chelmsford.gov.uk/planning-and-building-control/planning-policy-and-new-local-plan/new-local-plan/call-for-sites-slaa-and-parish-maps/", "planning-permission-status": "not permissioned", "maximum-net-dwellings": "70", "deliverable": "yes", "minimum-net-dwellings": "70", "point": "POINT(0.478921 51.729363)", "slug": "/brownfield-land/local-authority-eng/CHL/CFS263", "entry-date": "2017-10-24"}}