{"type": "Feature", "geometry": {"type": "Point", "coordinates": [-2.329392, 53.446622]}, "properties": {"resource": "a521f3ce21689423001a5b7739a1a3f1f05ac746bf1819f875a4574513f5ebb5", "site-address": "Simpsons Food Factory, Stretford Road, M41 9WH", "deliverable": "yes", "end-date": "", "entry-date": "2017-12-18", "hazardous-substances": "", "hectares": "0.78", "maximum-net-dwellings": "58", "minimum-net-dwellings": "58", "notes": "Outline application for demolition of existing factory buildings followed by erection of two to three storey residential development (up to 58 units) with access onto Stretford Road and the provision of a turning area on Link Avenue. Approval sought for access with all other matters reserved.", "organisation": "local-authority-eng:TRF", "ownership-status": "not owned by a public authority", "planning-permission-date": "2017-03-23", "planning-permission-history": "http://publicaccess.trafford.gov.uk/online-applications/applicationDetails.do?activeTab=summary&keyVal=OA3AAHQLILS00", "planning-permission-status": "permissioned", "planning-permission-type": "full planning permission", "point": "POINT(-2.329392 53.446622)", "site": "1501", "site-plan-url": "https://mappinggm.org.uk/gmodin", "start-date": "2017-12-18", "id": "1501"}}