{"type": "Feature", "geometry": {"type": "Point", "coordinates": [-1.777441, 52.523891]}, "properties": {"notes": "Former UDP Allocation", "site-address": "Adjacent Railway fronting Park Lane, Castle Vale", "site-plan-url": "https://maps.birmingham.gov.uk/webapps/shlaa/", "organisation": "local-authority-eng:BIR", "name": "E918", "site": "E918", "point": "POINT(-1.777441 52.523891)", "maximum-net-dwellings": "52", "hectares": "1.21", "minimum-net-dwellings": "52", "planning-permission-status": "Not Permissioned", "start-date": "2019-12-31", "slug": "/brownfield-land/local-authority-eng/BIR/E918", "entity": 476082, "entry-date": "2019-12-31"}}