{"type": "Feature", "geometry": {"type": "Point", "coordinates": [-2.597909, 51.853917]}, "properties": {"resource": "3ecb507aa4e8c58af9c3dec35675ebc432b2c98950338c09d984f3996c239ea1", "site-address": "Former Temco Lydbrook", "deliverable": "", "end-date": "", "entry-date": "2020-02-05", "hazardous-substances": "", "hectares": "0.98", "maximum-net-dwellings": "10", "minimum-net-dwellings": "10", "notes": "part of larger area separated by road and suitable for part development for housing which could be carried out independently of remainder of allocation. 2019 update- some buildings knocked down with fencing erected. Still suitable for housing due to location next to main road and other houses.", "organisation": "local-authority-eng:FOE", "ownership-status": "not owned by a public authority", "planning-permission-date": "", "planning-permission-history": "", "planning-permission-status": "not permissioned", "planning-permission-type": "", "point": "POINT(-2.597909 51.853917)", "site": "22", "site-plan-url": "https://maps.fdean.gov.uk/map/Aurora.svc/run?script=%5cAurora%5cFoDDC+-+SHLAA.AuroraScript%24&nocache=1347652503&resize=always&inspect_query=Brownfield_Land_Registery&inspect_value=Aurora21&scale=1024", "start-date": "2017-10-31", "id": "3ecb507aa4e8c58af9c3dec35675ebc432b2c98950338c09d984f3996c239ea1:16974"}}