{"type": "Feature", "geometry": {"type": "Point", "coordinates": [-2.865046, 53.751522]}, "properties": {"planning-permission-date": "2017-12-22", "notes": "(aa) (17/096110)", "site": "FR10", "name": "FR10", "planning-permission-type": "full planning permission", "site-address": "Quernmore Trading Estate, Croft Butts Lane, Freckleton", "minimum-net-dwellings": "10", "start-date": "2017-12-21", "hectares": "0.48", "ownership-status": "not owned by a public authority", "point": "POINT(-2.865046 53.751522)", "organisation": "local-authority-eng:FYL", "maximum-net-dwellings": "10", "planning-permission-status": "permissioned", "slug": "/brownfield-land/local-authority-eng/FYL/FR10", "entity": 482691, "entry-date": "2017-12-21"}}