{"type": "Feature", "geometry": {"type": "Point", "coordinates": [-2.432065, 53.581917]}, "properties": {"resource": "e24ec54e7bcb5c01934afb3d7b12731f07c78778a19757e2000fe6d3d3605e3d", "site-address": "66 St Georges Road, Bolton, BL1 2DD", "deliverable": "yes", "end-date": "", "entry-date": "2017-12-31", "hazardous-substances": "", "hectares": "0.01", "maximum-net-dwellings": "5", "minimum-net-dwellings": "5", "notes": "CHANGE OF USE FROM OFFICE TO 5No APARTMENTS 98140/16. http://mappinggm.org.uk/gmodin/", "organisation": "local-authority-eng:BOL", "ownership-status": "not owned by a public authority", "planning-permission-date": "2017-02-10", "planning-permission-history": "https://www.planningpa.bolton.gov.uk/online-applications-17/search.do?action=simple&searchType=Application", "planning-permission-status": "permissioned", "planning-permission-type": "full planning permission", "point": "POINT(-2.432065 53.581917)", "site": "HLA-341", "site-plan-url": "http://mappinggm.org.uk/gmodin/", "start-date": "2017-12-31", "id": "HLA-341"}}