{"type": "Feature", "geometry": {"type": "Point", "coordinates": [-0.919623, 52.253649]}, "properties": {"notes": "Removed as below threshold", "minimum-net-dwellings": "4", "point": "POINT(-0.919623 52.253649)", "site-plan-url": "https://www.northampton.gov.uk/download/downloads/id/10082/bfr1034", "site-address": "Witham Way garage site", "planning-permission-status": "permissioned", "start-date": "2017-12-13", "deliverable": "yes", "site": "BFR1034", "ownership-status": "owned by a public authority", "name": "BFR1034", "maximum-net-dwellings": "4", "hectares": "0.15", "organisation": "local-authority-eng:NOR", "slug": "/brownfield-land/local-authority-eng/NOR/BFR1034", "entry-date": "2019-12-18", "planning-permission-type": "full planning permission", "end-date": "2019-12-18"}}