{"type": "Feature", "geometry": {"type": "Point", "coordinates": [-1.709942, 54.977991]}, "properties": {"organisation": "local-authority-eng:NET", "site-address": "Princes Bingo Hall Rokeby Street", "name": "2788", "site": "2788", "point": "POINT(-1.709942 54.977991)", "maximum-net-dwellings": "10", "hectares": "0.18", "minimum-net-dwellings": "8", "start-date": "2017-12-19", "planning-permission-status": "Not Permissioned", "ownership-status": "not owned by a public authority", "site-plan-url": "https://www.newcastle.gov.uk/sites/default/files/planning/policy/Brownfield%20Register%20Map%202019.pdf", "slug": "/brownfield-land/local-authority-eng/NET/2788", "entity": 488581, "entry-date": "2019-01-19"}}