{"type": "Feature", "geometry": {"type": "Point", "coordinates": [-0.172715, 51.238148]}, "properties": {"ownership-status": "not owned by a public authority", "point": "POINT(-0.172715 51.238148)", "planning-permission-date": "2016-11-30", "site-plan-url": "http://www.reigate-banstead.gov.uk/downloads/file/3839/rbbcblr030", "deliverable": "yes", "site-address": "Oakdene House, Oakdene Road, Redhill", "site": "RBBCBLR030", "start-date": "2017-12-31", "hectares": "0.03", "organisation": "local-authority-eng:REI", "maximum-net-dwellings": "5", "planning-permission-status": "permissioned", "minimum-net-dwellings": "5", "notes": "Three storey side extension and conversion of property into five self-contained flats.", "planning-permission-type": "full planning permission", "planning-permission-history": "http://planning.reigate-banstead.gov.uk/online-applications/simpleSearchResults.do?action=firstPage", "name": "RBBCBLR030", "slug": "/brownfield-land/local-authority-eng/REI/RBBCBLR030", "entry-date": "2017-12-31"}}