{"type": "Feature", "geometry": {"type": "Point", "coordinates": [-2.226437, 53.486651]}, "properties": {"site-plan-url": "https://mappinggm.org.uk/gmodin/", "organisation": "local-authority-eng:MAN", "minimum-net-dwellings": "14", "site": "Anco_Cap_107", "planning-permission-history": "http://pa.manchester.gov.uk/online-applications/", "planning-permission-status": "not permissioned", "maximum-net-dwellings": "14", "site-address": "Silk Street/Cinder Street", "hectares": "0.05", "point": "POINT(-2.226437 53.486651)", "notes": "Approx 'MinNetDwellings' expected however proposals for a higher number of dwellings will be considered. No maximum has been set but all proposals must be in line with the Council's design quality requirements and any relevant Council-endorsed planning framework or masterplan", "name": "Anco_Cap_107", "start-date": "2017-12-31", "slug": "/brownfield-land/local-authority-eng/MAN/Anco-Cap-107", "entry-date": "2017-12-31"}}