{"type": "Feature", "geometry": {"type": "Point", "coordinates": [-1.22831, 52.955209]}, "properties": {"planning-permission-history": "http://publicaccess.nottinghamcity.gov.uk/online-applications/applicationDetails.do?activeTab=summary&keyVal=PGDVUWLY00L00", "site-address": "Middletons, Trowell Road, Nottingham, NG8 2DH", "notes": "DevelopmentDescription: N/A; SiteInformation: N/A; NonHousingDevelopment: N/A; ProposedForPIP: Yes; Notes: N/A", "start-date": "2019-01-09", "point": "POINT(-1.22831 52.955209)", "deliverable": "yes", "name": "2427", "minimum-net-dwellings": "6", "planning-permission-status": "permissioned", "maximum-net-dwellings": "6", "planning-permission-date": "2018-11-15", "hectares": "0.28", "ownership-status": "not owned by a public authority", "site": "2427", "site-plan-url": "http://maps.nottinghamcity.gov.uk/insightmapping/?l=0.21,9.63&xmin=451909.3389999997&xmax=451970.06099999975&ymin=340036.3350000009&ymax=340106.3839999996", "organisation": "local-authority-eng:NGM", "slug": "/brownfield-land/local-authority-eng/NGM/2427", "entry-date": "2019-01-09"}}