{"type": "Feature", "geometry": {"type": "Point", "coordinates": [-0.7418, 51.3421]}, "properties": {"resource": "a08a14445fb6c748bfb035a9f8ba40285af8862357a70cfacf14ad1db74b87d7", "site-address": "21-33 York Road, Camberley", "deliverable": "yes", "end-date": "", "entry-date": "2017-12-18", "hazardous-substances": "", "hectares": "0.38", "maximum-net-dwellings": "7", "minimum-net-dwellings": "6", "notes": "Erection of 7 two/three storey houses with access and parking following the demolition of 1 dwelling with the refurbishment of 6 two storey houses.. http://www.surreyheath.gov.uk/sites/default/files/documents/residents/planning/planning-policy/SLAA2017/8SLAA2017Ap2CamberleySiteAssmts.pdf", "organisation": "local-authority-eng:SUR", "ownership-status": "not owned by a public authority", "planning-permission-date": "2015-04-10", "planning-permission-history": "", "planning-permission-status": "permissioned", "planning-permission-type": "", "point": "POINT(-0.7418 51.3421)", "site": "SHBR30", "site-plan-url": "http://www.surreyheath.gov.uk/sites/default/files/documents/residents/planning/planning-policy/SLAA2017/8SLAA2017Ap2CamberleySiteAssmts.pdf", "start-date": "2017-12-18", "id": "a08a14445fb6c748bfb035a9f8ba40285af8862357a70cfacf14ad1db74b87d7:61447"}}