{"type": "Feature", "geometry": {"type": "Point", "coordinates": [-0.188096, 51.521727]}, "properties": {"site-plan-url": "https://lbhf.maps.arcgis.com/apps/View/index.html?appid=d0d51e7d013a4d1a953ecc1cff697d24&site=17/07368/FULL", "planning-permission-history": "http://idoxpa.westminster.gov.uk/online-applications/applicationDetails.do?activeTab=summary&keyVal=OURY20RPK0P00", "name": "17/07368/FULL", "planning-permission-date": "2017-11-15", "planning-permission-type": "full planning permission", "site-address": "2 Lord Hills Road London W2 6PD", "planning-permission-status": "permissioned", "organisation": "local-authority-eng:WSM", "notes": "Demolition of existing dwellinghouse and erection of four storey building with basement to provide 7 residential units (Class C3).. http://idoxpa.westminster.gov.uk/online-applications/applicationDetails.do?activeTab=summary&keyVal=OURY20RPK0P00", "site": "17/07368/FULL", "start-date": "2020-07-23", "maximum-net-dwellings": "0", "point": "POINT(-0.188096 51.521727)", "minimum-net-dwellings": "0", "hectares": "0.04", "slug": "/brownfield-land/local-authority-eng/WSM/17-07368-FULL", "entity": 499957, "entry-date": "2020-07-23"}}