{"type": "Feature", "geometry": {"type": "Point", "coordinates": [-2.245284, 53.480376]}, "properties": {"minimum-net-dwellings": "8", "site": "117966/FO/2017", "point": "POINT(-2.245284 53.480376)", "site-address": "86 Cross Street Manchester M2 4LA", "planning-permission-history": "http://pa.manchester.gov.uk/online-applications/", "planning-permission-type": "full planning permission", "notes": "Change of use of first, second and third floors to eight apartments (C3) and associated external and internal works", "start-date": "2019-12-31", "site-plan-url": "https://mappinggm.org.uk/gmodin/?lyrs=brownfield_2019_gm#os_maps_light/18/53.480376/-2.245284", "hectares": "0.024273", "planning-permission-date": "2018-09-07", "planning-permission-status": "permissioned", "organisation": "local-authority-eng:MAN", "name": "117966/FO/2017", "deliverable": "yes", "maximum-net-dwellings": "8", "slug": "/brownfield-land/local-authority-eng/MAN/117966-FO-2017", "entry-date": "2019-12-31"}}