{"type": "Feature", "geometry": {"type": "Point", "coordinates": [-1.070044, 53.964919]}, "properties": {"resource": "e60f9cc9cc6a66cb190e6f404e4a40ab1b93c687e3b9e97064b9add6560b9397", "site-address": "Former Gas Works 24 Heworth Green (Phases I & II)", "deliverable": "yes", "end-date": "", "entry-date": "2019-12-20", "hazardous-substances": "", "hectares": "3.54", "maximum-net-dwellings": "0", "minimum-net-dwellings": "0", "notes": "This is a draft housing allocation site (H1)", "organisation": "local-authority-eng:YOR", "ownership-status": "not owned by a public authority", "planning-permission-date": "", "planning-permission-history": "https://www.york.gov.uk/SearchPlanningApplications", "planning-permission-status": "", "planning-permission-type": "other", "point": "POINT(-1.070044 53.964919)", "site": "BR-038", "site-plan-url": "https://www.york.gov.uk/downloads/download/4172/brownfield_register", "start-date": "", "id": "e60f9cc9cc6a66cb190e6f404e4a40ab1b93c687e3b9e97064b9add6560b9397:60799"}}