{"type": "Feature", "geometry": {"type": "Point", "coordinates": [0.050794, 51.204111]}, "properties": {"resource": "4ed9e9f2ede3ebeef0275629e257fbe0d9b5efae93cce82f70db31c573e81ea7", "site-address": "Kent & Surrey Driving Range, Crouch House Road, Edenbridge", "deliverable": "yes", "end-date": "", "entry-date": "2018-12-01", "hazardous-substances": "", "hectares": "0.14216261", "maximum-net-dwellings": "5", "minimum-net-dwellings": "5", "notes": "ST2-31 The loss of sports facility buildings need to be addressed. Site has been reduced to previously developed land.", "organisation": "local-authority-eng:SEV", "ownership-status": "not owned by a public authority", "planning-permission-date": "", "planning-permission-history": "", "planning-permission-status": "Not Permissioned", "planning-permission-type": "", "point": "POINT(0.050794 51.204111)", "site": "BFR120", "site-plan-url": "https://maps.sevenoaks.gov.uk/brownfield_register/", "start-date": "2018-12-01", "id": "4ed9e9f2ede3ebeef0275629e257fbe0d9b5efae93cce82f70db31c573e81ea7:28537"}}