{"type": "Feature", "geometry": {"type": "Point", "coordinates": [0.264299, 51.455321]}, "properties": {"resource": "2cf90070d5f4217bf1c1cd0bdc0043d1ee567494238ffe033c9747615cf13d08", "site-address": "Thames Europort (Dartford International Ferry Terminal), Clipper Boulevard, Dartford", "deliverable": "", "end-date": "2019-12-16", "entry-date": "2017-12-19", "hazardous-substances": "", "hectares": "17.93", "maximum-net-dwellings": "", "minimum-net-dwellings": "", "notes": "", "organisation": "local-authority-eng:DAR", "ownership-status": "not owned by a public authority", "planning-permission-date": "", "planning-permission-history": "", "planning-permission-status": "not permissioned", "planning-permission-type": "", "point": "POINT(0.264299 51.455321)", "site": "18", "site-plan-url": "", "start-date": "2017-12-19", "id": "2cf90070d5f4217bf1c1cd0bdc0043d1ee567494238ffe033c9747615cf13d08:48771"}}