{"type": "Feature", "geometry": {"type": "Point", "coordinates": [-0.976065, 50.79238]}, "properties": {"maximum-net-dwellings": "14", "site": "HY13", "deliverable": "yes", "site-plan-url": "http://www.havant.gov.uk/evidence-base-studies/strategic-housing-land-availability-assessment", "ownership-status": "not owned by a public authority", "minimum-net-dwellings": "14", "point": "POINT(-0.976065 50.79238)", "planning-permission-status": "not permissioned", "name": "HY13", "hectares": "0.16", "organisation": "local-authority-eng:HAA", "start-date": "2017-12-08", "planning-permission-history": "https://planningpublicaccess.havant.gov.uk/online-applications/propertyDetails.do?activeTab=relatedCases&keyVal=PROPLPI_58296_1", "site-address": "LAND REAR OF 108/110 ELM GROVE HAYLING ISLAND", "slug": "/brownfield-land/local-authority-eng/HAA/HY13", "entity": 483312, "entry-date": "2017-12-08"}}