{"type": "Feature", "geometry": {"type": "Point", "coordinates": [-0.065231, 51.466816]}, "properties": {"name": "19/AP/1939", "site-address": "2,Heaton,,SE15 3NL", "start-date": "2020-03-24", "minimum-net-dwellings": "9", "planning-permission-date": "2019-10-03", "site": "19/AP/1939", "notes": "Demolition of existing single storey building and construction of 7 storey block containing 9 residential units with B1 use at basement and ground floor levels.", "organisation": "local-authority-eng:SWK", "hectares": "0.048", "point": "POINT(-0.065231 51.466816)", "maximum-net-dwellings": "9", "planning-permission-status": "permissioned", "slug": "/brownfield-land/local-authority-eng/SWK/19-AP-1939", "entry-date": "2020-03-24"}}