{"type": "Feature", "geometry": {"type": "Point", "coordinates": [-1.704864, 51.992506]}, "properties": {"planning-permission-type": "full planning permission", "ownership-status": "not owned by a public authority", "hectares": "0.79", "point": "POINT(-1.704864 51.992506)", "maximum-net-dwellings": "20", "site-address": "Former Hospital Site, Moreton-in-Marsh", "notes": "Has planning permission for 20 dwellings. Residential development to provide 20 homes (19 retirement homes and 1 open market)", "site-plan-url": "http://my.cotswold.gov.uk/mcd.aspx?MapSource=WOxford/cdc_AllMaps&StartEasting=420362.000000&StartNorthing=232714.000000&StartZoom=250&o=1&Layers=Brownfield_Sites_CDC", "minimum-net-dwellings": "20", "organisation": "local-authority-eng:COT", "name": "17/03221/FUL", "site": "17/03221/FUL", "start-date": "2017-11-13", "planning-permission-status": "permissioned", "planning-permission-date": "2017-11-21", "slug": "/brownfield-land/local-authority-eng/COT/17-03221-FUL", "entry-date": "2017-12-01"}}