{"type": "Feature", "geometry": {"type": "Point", "coordinates": [-1.765075, 51.576361]}, "properties": {"site-address": "Petrol Filling Station, Rodbourne Road", "point": "POINT(-1.765075 51.576361)", "organisation": "local-authority-eng:SWD", "site": "S0311", "planning-permission-status": "permissioned", "deliverable": "yes", "maximum-net-dwellings": "0", "minimum-net-dwellings": "0", "hectares": "0.33", "name": "S0311", "slug": "/brownfield-land/local-authority-eng/SWD/S0311", "entity": 495329, "entry-date": "2020-12-23", "site-plan-url": "https://pa1.swindon.gov.uk/publicaccess/applicationDetails.do?activeTab=documents&keyVal=O81LH7PTHTB00", "planning-permission-history": "https://pa1.swindon.gov.uk/publicaccess/applicationDetails.do?activeTab=documents&keyVal=O81LH7PTHTB00", "ownership-status": "not owned by a public authority", "start-date": "2018-12-31", "planning-permission-date": "2016-07-21", "notes": "S0311 - S/16/0977 | Erection of an ATM. (Retrospective).", "planning-permission-type": "other"}}