{"type": "Feature", "geometry": {"type": "Point", "coordinates": [0.07819, 51.374416]}, "properties": {"resource": "68e1c58d69de37d3f39b10191eb44733289ad38618d1bb0f51967776e5c9d776", "site-address": "39 Oregon Square BR6 8NH", "deliverable": "yes", "end-date": "", "entry-date": "2018-05-22", "hazardous-substances": "", "hectares": "0.267", "maximum-net-dwellings": "8", "minimum-net-dwellings": "8", "notes": "", "organisation": "local-authority-eng:BRY", "ownership-status": "", "planning-permission-date": "", "planning-permission-history": "https://searchapplications.bromley.gov.uk/online-applications/applicationDetails.do?activeTab=summary&keyVal=O2DNMHBT0HX00", "planning-permission-status": "permissioned", "planning-permission-type": "", "point": "POINT(0.07819 51.374416)", "site": "BLR48", "site-plan-url": "https://searchapplications.bromley.gov.uk/online-applications/applicationDetails.do?activeTab=map&keyVal=O2DNMHBT0HX00", "start-date": "", "id": "68e1c58d69de37d3f39b10191eb44733289ad38618d1bb0f51967776e5c9d776:26801"}}