{"type": "Feature", "geometry": {"type": "Point", "coordinates": [-0.182954, 51.491927]}, "properties": {"minimum-net-dwellings": "7", "start-date": "2017-12-31", "organisation": "local-authority-eng:KEC", "deliverable": "yes", "planning-permission-status": "permissioned", "planning-permission-date": "2016-06-09", "name": "RBKC028", "ownership-status": "not owned by a public authority", "site-address": "31 Rosary Gardens SW7 4NH", "point": "POINT(-0.182954 51.491927)", "site": "RBKC028", "hectares": "0.01", "planning-permission-type": "full planning permission", "maximum-net-dwellings": "7", "notes": "Change of use from sui generis to residential (C3) to provide seven dwellings together with associated external alterations including installation of plant. (17 short term lets to 7 residential). PP/16/02218 https://www.rbkc.gov.uk/planning/searches/default.aspx", "slug": "/brownfield-land/local-authority-eng/KEC/RBKC028", "entity": 501692, "entry-date": "2018-12-31", "planning-permission-history": "https://www.rbkc.gov.uk/PP/16/02218", "site-plan-url": "https://lbhf.maps.arcgis.com/apps/webappviewer/index.html?id=931fa3b3294b4147a518648579b12d4a"}}