{"type": "Feature", "geometry": {"type": "Point", "coordinates": [-1.590305, 54.975274]}, "properties": {"resource": "5942368bc0ebda4372d6cc52186a78c6886ee26489c2724f78ae389477639832", "site-address": "Kelly Plant Foundry Lane Newcastle", "deliverable": "", "end-date": "", "entry-date": "2019-02-18", "hazardous-substances": "", "hectares": "0.1", "maximum-net-dwellings": "11", "minimum-net-dwellings": "9", "notes": "", "organisation": "local-authority-eng:NET", "ownership-status": "not owned by a public authority", "planning-permission-date": "", "planning-permission-history": "", "planning-permission-status": "Not Permissioned", "planning-permission-type": "", "point": "POINT(-1.590305 54.975274)", "site": "4759", "site-plan-url": "https://www.newcastle.gov.uk/sites/default/files/planning/policy/Brownfield%20Register%20Map%202019.pdf", "start-date": "", "id": "4759"}}