{"type": "Feature", "geometry": {"type": "Point", "coordinates": [-0.800483, 53.076333]}, "properties": {"site": "BF0034", "planning-permission-date": "2018-08-15", "planning-permission-history": "https://publicaccess.newark-sherwooddc.gov.uk/online-applications/propertyDetails.do?activeTab=relatedCases&keyVal=PIUUPYLB04E00", "planning-permission-status": "permissioned", "organisation": "local-authority-eng:NEA", "name": "BF0034", "site-plan-url": "http://www.newark-sherwooddc.gov.uk/media/newarkandsherwood/imagesandfiles/planningpolicy/pdfs/brownfieldlandregister/BF0034.pdf", "point": "POINT(-0.800483 53.076333)", "maximum-net-dwellings": "16", "deliverable": "yes", "minimum-net-dwellings": "16", "ownership-status": "not owned by a public authority", "hectares": "0.24", "site-address": "Newark, Beacon Hill Road (Newark Working Men's Club)", "planning-permission-type": "full planning permission", "start-date": "2017-11-30", "slug": "/brownfield-land/local-authority-eng/NEA/BF0034", "entry-date": "2020-01-20", "notes": "Full permission for conversion of Hatton House to form 8 apartments, remainder of building to be demolished and erection of 8 new cottages and associated access and landscaping works. (Under Construction)"}}