{"type": "Feature", "geometry": {"type": "Point", "coordinates": [-0.09979, 51.370413]}, "properties": {"site": "17/00325/FUL", "name": "17/00325/FUL", "deliverable": "yes", "hectares": "0.069", "planning-permission-history": "https://publicaccess3.croydon.gov.uk/online-applications/applicationDetails.do?keyVal=OK9YC9JLM9Q00&activeTab=summary", "maximum-net-dwellings": "8", "planning-permission-type": "full planning permission", "organisation": "local-authority-eng:CRY", "start-date": "2020-12-22", "ownership-status": "not owned by a public authority", "point": "POINT(-0.09979 51.370413)", "planning-permission-date": "2017-04-25", "site-address": "103-111a, High Street", "minimum-net-dwellings": "8", "planning-permission-status": "permissioned", "site-plan-url": "https://publicaccess3.croydon.gov.uk/online-applications/applicationDetails.do?keyVal=OK9YC9JLM9Q00&activeTab=summary", "slug": "/brownfield-land/local-authority-eng/CRY/17-00325-FUL", "entity": null, "entry-date": "2020-12-22"}}