{"type": "Feature", "geometry": {"type": "Point", "coordinates": [0.08314, 51.540496]}, "properties": {"start-date": "2017-12-31", "maximum-net-dwellings": "8", "site-address": "56 Longbridge", "name": "LBBD14", "ownership-status": "not owned by a public authority", "planning-permission-status": "permissioned", "site": "LBBD14", "organisation": "local-authority-eng:BDG", "site-plan-url": "https://maps.london.gov.uk/brownfield-site-register", "hectares": "0.01", "point": "POINT(0.08314 51.540496)", "minimum-net-dwellings": "8", "slug": "/brownfield-land/local-authority-eng/BDG/LBBD14", "entry-date": "2017-12-31"}}