{"type": "Feature", "geometry": {"type": "Point", "coordinates": [-1.358902, 53.074898]}, "properties": {"deliverable": "yes", "start-date": "2017-12-06", "ownership-status": "not owned by a public authority", "planning-permission-history": "http://www.ambervalley.gov.uk/environment-and-planning/planning/development-management/planning-applications/view-a-planning-application.aspx?REFVAL=AVA/2014/0208", "hectares": "0.9", "planning-permission-status": "permissioned", "planning-permission-type": "outline planning permission", "planning-permission-date": "2014-08-14", "maximum-net-dwellings": "18", "site": "BFLR0004", "minimum-net-dwellings": "18", "name": "BFLR0004", "point": "POINT(-1.358902 53.074898)", "notes": "Outline planning permission for residential development including the demolition of the public house", "site-plan-url": "http://info.ambervalley.gov.uk/maps/brownfieldmap.html?lat=53.0748981511&lng=-1.3589017133", "organisation": "local-authority-eng:AMB", "site-address": "Black Horse Inn Lower Somercotes", "slug": "/brownfield-land/local-authority-eng/AMB/BFLR0004", "entity": 474764, "entry-date": "2017-12-06"}}