{"type": "Feature", "geometry": {"type": "Point", "coordinates": [-2.074089, 52.565613]}, "properties": {"resource": "3938ddedb2fedca20fa409e23118564ff80bfd283b05852eb5d968affc13697d", "site-address": "The Orchard, Bilston Town Centre", "deliverable": "", "end-date": "", "entry-date": "2018-05-22", "hazardous-substances": "", "hectares": "0.84", "maximum-net-dwellings": "", "minimum-net-dwellings": "", "notes": "", "organisation": "local-authority-eng:WLV", "ownership-status": "", "planning-permission-date": "", "planning-permission-history": "", "planning-permission-status": "Other Commitment", "planning-permission-type": "", "point": "POINT(-2.074089 52.565613)", "site": "P7", "site-plan-url": "", "start-date": "", "id": "P7"}}