{"type": "Feature", "geometry": {"type": "Point", "coordinates": [-2.704987, 53.322801]}, "properties": {"resource": "cb0af9b4b276cdc6c150ce187006009e235e057d83ad3f553d3f4c8bdc078509", "site-address": "Land to the rear of Gaunts Way, Hallwood Park, Runcorn", "deliverable": "", "end-date": "", "entry-date": "2017-12-31", "hazardous-substances": "", "hectares": "1.88", "maximum-net-dwellings": "67", "minimum-net-dwellings": "50", "notes": "Potential capacity based on a density multiplier with the minimum based on 30dph and maximum at 40dph.. Potential for residential development in line with surrounding Hallwood Park residential area, would need to retain amenity of existing properties.", "organisation": "local-authority-eng:HAL", "ownership-status": "mixed ownership", "planning-permission-date": "", "planning-permission-history": "", "planning-permission-status": "Not permissioned", "planning-permission-type": "", "point": "POINT(-2.704987 53.322801)", "site": "H1808", "site-plan-url": "http://map.halton.gov.uk/WebMapLayers8External/map.aspx?MapName=Linked&overlayname=Brownfield%20Register&schemacolumn=Ref&resolution=1&UID=H1808", "start-date": "2017-12-31", "id": "cb0af9b4b276cdc6c150ce187006009e235e057d83ad3f553d3f4c8bdc078509:32092"}}