{"type": "Feature", "geometry": {"type": "Point", "coordinates": [0.078067, 51.559699]}, "properties": {"resource": "30a93d60a53723e9bf458f74f45675bcdef1eb4dcc80ca195188fc2d68fe7e16", "site-address": "226-244 High Road, Ilford", "deliverable": "yes", "end-date": "", "entry-date": "2017-12-31", "hazardous-substances": "", "hectares": "0.14", "maximum-net-dwellings": "124", "minimum-net-dwellings": "124", "notes": "Submitted Planning Application - 4462/16 - Located within Ilford Housing Zone - Local Plan allocation site number: 13. Retail/Employment/ Housing. https://www.redbridge.gov.uk/media/3988/lbr-2061-revised-appendix-1-development-opportunity-sites-august-2017.pdf", "organisation": "local-authority-eng:RDB", "ownership-status": "not owned by a public authority", "planning-permission-date": "2011-12-29", "planning-permission-history": "http://planning.redbridge.gov.uk/swiftlg/apas/run/wphappcriteria.display", "planning-permission-status": "permissioned", "planning-permission-type": "full planning permission", "point": "POINT(0.078067 51.559699)", "site": "BRLBR0013", "site-plan-url": "https://my.redbridge.gov.uk/map/brownfield-land-register/BRLBR0013", "start-date": "2017-12-31", "id": "BRLBR0013"}}