{"type": "Feature", "geometry": {"type": "Point", "coordinates": [-0.211264, 51.348518]}, "properties": {"resource": "6c2e9015d78d3f49828ddf5bea7ecbd28be26caace8b2adbcd26c59eaa9eac23", "site-address": "18 Avenue Road, Belmont", "deliverable": "", "end-date": "", "entry-date": "2017-12-31", "hazardous-substances": "", "hectares": "0.70", "maximum-net-dwellings": "", "minimum-net-dwellings": "", "notes": "Change of use from an office to a residential use providing 8 flats.", "organisation": "local-authority-eng:STN", "ownership-status": "not owned by a public authority", "planning-permission-date": "", "planning-permission-history": "", "planning-permission-status": "permissioned", "planning-permission-type": "other", "point": "POINT(-0.211264 51.348518)", "site": "LBS-BLR94", "site-plan-url": "https://drive.google.com/open?id=1wcg1kjhMk485Th6zwioECkXYu_UI-80V", "start-date": "2017-12-31", "id": "local-authority-eng/STN/LBS-BLR94"}}