{"type": "Feature", "geometry": {"type": "Point", "coordinates": [-2.137592, 53.038444]}, "properties": {"minimum-net-dwellings": "0", "point": "POINT(-2.137592 53.038444)", "name": "61641", "start-date": "2018-12-05", "deliverable": "yes", "planning-permission-type": "full planning permission", "maximum-net-dwellings": "0", "site-plan-url": "https://webmaplayers.stoke.gov.uk/webmaplayers8/Map.aspx?MapName=SHLAA", "site": "61641", "site-address": "Abbots House, 103 Abbots Road, Abbey Hulton, Stoke-on-Trent, ST2 8DU", "notes": "Site is complete", "hectares": "0.42", "planning-permission-status": "permissioned", "organisation": "local-authority-eng:STE", "planning-permission-date": "2017-12-21", "slug": "/brownfield-land/local-authority-eng/STE/61641", "entry-date": "2020-04-01", "ownership-status": "not owned by a public authority", "end-date": "2020-04-01"}}