{"type": "Feature", "geometry": {"type": "Point", "coordinates": [-1.126062, 51.255123]}, "properties": {"organisation": "local-authority-eng:BAN", "start-date": "2018-12-31", "maximum-net-dwellings": "15", "site-plan-url": "http://www.basingstoke.gov.uk/SHELAA", "notes": "This SHELAA site (BAS028) benefits from planning permission granted after 1 April 2018 (17/03673/FUL). Soverign who are taking the site forward state that the site will be completed by 2020/21. The site is deliverable within five years.. Residential development of 15 units. http://www.basingstoke.gov.uk/SHELAA", "ownership-status": "owned by a public authority", "site-address": "Deeside Alliston Way", "site": "BAS028", "point": "POINT(-1.126062 51.255123)", "minimum-net-dwellings": "15", "planning-permission-status": "not permissioned", "deliverable": "yes", "hectares": "0.34", "name": "BAS028", "slug": "/brownfield-land/local-authority-eng/BAN/BAS028", "entry-date": "2018-12-31"}}