{"type": "Feature", "geometry": {"type": "Point", "coordinates": [-0.177849, 51.112803]}, "properties": {"ownership-status": "not owned by a public authority", "site-address": "International Business Centre, Spindle Way, Three Bridges, Crawley", "planning-permission-type": "full planning permission", "deliverable": "yes", "maximum-net-dwellings": "7", "minimum-net-dwellings": "7", "organisation": "local-authority-eng:CRW", "planning-permission-date": "2017-10-26", "hectares": "0.08", "start-date": "2018-11-29", "notes": "Site benefits from prior approval CR/2017/0748/PA3: 'Prior approval for change of use from office (B1) to residential (C3) for 10 flats.'", "point": "POINT(-0.177849 51.112803)", "planning-permission-status": "permissioned", "site-plan-url": "https://crawley.gov.uk/sites/default/files/2020-12/International_Business_Centre.pdf", "name": "CBCBLR032", "site": "CBCBLR032", "slug": "/brownfield-land/local-authority-eng/CRW/CBCBLR032", "entity": 480665, "entry-date": "2020-12-17"}}