{"type": "Feature", "geometry": {"type": "Point", "coordinates": [-0.053402, 51.426034]}, "properties": {"resource": "53ff7410d03797e7747d4df128ca450bbe808f4eacc79d0e2d18623ab4a99554", "site-address": "22A-24 Sydenham Road", "deliverable": "yes", "end-date": "", "entry-date": "2018-10-22", "hazardous-substances": "", "hectares": "0.12", "maximum-net-dwellings": "9", "minimum-net-dwellings": "9", "notes": "09/72662 for mixed use development including 6 x one bedroom, 5 x two bedroom and 1 x three bedroom self-contained flats, 1 x one and 5 x three bedroom self-contained maisonettes", "organisation": "local-authority-eng:LEW", "ownership-status": "not owned by a public authority", "planning-permission-date": "2011-03-09", "planning-permission-history": "", "planning-permission-status": "permissioned", "planning-permission-type": "full planning permission", "point": "POINT(-0.053402 51.426034)", "site": "SD003", "site-plan-url": "http://www.lewisham.gov.uk/brownfieldregister", "start-date": "2017-11-30", "id": "53ff7410d03797e7747d4df128ca450bbe808f4eacc79d0e2d18623ab4a99554:21837"}}