{"type": "Feature", "geometry": {"type": "Point", "coordinates": [-0.617857, 54.483743]}, "properties": {"name": "BR-069", "maximum-net-dwellings": "60", "site": "BR-069", "site-address": "Whitby Hospital (Part of), Springhill, Whitby", "site-plan-url": "https://tinyurl.com/r4a2rtj", "deliverable": "yes", "notes": "Demolition of part of hospital and erection of extra care", "minimum-net-dwellings": "60", "hectares": "0.67", "point": "POINT(-0.617857 54.483743)", "planning-permission-status": "not permissioned", "ownership-status": "owned by a public authority", "organisation": "local-authority-eng:SCE", "start-date": "2019-11-12", "slug": "/brownfield-land/local-authority-eng/SCE/BR-069", "entry-date": "2019-11-12"}}