{"type": "Feature", "geometry": {"type": "Point", "coordinates": [-2.712686, 53.436014]}, "properties": {"planning-permission-date": "2017-10-12", "minimum-net-dwellings": "7", "point": "POINT(-2.712686 53.436014)", "site-plan-url": "https://www.sthelens.gov.uk/media/10025/br100.pdf", "ownership-status": "not owned by a public authority", "planning-permission-type": "full planning permission", "site": "BR100", "maximum-net-dwellings": "7", "organisation": "local-authority-eng:SHN", "site-address": "Land at 22 Waterdale Crescent, St. Helens WA9 3PD", "planning-permission-status": "permissioned", "start-date": "2018-12-21", "planning-permission-history": "https://publicaccess.sthelens.gov.uk/online-applications/propertyDetails.do?activeTab=relatedCases&keyVal=NNOIU700DT007", "name": "BR100", "hectares": "0.04", "deliverable": "yes", "notes": "The site benefits from planning consent (ref: P/2017/0655/FUL).. Erection of 7no. Apartments and associated landscaping and parking.", "slug": "/brownfield-land/local-authority-eng/SHN/BR100", "entry-date": "2018-12-21"}}