{"type": "Feature", "geometry": {"type": "Point", "coordinates": [-0.194319, 51.527381]}, "properties": {"resource": "4949844d97e7364fe37aecedd8c948a431aa74cbabd7bfd9d6918f221f7cc5db", "site-address": "Widley Road Garage Widley Road London W9 2LD", "deliverable": "", "end-date": "", "entry-date": "2017-11-30", "hazardous-substances": "", "hectares": "0.054084872", "maximum-net-dwellings": "0", "minimum-net-dwellings": "0", "notes": "5-15 House Supply. Demolition of existing building; excavation to create additional basement storey; erection of a residential (Class C3) building arranged over basement, lower ground, ground and five upper storeys to provide up to 23no. residential dwellings; provision of external amenity space, associated on-site car parking and cycle parking facilities, landscaping works and other associated works.", "organisation": "local-authority-eng:WSM", "ownership-status": "", "planning-permission-date": "", "planning-permission-history": "", "planning-permission-status": "pending decision", "planning-permission-type": "", "point": "POINT(-0.194319 51.527381)", "site": "17/04106/FULL", "site-plan-url": "https://lbhf.maps.arcgis.com/apps/View/index.html?appid=d0d51e7d013a4d1a953ecc1cff697d24&site=17/04106/FULL", "start-date": "2017-11-30", "id": "17-04106-FULL"}}