{"type": "Feature", "geometry": {"type": "Point", "coordinates": [-0.099258, 53.706188]}, "properties": {"planning-permission-status": "permissioned", "minimum-net-dwellings": "22", "name": "237", "site": "237", "notes": "15/03146/STREM", "site-address": "Land South West And East Austrothy House", "point": "POINT(-0.099258 53.706188)", "deliverable": "yes", "hectares": "1.65", "start-date": "2016-07-12", "planning-permission-date": "2017-05-26", "ownership-status": "not owned by a public authority", "planning-permission-history": "https://newplanningaccess.eastriding.gov.uk/newplanningaccess/PLAN/15/03146/STREM", "maximum-net-dwellings": "22", "organisation": "local-authority-eng:ERY", "planning-permission-type": "reserved matters approval", "site-plan-url": "https://newplanningaccess.eastriding.gov.uk/newplanningaccess/PLAN/15/03146/STREM", "slug": "/brownfield-land/local-authority-eng/ERY/237", "entry-date": "2018-03-31"}}