{"type": "Feature", "geometry": {"type": "Point", "coordinates": [-1.537887, 53.993597]}, "properties": {"resource": "4ffa507c3a54ebf8ff68f9a954d078e93ebc38ac9e05cf0e179c81eeec8ebf35", "site-address": "Land at Station Parade, Harrogate", "deliverable": "", "end-date": "", "entry-date": "2017-10-04", "hazardous-substances": "", "hectares": "0.48", "maximum-net-dwellings": "50", "minimum-net-dwellings": "50", "notes": "Proposed to be included as mixed use allocation in Publication Local Plan (publication expected January 2018). Erection of a minimum of 50 dwellings", "organisation": "local-authority-eng:HAG", "ownership-status": "not owned by a public authority", "planning-permission-date": "", "planning-permission-history": "", "planning-permission-status": "Not permissioned", "planning-permission-type": "", "point": "POINT(-1.537887 53.993597)", "site": "BR12", "site-plan-url": "http://harrogatebc.maps.arcgis.com/apps/webappviewer/index.html?id=35605b223adf4a81b45b1a6e1f129a75&find=BR12", "start-date": "2017-10-04", "id": "4ffa507c3a54ebf8ff68f9a954d078e93ebc38ac9e05cf0e179c81eeec8ebf35:18089"}}