{"type": "Feature", "geometry": {"type": "Point", "coordinates": [-0.440977, 54.008248]}, "properties": {"name": "BF/201", "site": "BF/201", "planning-permission-history": "https://newplanningaccess.eastriding.gov.uk/newplanningaccess/PLAN/20/00548/REM", "deliverable": "yes", "maximum-net-dwellings": "9", "planning-permission-status": "permissioned", "notes": "20/00548/REM - Previously listed as 15/03211/PLF", "organisation": "local-authority-eng:ERY", "site-plan-url": "https://newplanningaccess.eastriding.gov.uk/newplanningaccess/PLAN/20/00548/REM", "ownership-status": "not owned by a public authority", "planning-permission-type": "reserved matters approval", "hectares": "0.2", "planning-permission-date": "2020-11-05", "site-address": "62A Middle Street North, Driffield", "minimum-net-dwellings": "9", "start-date": "2017-12-04", "point": "POINT(-0.440977 54.008248)", "slug": "/brownfield-land/local-authority-eng/ERY/BF-201", "entry-date": "2021-03-31"}}