{"type": "Feature", "geometry": {"type": "Point", "coordinates": [-0.106403, 51.491606]}, "properties": {"resource": "214cc3f7fe4500164761e60367f12ce1c9b4f57852569f75a60f17dbb4366be0", "site-address": "Knight's Walk Estate", "deliverable": "", "end-date": "", "entry-date": "2017-12-15", "hazardous-substances": "", "hectares": "0.93", "maximum-net-dwellings": "60", "minimum-net-dwellings": "60", "notes": "Lambeth Housing Zone site. Redevelopment of Knight's Walk Estate to provide additional homes.", "organisation": "local-authority-eng:LBH", "ownership-status": "owned by a public authority", "planning-permission-date": "", "planning-permission-history": "", "planning-permission-status": "not permissioned", "planning-permission-type": "", "point": "POINT(-0.106403 51.491606)", "site": "BLR032", "site-plan-url": "https://maps.london.gov.uk/brownfield-site-register", "start-date": "2017-12-15", "id": "214cc3f7fe4500164761e60367f12ce1c9b4f57852569f75a60f17dbb4366be0:32065"}}