{"type": "Feature", "geometry": {"type": "Point", "coordinates": [-0.482329, 51.602703]}, "properties": {"resource": "53ff7410d03797e7747d4df128ca450bbe808f4eacc79d0e2d18623ab4a99554", "site-address": "Harefield House, High Street, Harefield, UB9 6RH", "deliverable": "yes", "end-date": "", "entry-date": "2017-12-31", "hazardous-substances": "", "hectares": "0.46000000000000002", "maximum-net-dwellings": "9", "minimum-net-dwellings": "9", "notes": "Variation of Condition 2 (Approved Plans) of planning permission ref. 63502/APP/2016/2034 dated 2/08/16 (Variation of Condition 2 (Approved Plans) of planning permission ref. 63502/APP/2015/2638 dated", "organisation": "local-authority-eng:HIL", "ownership-status": "", "planning-permission-date": "2016-11-22", "planning-permission-history": "http://www.hillingdon.gov.uk/article/31455/Planning-search-guide", "planning-permission-status": "permissioned", "planning-permission-type": "full planning permission", "point": "POINT(-0.482329 51.602703)", "site": "63502/APP/2016/3227", "site-plan-url": "https://maps.london.gov.uk/brownfield-site-register", "start-date": "2017-12-31", "id": "63502-APP-2016-3227"}}