{"type": "Feature", "geometry": {"type": "Point", "coordinates": [-0.958185, 54.598827]}, "properties": {"resource": "81e38899e7e04a506c4406843728bcd4fc0c0875a70dbf93abe9fbbeb8e2a7a8", "site-address": "Land South of The Dunes, Redcar", "deliverable": "", "end-date": "03/12/2019", "entry-date": "2019-12-03", "hazardous-substances": "", "hectares": "0.19", "maximum-net-dwellings": "9", "minimum-net-dwellings": "9", "notes": "Site under development.", "organisation": "local-authority-eng:RCC", "ownership-status": "owned by a public authority", "planning-permission-date": "", "planning-permission-history": "", "planning-permission-status": "permissioned", "planning-permission-type": "full planning permission", "point": "POINT(-0.958185 54.598827)", "site": "528", "site-plan-url": "https://wca.redclev.net/resident/planning-and-building/local-plan/Local%20Plan%20Documents/Brownfield%20Land%20Register%202019/528_19.pdf", "start-date": "2018-12-11", "id": "81e38899e7e04a506c4406843728bcd4fc0c0875a70dbf93abe9fbbeb8e2a7a8:35059"}}