{"type": "Feature", "geometry": {"type": "Point", "coordinates": [-0.972613, 54.560263]}, "properties": {"resource": "80bb07acb709683a15ea6cb13f38ab8498a0625e9c068ddbe564e698f7c27b01", "site-address": "Land at Stanghow Road, Skelton", "deliverable": "", "end-date": "", "entry-date": "2017-11-10", "hazardous-substances": "", "hectares": "0.33", "maximum-net-dwellings": "10", "minimum-net-dwellings": "10", "notes": "Local Plan Housing Allocation. http://www.redcar-cleveland.gov.uk/rcbcweb.nsf/7265BE9ED13D3F6580256F6A003F1D97/$FILE/Publication%20Local%20Plan%20%28November%202016%29.pdf", "organisation": "local-authority-eng:RCC", "ownership-status": "not owned by a public authority", "planning-permission-date": "", "planning-permission-history": "", "planning-permission-status": "not permissioned", "planning-permission-type": "", "point": "POINT(-0.972613 54.560263)", "site": "405", "site-plan-url": "http://www.redcar-cleveland.gov.uk/rcbcweb.nsf/E362D0843A70155880257D640049A543/$File/405_Land%20at%20Stanghow%20Road.pdf", "start-date": "2017-11-10", "id": "80bb07acb709683a15ea6cb13f38ab8498a0625e9c068ddbe564e698f7c27b01:34856"}}