{"type": "Feature", "geometry": {"type": "Point", "coordinates": [-0.049, 51.4754]}, "properties": {"resource": "53ff7410d03797e7747d4df128ca450bbe808f4eacc79d0e2d18623ab4a99554", "site-address": "New Cross Gate NDC scheme, Besson Street", "deliverable": "", "end-date": "", "entry-date": "2017-11-30", "hazardous-substances": "", "hectares": "1.01", "maximum-net-dwellings": "173", "minimum-net-dwellings": "173", "notes": "Lapsed 08/68448 for mixed use development including 173 residential units", "organisation": "local-authority-eng:LEW", "ownership-status": "owned by a public authority", "planning-permission-date": "", "planning-permission-history": "", "planning-permission-status": "not permissioned", "planning-permission-type": "", "point": "POINT(-0.049 51.4754)", "site": "TH004", "site-plan-url": "http://www.lewisham.gov.uk/brownfieldregister", "start-date": "2017-11-30", "id": "53ff7410d03797e7747d4df128ca450bbe808f4eacc79d0e2d18623ab4a99554:41267"}}