{"type": "Feature", "geometry": {"type": "Point", "coordinates": [-0.658764, 51.533723]}, "properties": {"resource": "cc0074fa7127d43189252e3e4e8cca5af9c4e485a7b5f59797b445f597b89001", "site-address": "''Natwest Bank, 63 High Street, Burnham''", "deliverable": "yes", "end-date": "", "entry-date": "2018-05-22", "hazardous-substances": "", "hectares": "0.02", "maximum-net-dwellings": "5", "minimum-net-dwellings": "5", "notes": "Change of use from A2 to C3 (Residential) at first floor creating 3 self contained units. Two storey rear extension creating 2 self contained units.", "organisation": "local-authority-eng:SBU", "ownership-status": "not owned by a public authority", "planning-permission-date": "2017-01-10", "planning-permission-history": "", "planning-permission-status": "permissioned", "planning-permission-type": "full planning permission", "point": "POINT(-0.658764 51.533723)", "site": "SB0399", "site-plan-url": "http://www.southbucks.gov.uk/planning/brownfieldregister", "start-date": "", "id": "SB0399"}}