{"type": "Feature", "geometry": {"type": "Point", "coordinates": [-0.558287, 53.932665]}, "properties": {"site-address": "Land South of 5 Front Street Middleton on the Wolds", "deliverable": "yes", "planning-permission-type": "reserved matters approval", "notes": "15/01467/REM (PP)", "site": "115", "ownership-status": "not owned by a public authority", "planning-permission-date": "2015-07-21", "site-plan-url": "https://newplanningaccess.eastriding.gov.uk/newplanningaccess/PLAN/15/01467/REM", "start-date": "2016-07-12", "hectares": "0.2", "organisation": "local-authority-eng:ERY", "name": "115", "minimum-net-dwellings": "8", "planning-permission-status": "permissioned", "point": "POINT(-0.558287 53.932665)", "maximum-net-dwellings": "8", "planning-permission-history": "https://newplanningaccess.eastriding.gov.uk/newplanningaccess/PLAN/15/01467/REM", "slug": "/brownfield-land/local-authority-eng/ERY/115", "entry-date": "2018-03-31", "end-date": "2018-03-31"}}