{"type": "Feature", "geometry": {"type": "Point", "coordinates": [-0.236592, 51.575323]}, "properties": {"ownership-status": "not owned by a public authority", "deliverable": "yes", "site-plan-url": "https://data.london.gov.uk/dataset/brownfield-land-register", "name": "16/3265/PNO", "maximum-net-dwellings": "22", "start-date": "2019-11-26", "site": "16/3265/PNO", "minimum-net-dwellings": "22", "organisation": "local-authority-eng:BNE", "site-address": "110 - 124 West Hendon Broadway, London, NW9 7AA", "point": "POINT(-0.236592 51.575323)", "planning-permission-date": "2016-06-27", "notes": "Change of use from B1 Offices to C3 dwelling to provide 22 units", "hectares": "0.28", "planning-permission-status": "permissioned", "planning-permission-type": "full planning permission", "slug": "/brownfield-land/local-authority-eng/BNE/16-3265-PNO", "entry-date": "2020-11-16"}}