{"type": "Feature", "geometry": {"type": "Point", "coordinates": [-0.472428, 52.140465]}, "properties": {"start-date": "2018-11-30", "name": "17/02829/CPNO", "notes": "Change of use from D1 to residential use to create 12 apartments and the erecton of balconies.", "ownership-status": "not owned by a public authority", "planning-permission-date": "2018-02-13", "minimum-net-dwellings": "12", "maximum-net-dwellings": "12", "planning-permission-type": "full planning permission", "site-plan-url": "http://bedford-borough.maps.arcgis.com/apps/webappviewer/index.html?id=6979ef7d6dfa46199cd16490135fa791", "organisation": "local-authority-eng:BDF", "site-address": "13 The Crescent, Bedford", "point": "POINT(-0.472428 52.140465)", "deliverable": "yes", "planning-permission-status": "permissioned", "hectares": "0.04", "site": "17/02829/CPNO", "slug": "/brownfield-land/local-authority-eng/BDF/17-02829-CPNO", "entity": 475293, "entry-date": "2018-11-30"}}