{"type": "Feature", "geometry": {"type": "Point", "coordinates": [-0.901913, 52.235871]}, "properties": {"resource": "d1106e190c91bf0a5c6e2b6d873b7519fa0f136f277b05d44afc5b5687acdb8d", "site-address": "Land at St Peters Way/ Court Road/ Freeschool Street", "deliverable": "yes", "end-date": "", "entry-date": "2017-12-13", "hazardous-substances": "", "hectares": "1.17", "maximum-net-dwellings": "139", "minimum-net-dwellings": "139", "notes": "Included as Policy 33 in the Central Area Action Plan (2013), for mixed use development including offices, small scale retailing, restaurants, cafes and residential. Prior to that, the Borough Council commissioned the preparation of a Masterplan for freeschool Street. It is within the Enterprise Zone.", "organisation": "local-authority-eng:NOR", "ownership-status": "mixed ownership", "planning-permission-date": "", "planning-permission-history": "", "planning-permission-status": "not permissioned", "planning-permission-type": "", "point": "POINT(-0.901913 52.235871)", "site": "BFR1010", "site-plan-url": "https://www.northampton.gov.uk/downloads/file/10075/bfr1010", "start-date": "2017-12-13", "id": "d1106e190c91bf0a5c6e2b6d873b7519fa0f136f277b05d44afc5b5687acdb8d:5606"}}