{"type": "Feature", "geometry": {"type": "Point", "coordinates": [-2.19943, 53.7031]}, "properties": {"point": "POINT(-2.19943 53.7031)", "organisation": "local-authority-eng:ROS", "hectares": "0.05", "name": "ROSBS010", "planning-permission-status": "permissioned", "maximum-net-dwellings": "6", "site": "ROSBS010", "ownership-status": "not owned by a public authority", "site-address": "BACUP CONSERVATIVE CLUB", "start-date": "2017-12-15", "minimum-net-dwellings": "6", "planning-permission-history": "https://publicaccess.rossendale.gov.uk/online-applications/applicationDetails.do?activeTab=summary&keyVal=NL0FGYNDLPC00", "slug": "/brownfield-land/local-authority-eng/ROS/ROSBS010", "entity": 491658, "entry-date": "2019-12-20", "notes": "2015/0085 planning permission for 4 flats; building works started; 2019/0170 planning permission for 6 flats. Conversion of former Conservative Club to 6 no. flats", "site-plan-url": "https://www.rossendale.gov.uk/downloads/download/10897/brownfield_register", "planning-permission-type": "full planning permission", "deliverable": "yes", "planning-permission-date": "2019-09-19"}}