{"type": "Feature", "geometry": {"type": "Point", "coordinates": [-1.113407, 53.535725]}, "properties": {"planning-permission-history": "http://www.doncaster.gov.uk/services/planning/planning-applications-online-public-access", "site": "986", "site-address": "170 Beckett Road, Wheatley", "deliverable": "yes", "planning-permission-date": "2017-01-18", "hectares": "0.05", "name": "986", "ownership-status": "not owned by a public authority", "organisation": "local-authority-eng:DNC", "maximum-net-dwellings": "7", "point": "POINT(-1.113407 53.535725)", "planning-permission-status": "permissioned", "site-plan-url": "http://dmbc.maps.arcgis.com/apps/webappviewer/index.html?id=2ac0d9b40cc34eb2b05e80a122b7a6e2", "planning-permission-type": "full planning permission", "notes": "16/02721/FUL. Conversion of retail unit with apartment above to form 8 studio apartments. http://www.doncaster.gov.uk/services/planning/planning-applications-online-public-access", "start-date": "2017-12-31", "minimum-net-dwellings": "7", "slug": "/brownfield-land/local-authority-eng/DNC/986", "entry-date": "2018-12-31"}}