{"type": "Feature", "geometry": {"type": "Point", "coordinates": [0.097584, 51.564601]}, "properties": {"resource": "53ff7410d03797e7747d4df128ca450bbe808f4eacc79d0e2d18623ab4a99554", "site-address": "4-12 Cameron Road and 625-643 High Road", "deliverable": "", "end-date": "", "entry-date": "2019-07-12", "hazardous-substances": "", "hectares": "0.42999999999999999", "maximum-net-dwellings": "73", "minimum-net-dwellings": "73", "notes": "Local Plan allocation site number: 77. Housing/Retail. https://www.redbridge.gov.uk/media/3988/lbr-2061-revised-appendix-1-development-opportunity-sites-august-2017.pdf", "organisation": "local-authority-eng:RDB", "ownership-status": "mixed ownership", "planning-permission-date": "", "planning-permission-history": "http://planning.redbridge.gov.uk/swiftlg/apas/run/wphappcriteria.display", "planning-permission-status": "Not permissioned", "planning-permission-type": "", "point": "POINT(0.097584 51.564601)", "site": "BRLBR0063", "site-plan-url": "", "start-date": "2019-07-12", "id": "53ff7410d03797e7747d4df128ca450bbe808f4eacc79d0e2d18623ab4a99554:20782"}}