{"type": "Feature", "geometry": {"type": "Point", "coordinates": [-2.711512, 53.458592]}, "properties": {"site": "BR099", "planning-permission-type": "full planning permission", "point": "POINT(-2.711512 53.458592)", "planning-permission-status": "permissioned", "start-date": "2018-12-21", "site-address": "Millbrook Hostel, 12 Mulcrow Close, St. Helens WA9 1HD", "notes": "The site benefits from planning consent.. Erection of 16no. Dwellings along with associated landscaping works and parking.", "hectares": "0.26", "planning-permission-history": "https://publicaccess.sthelens.gov.uk/online-applications/propertyDetails.do?activeTab=relatedCases&keyVal=NNOIX800DT048", "minimum-net-dwellings": "16", "maximum-net-dwellings": "16", "organisation": "local-authority-eng:SHN", "site-plan-url": "https://www.sthelens.gov.uk/media/10024/br099.pdf", "name": "BR099", "planning-permission-date": "2017-12-20", "deliverable": "yes", "ownership-status": "not owned by a public authority", "slug": "/brownfield-land/local-authority-eng/SHN/BR099", "entry-date": "2018-12-21"}}