{"type": "Feature", "geometry": {"type": "Point", "coordinates": [-0.133088, 50.855664]}, "properties": {"maximum-net-dwellings": "6", "start-date": "2020-12-21", "organisation": "local-authority-eng:BNH", "deliverable": "yes", "hectares": "0.23", "site-address": "Woodbourne Service Station Woodbourne Avenue Brighton", "name": "SHLAA6208", "ownership-status": "not owned by a public authority", "site": "SHLAA6208", "site-plan-url": "https://www.brighton-hove.gov.uk/sites/default/files/SHLAA6208-Woodbourne-Service-Station-Woodbourne-Avenue-Brighton.pdf", "planning-permission-status": "not permissioned", "notes": "Call for Sites addition 2020", "point": "POINT(-0.133088 50.855664)", "minimum-net-dwellings": "6", "slug": "/brownfield-land/local-authority-eng/BNH/SHLAA6208", "entry-date": "2020-12-21"}}