{"type": "Feature", "geometry": {"type": "Point", "coordinates": [-2.429289, 53.550732]}, "properties": {"site-plan-url": "http://mappinggm.org.uk/gmodin/", "planning-permission-history": "https://www.planningpa.bolton.gov.uk/online-applications-17/search.do?action=simple&searchType=Application", "minimum-net-dwellings": "99", "site": "747-SHLAA", "hectares": "1.19", "site-address": "Redgate Way - 014C, Bolton, BL4 0NG", "name": "747-SHLAA", "notes": "Development for housing may be appropriate subject to meeting all planning and other requirements. http://mappinggm.org.uk/gmodin/", "planning-permission-status": "not permissioned", "point": "POINT(-2.429289 53.550732)", "maximum-net-dwellings": "99", "ownership-status": "owned by a public authority", "organisation": "local-authority-eng:BOL", "start-date": "2017-12-31", "slug": "/brownfield-land/local-authority-eng/BOL/747-SHLAA", "entry-date": "2017-12-31"}}