{"type": "Feature", "geometry": {"type": "Point", "coordinates": [-0.820334, 53.061681]}, "properties": {"site-plan-url": "http://www.newark-sherwooddc.gov.uk/media/newarkandsherwood/imagesandfiles/planningpolicy/pdfs/brownfieldlandregister/BF0015.pdf", "planning-permission-date": "2017-03-29", "hectares": "0.16", "deliverable": "yes", "start-date": "2017-11-30", "site": "BF0015", "point": "POINT(-0.820334 53.061681)", "planning-permission-status": "permissioned", "planning-permission-type": "full planning permission", "minimum-net-dwellings": "8", "maximum-net-dwellings": "8", "name": "BF0015", "planning-permission-history": "https://publicaccess.newark-sherwooddc.gov.uk/online-applications/propertyDetails.do?activeTab=relatedCases&keyVal=OJMI20LB04E00", "organisation": "local-authority-eng:NEA", "site-address": "Garage Court, Meldrum Crescent, Newark", "ownership-status": "owned by a public authority", "slug": "/brownfield-land/local-authority-eng/NEA/BF0015", "entry-date": "2017-11-30"}}