{"type": "Feature", "geometry": {"type": "Point", "coordinates": [-1.489286, 50.916125]}, "properties": {"resource": "107dd6896ac2d92dcbdebb80c141c57d26a5a66ec2f2cf86f4eff1b0cf03b43d", "site-address": "Land south of Brokenford Lane, Totton", "deliverable": "", "end-date": "", "entry-date": "2017-12-31", "hazardous-substances": "", "hectares": "0.2", "maximum-net-dwellings": "10", "minimum-net-dwellings": "10", "notes": "Adopted Local Plan Allocation TOT6. Adopted Local Plan Allocation. Capacity around 10 dwellings. http://www.newforest.gov.uk/article/14184", "organisation": "local-authority-eng:NEW", "ownership-status": "not owned by a public authority", "planning-permission-date": "", "planning-permission-history": "", "planning-permission-status": "not permissioned", "planning-permission-type": "", "point": "POINT(-1.489286 50.916125)", "site": "BLR_Tott_001", "site-plan-url": "http://www.newforest.gov.uk/CHttpHandler.ashx?id=35743&p=0", "start-date": "2017-12-31", "id": "BLR_Tott_001"}}