{"type": "Feature", "geometry": {"type": "Point", "coordinates": [-0.148878, 51.555973]}, "properties": {"resource": "8c8e11636895827afed2bd458ef0c234a09498a3d36f45e60a91f8726d0dfe66", "site-address": "Gordon House 6, 1st Floor, Lissenden Gardens London NW5 1LX", "deliverable": "yes", "end-date": "", "entry-date": "2018-05-21", "hazardous-substances": "", "hectares": "0.08", "maximum-net-dwellings": "6", "minimum-net-dwellings": "6", "notes": "Change of use of first floor office (Class B1(a)) to 6 x self-contained flats (Class C3).", "organisation": "local-authority-eng:CMD", "ownership-status": "", "planning-permission-date": "2014-05-29", "planning-permission-history": "http://planningrecords.camden.gov.uk/Northgate/PlanningExplorer17/Generic/StdResults.aspx?PT=Planning%20Applications%20On-Line&SC=Application%20Number%20is%202014/2183/P%20and%20Date%20Validated%20is%20between%2001%20January%201927%20and%2031%20December%202017&FT=Planning%20Application%20Search%20Results&XMLSIDE=/Northgate/PlanningExplorer17/SiteFiles/Skins/Camden/Menus/PL.xml&XSLTemplate=/Northgate/PlanningExplorer17/SiteFiles/Skins/Camden/xslt/PL/PLResults.xslt&PS=10&XMLLoc=/Northgate/PlanningExplorer17/generic/XMLtemp/xtcpr1jw2rbnjc55fab2yvay/84f9a7d8-44e7-4793-99b1-64dfe7775d4c.xml", "planning-permission-status": "permissioned", "planning-permission-type": "other", "point": "POINT(-0.148878 51.555973)", "site": "LBCBLR046", "site-plan-url": "https://opendata.camden.gov.uk/Environment/Camden-Brownfield-Register-Polygons/wi65-z696/data", "start-date": "2017-12-22", "id": "8c8e11636895827afed2bd458ef0c234a09498a3d36f45e60a91f8726d0dfe66:40025"}}