{"type": "Feature", "geometry": {"type": "Point", "coordinates": [-1.852375, 52.387779]}, "properties": {"site-address": "The Glider Yard, Houndsfield Lane, Shirley", "site-plan-url": "http://www.solihull.gov.uk/Portals/0/Planning/BLR/BLR-014.pdf", "ownership-status": "not owned by a public authority", "notes": "Planning permission granted. Now included as PR42", "organisation": "local-authority-eng:SOL", "minimum-net-dwellings": "2", "maximum-net-dwellings": "4", "point": "POINT(-1.852375 52.387779)", "planning-permission-history": "https://publicaccess.solihull.gov.uk/online-applications/propertyDetails.do?activeTab=relatedCases&keyVal=OJXAJ3OE03G00", "hectares": "0.13", "planning-permission-status": "permissioned", "name": "BLR/014", "deliverable": "yes", "site": "BLR/014", "planning-permission-date": "2017-12-12", "start-date": "2018-03-23", "planning-permission-type": "outline planning permission", "slug": "/brownfield-land/local-authority-eng/SOL/BLR-014", "entry-date": "2018-12-03", "end-date": "2019-12-09"}}