{"type": "Feature", "geometry": {"type": "Point", "coordinates": [-2.246386, 53.513205]}, "properties": {"resource": "2a7b9d74419a9388b37862f100293f18ebeee60212d69e9e1f2e1fdb402375f4", "site-address": "4 King Edwards Buildings, Bury Old Road, Salford, M7 4QJ", "deliverable": "yes", "end-date": "", "entry-date": "2017-12-01", "hazardous-substances": "", "hectares": "0.01", "maximum-net-dwellings": "1", "minimum-net-dwellings": "1", "notes": "Planning permission 17/69835/FUL. Construction status not started as of 31 March 2017. Planning permission details as of 27 October 2017.. Gross addition of 2 apartments. Loss of 1 apartment.", "organisation": "local-authority-eng:SLF", "ownership-status": "not owned by a public authority", "planning-permission-date": "2017-07-12", "planning-permission-history": "", "planning-permission-status": "permissioned", "planning-permission-type": "full planning permission", "point": "POINT(-2.246386 53.513205)", "site": "S/KER/052", "site-plan-url": "https://map.salford.gov.uk/maps/?lyrs=brownfield_land_register_2017#19/53.513205/-2.246386", "start-date": "2017-12-01", "id": "S-KER-052"}}