{"type": "Feature", "geometry": {"type": "Point", "coordinates": [-0.2056, 51.802839]}, "properties": {"resource": "a6c8009d84dac7b42810f774e7f67a8d6f26ec9ebb225633f8b11a0847c4e9cf", "site-address": "Welwyn Garden City - Town Centre North SPD Site", "deliverable": "", "end-date": "", "entry-date": "2017-12-15", "hazardous-substances": "", "hectares": "1.42", "maximum-net-dwellings": "100", "minimum-net-dwellings": "100", "notes": "The majority of the site is owned by a public authority, but parts are privately owned.", "organisation": "local-authority-eng:WEW", "ownership-status": "mixed ownership", "planning-permission-date": "", "planning-permission-history": "", "planning-permission-status": "Not permissioned", "planning-permission-type": "", "point": "POINT(-0.2056 51.802839)", "site": "WGC123", "site-plan-url": "http://www.welhat.gov.uk/map?getmap=true&scale=1250&location=523815.785644531^213104.564453125&layersidentifier=0bc9e26dc8604233843af4ea0c0221f7&menuconfig=Live", "start-date": "2017-12-15", "id": "a6c8009d84dac7b42810f774e7f67a8d6f26ec9ebb225633f8b11a0847c4e9cf:46775"}}