{"type": "Feature", "geometry": {"type": "Point", "coordinates": [-1.653255, 50.751042]}, "properties": {"resource": "61241e449683ecafc717383eb68f4b08cc64404a570a9a1bfae45d20b4188bc0", "site-address": "Land at Station Road/Elm Avenue, New Milton", "deliverable": "", "end-date": "", "entry-date": "2019-12-31", "hazardous-substances": "", "hectares": "0.12", "maximum-net-dwellings": "35", "minimum-net-dwellings": "35", "notes": "This site is located at the southern end of New Milton town centre. Given its town centre location, the site could accommodate a well-designed high density mixed-use scheme comprising commercial uses on the ground floor and residential uses on upper floors. The site offers an opportunity for the development of a landmark building to make a positive contribution to the town. Redevelopment would have potential to bring visual/economic/social enhancements to New Milton town centre. Around 35 dwellings", "organisation": "local-authority-eng:NEW", "ownership-status": "not owned by a public authority", "planning-permission-date": "", "planning-permission-history": "", "planning-permission-status": "not permissioned", "planning-permission-type": "", "point": "POINT(-1.653255 50.751042)", "site": "BLR_Newm_012", "site-plan-url": "http://www.newforest.gov.uk/media/35743/Brownfield-Land-Register-Site-Location-Maps/Spreadsheet/Brownfield_Land_Register_Site_Location_Maps_(20_December_2019).pdf", "start-date": "2018-12-31", "slug": "local-authority-eng/NEW/BLR-Newm-012"}}