{"type": "Feature", "geometry": {"type": "Point", "coordinates": [-0.165045, 51.404789]}, "properties": {"resource": "4a652bd90b96de8059186979c3068d34c1cfdeb433fa3af8233fcd1ef25c998d", "site-address": "CR4 3NZ", "deliverable": "", "end-date": "", "entry-date": "2020-01-10", "hazardous-substances": "", "hectares": "0.31", "maximum-net-dwellings": "", "minimum-net-dwellings": "", "notes": "", "organisation": "local-authority-eng:MRT", "ownership-status": "", "planning-permission-date": "", "planning-permission-history": "", "planning-permission-status": "", "planning-permission-type": "", "point": "POINT(-0.165045 51.404789)", "site": "17240068", "site-plan-url": "https://maps.london.gov.uk/brownfield-site-register/", "start-date": "2020-01-10", "slug": "local-authority-eng/MRT/17240068"}}