{"type": "Feature", "geometry": {"type": "Point", "coordinates": [-2.175881, 53.502224]}, "properties": {"deliverable": "yes", "point": "POINT(-2.175881 53.502224)", "notes": "Approx 'MinNetDwellings' expected however proposals for a higher number of dwellings will be considered. No maximum has been set but all proposals must be in line with the Council's design quality requirements and any relevant Council-endorsed planning framework or masterplan", "site-plan-url": "https://mappinggm.org.uk/gmodin/", "site-address": "Flash Street, Newton Heath", "start-date": "2017-12-31", "minimum-net-dwellings": "20", "organisation": "local-authority-eng:MAN", "maximum-net-dwellings": "20", "name": "Mile1900", "site": "Mile1900", "hectares": "0.44", "slug": "/brownfield-land/local-authority-eng/MAN/Mile1900", "entity": 487334, "entry-date": "2020-12-31", "planning-permission-history": "http://pa.manchester.gov.uk/online-applications/", "planning-permission-status": "not permissioned"}}