{"type": "Feature", "geometry": {"type": "Point", "coordinates": [-1.077765, 53.956292]}, "properties": {"resource": "7bbf483dd896de667a8476ab102c8aa657f01c9cb8dea5c9ed186d05d941de2b", "site-address": "Proposed Hotel 46-50 Piccadilly (Residential Part of Scheme)", "deliverable": "yes", "end-date": "", "entry-date": "2018-12-20", "hazardous-substances": "", "hectares": "0.07", "maximum-net-dwellings": "8", "minimum-net-dwellings": "8", "notes": "See planning application: 17/00429/FULM. Erection of part 5/part 6 storey hotel (140 bedrooms) with ground floor restaurant and 5 storey building comprising 8 no. apartments (class C3)", "organisation": "local-authority-eng:YOR", "ownership-status": "not owned by a public authority", "planning-permission-date": "2017-12-18", "planning-permission-history": "https://www.york.gov.uk/SearchPlanningApplications", "planning-permission-status": "", "planning-permission-type": "full planning permission", "point": "POINT(-1.077765 53.956292)", "site": "BR-029", "site-plan-url": "https://www.york.gov.uk/downloads/download/4172/brownfield_register", "start-date": "2018-12-20", "id": "7bbf483dd896de667a8476ab102c8aa657f01c9cb8dea5c9ed186d05d941de2b:59614"}}