{"type": "Feature", "geometry": {"type": "Point", "coordinates": [-1.885914, 53.735846]}, "properties": {"planning-permission-type": "full planning permission", "site-address": "Wheatley Wells Inn, 106-112 Wheatley Road, Wheatley, Halifax", "planning-permission-date": "2013-06-28", "start-date": "2017-12-20", "notes": "13/00499/CON - Conversion of former public house to form 5 dwellings. Granted 28.06.13", "minimum-net-dwellings": "5", "deliverable": "yes", "organisation": "local-authority-eng:CLD", "point": "POINT(-1.885914 53.735846)", "site": "BLR018", "name": "BLR018", "hectares": "0.02", "maximum-net-dwellings": "5", "planning-permission-status": "permissioned", "ownership-status": "not owned by a public authority", "slug": "/brownfield-land/local-authority-eng/CLD/BLR018", "entry-date": "2020-05-31", "site-plan-url": "https://maps.calderdale.gov.uk/map/Aurora.svc/run?script=%5CAurora%5CScripts%5CBrownfield%20Land%20Register%202020.AuroraScript%24&nocache=b3a8172e-c9", "planning-permission-history": "https://portal.calderdale.gov.uk/online-applications/search.do?action=advanced"}}