{"type": "Feature", "geometry": {"type": "Point", "coordinates": [-0.071978, 51.461095]}, "properties": {"hectares": "0.08", "maximum-net-dwellings": "0", "planning-permission-type": "full planning permission", "organisation": "local-authority-eng:SWK", "notes": "Prior approval notification for conversion of the existing basement office (B1 use) to a studio flat (C3 use).", "site": "16-AP-0929", "deliverable": "yes", "name": "16-AP-0929", "site-address": "Basement, Crown House 41-43 East Dulwich Road SE22 9AN", "start-date": "2017-12-20", "minimum-net-dwellings": "0", "planning-permission-status": "permissioned", "point": "POINT(-0.071978 51.461095)", "planning-permission-date": "2016-05-05", "slug": "/brownfield-land/local-authority-eng/SWK/16-AP-0929", "entry-date": "2017-12-20"}}