{"type": "Feature", "geometry": {"type": "Point", "coordinates": [1.475413, 52.619065]}, "properties": {"notes": "Full permission (20150188) for redevelopment and provision of 10 dwellings", "name": "B/STR/001", "planning-permission-history": "https://secure.broadland.gov.uk/Northgate/PlanningExplorer/GeneralSearch.aspx", "site-plan-url": "https://www.arcgis.com/apps/webappviewer/index.html?id=64110f1c89b340938fdc601e639d063e&query=BrownfieldSites_8038_0%2CAlt_Ref%2C20150188", "hectares": "1.2", "organisation": "local-authority-eng:BRO", "maximum-net-dwellings": "10", "deliverable": "yes", "start-date": "2017-12-31", "point": "POINT(1.475413 52.619065)", "minimum-net-dwellings": "10", "ownership-status": "not owned by a public authority", "site-address": "Former Hamper People, 31 Norwich Rd, Strumpshaw", "planning-permission-status": "permissioned", "planning-permission-date": "2015-09-18", "site": "B/STR/001", "planning-permission-type": "full planning permission", "slug": "/brownfield-land/local-authority-eng/BRO/B-STR-001", "entity": 478027, "entry-date": "2020-10-13"}}