{"type": "Feature", "geometry": {"type": "Point", "coordinates": [-0.259204, 52.563163]}, "properties": {"name": "PDL/0010/17", "planning-permission-history": "https://planpa.peterborough.gov.uk/online-applications/applicationDetails.do?activeTab=relatedCases&keyVal=P0N92GML0CW00", "hectares": "24.6", "site-plan-url": "https://planpa.peterborough.gov.uk/online-applications/applicationDetails.do?activeTab=map&keyVal=P0N92GML0CW00", "organisation": "local-authority-eng:PTE", "deliverable": "yes", "minimum-net-dwellings": "70", "start-date": "2017-12-19", "maximum-net-dwellings": "70", "point": "POINT(-0.259204 52.563163)", "site-address": "British Sugar Oundle Road Woodston Peterborough PE2 9AY", "planning-permission-status": "Not permissioned", "site": "PDL/0010/17", "slug": "/brownfield-land/local-authority-eng/PTE/PDL-0010-17", "entry-date": "2017-12-19"}}