{"type": "Feature", "geometry": {"type": "Point", "coordinates": [-5.702, 54.353]}, "properties": {"point": "POINT(-5.702 54.353)", "planning-permission-status": "permissioned", "planning-permission-type": "full planning permission", "organisation": "local-authority-eng:WOI", "hectares": "0.04", "start-date": "2017-12-20", "site": "SHLAACAN023", "site-address": "26 and 28 Monument Road, Woking GU21 5LT", "notes": "PLAN/2014/0762 permitted subject to legal agreement. Demolition of existing properties and erection of a 3 storey mixed use scheme comprising ground floor commercial (A1, A2 or A3) and parking with 2 floors of residential above (3 x 2 beds and 5 x 1 beds flats) (amendment to PLAN/2013/0574 to allow the ground floor to be used for A3 use).", "planning-permission-date": "2015-04-28", "deliverable": "yes", "site-plan-url": "http://www.woking2027.info/ldfregisters", "minimum-net-dwellings": "8", "name": "SHLAACAN023", "planning-permission-history": "https://www.woking.gov.uk/planning/publicaccess", "maximum-net-dwellings": "8", "ownership-status": "not owned by a public authority", "slug": "/brownfield-land/local-authority-eng/WOI/SHLAACAN023", "entry-date": "2017-12-20"}}