{"type": "Feature", "geometry": {"type": "Point", "coordinates": [-1.253918, 52.377568]}, "properties": {"name": "S14/003EXP", "planning-permission-history": "https://planning.agileapplications.co.uk/rugby/search-applications/", "maximum-net-dwellings": "90", "hectares": "0.8", "site-address": "Cattle Market, Craven Road, Rugby", "planning-permission-status": "not permissioned", "deliverable": "yes", "start-date": "2017-12-15", "planning-permission-type": "other", "point": "POINT(-1.253918 52.377568)", "site": "S14/003EXP", "organisation": "local-authority-eng:RUG", "ownership-status": "not owned by a public authority", "minimum-net-dwellings": "90", "notes": "Development comprising 90 residential apartments (66x2bed & 24x1bed) together with associated access, parking and landscaping - revision to details approved under planning permission reference R10/1273 to increase height of buildings from three to four storeys and number of apartments from 69 to 90.", "slug": "/brownfield-land/local-authority-eng/RUG/S14-003EXP", "entity": 491791, "entry-date": "2017-12-20", "end-date": "2020-12-03"}}