{"type": "Feature", "geometry": {"type": "Point", "coordinates": [-1.785588, 51.562884]}, "properties": {"organisation": "local-authority-eng:SWD", "start-date": "2017-12-31", "point": "POINT(-1.785588 51.562884)", "ownership-status": "not owned by a public authority", "planning-permission-status": "not permissioned", "deliverable": "yes", "site": "s0111", "minimum-net-dwellings": "0", "notes": "s0111 - S/OUT/14/2059 | Application withdrawn 15/05/2018", "site-address": "Thornhill Industrial Estate", "hectares": "5.09", "maximum-net-dwellings": "0", "name": "s0111", "planning-permission-history": "https://pa1.swindon.gov.uk/publicaccess/", "site-plan-url": "https://pa1.swindon.gov.uk/publicaccess/", "slug": "/brownfield-land/local-authority-eng/SWD/s0111", "entry-date": "2020-12-23"}}