{"type": "Feature", "geometry": {"type": "Point", "coordinates": [-1.699012, 52.188248]}, "properties": {"minimum-net-dwellings": "12", "hectares": "0.48", "site-address": "61 Shipston Road, Stratford-upon-Avon, CV37 7LN", "point": "POINT(-1.699012 52.188248)", "start-date": "2018-12-05", "planning-permission-date": "2018-01-12", "planning-permission-history": "https://apps.stratford.gov.uk/eplanning/PropDetail.aspx?ref=0069YNPMDT000", "planning-permission-status": "permissioned", "organisation": "local-authority-eng:STR", "notes": "Demolition of all existing flats and garage buildings and construction of 11 dwellinghouses, garage building, bin store building, new vehicular access and all other associated works", "name": "SDC00023", "maximum-net-dwellings": "12", "planning-permission-type": "full planning permission", "site": "SDC00023", "site-plan-url": "https://apps.stratford.gov.uk/eplanning/Map.aspx", "ownership-status": "not owned by a public authority", "deliverable": "yes", "slug": "/brownfield-land/local-authority-eng/STR/SDC00023", "entity": 495032, "entry-date": "2020-01-13"}}