{"type": "Feature", "geometry": {"type": "Point", "coordinates": [-0.718551, 51.52542]}, "properties": {"maximum-net-dwellings": "400", "planning-permission-history": "http://publicaccess.rbwm.gov.uk/online-applications/", "start-date": "2018-01-19", "minimum-net-dwellings": "400", "ownership-status": "owned by a public authority", "planning-permission-status": "REC", "hectares": "3", "name": "H00080", "site-address": "St Cloud's Gate", "organisation": "local-authority-eng:WNM", "site": "H00080", "point": "POINT(-0.718551 51.52542)", "slug": "/brownfield-land/local-authority-eng/WNM/H00080", "entity": 499208, "entry-date": "2018-01-19"}}