{"type": "Feature", "geometry": {"type": "Point", "coordinates": [-2.06897, 52.556419]}, "properties": {"point": "POINT(-2.06897 52.556419)", "name": "36060", "hectares": "0.0477", "site": "36060", "start-date": "2013-01-01", "planning-permission-status": "permissioned", "site-address": "Land Adjacent To 38 King Street Bradley Wolverhampton West Midlands WV14 8PQ", "organisation": "local-authority-eng:WLV", "slug": "/brownfield-land/local-authority-eng/WLV/36060", "entity": 498558, "entry-date": "2018-05-22"}}