{"type": "Feature", "geometry": {"type": "Point", "coordinates": [0.263865, 51.405405]}, "properties": {"resource": "4ed9e9f2ede3ebeef0275629e257fbe0d9b5efae93cce82f70db31c573e81ea7", "site-address": "Gills Farm, Gills Road, South Darenth", "deliverable": "yes", "end-date": "", "entry-date": "2018-12-01", "hazardous-substances": "", "hectares": "0.92175833", "maximum-net-dwellings": "16", "minimum-net-dwellings": "16", "notes": "Some agricultural use remains on site. ST2-63 Support retention of the existing tourist accommodation and commercial workshops as part of the wider scheme. If a wholly residential scheme is proposed, as part of the site is in existing employment and tourist accommodation use, it would need to be demonstrated that the use is no longer suitable, feasible or viable and that there is no reasonable prospect of the continued business use in the longer term.", "organisation": "local-authority-eng:SEV", "ownership-status": "not owned by a public authority", "planning-permission-date": "", "planning-permission-history": "", "planning-permission-status": "Not Permissioned", "planning-permission-type": "", "point": "POINT(0.263865 51.405405)", "site": "BFR135", "site-plan-url": "https://maps.sevenoaks.gov.uk/brownfield_register/", "start-date": "2018-12-01", "id": "4ed9e9f2ede3ebeef0275629e257fbe0d9b5efae93cce82f70db31c573e81ea7:17289"}}