{"type": "Feature", "geometry": {"type": "Point", "coordinates": [-4.707286, 53.094346]}, "properties": {"resource": "5a68fbb4a8f0451e5d2f0a04923f5d60634a6df031c7610819ea0b3294905d57", "site-address": "Land at Cats, Leys Hill Road, Walford, Ross-on-Wye, Herefordshire, HR9 5QU", "deliverable": "yes", "end-date": "", "entry-date": "2017-12-07", "hazardous-substances": "", "hectares": "1.46", "maximum-net-dwellings": "", "minimum-net-dwellings": "", "notes": "The demolition of all existing structures on the site, the permanent~cessation of existing uses and the erection of five detached dwelling~houses with associated garaging.", "organisation": "local-authority-eng:HEF", "ownership-status": "not owned by a public authority", "planning-permission-date": "2017-01-05", "planning-permission-history": "", "planning-permission-status": "permissioned", "planning-permission-type": "full planning permission", "point": "POINT(-4.707286 53.094346)", "site": "161689", "site-plan-url": "https://www.herefordshire.gov.uk/info/200142/planning_services/planning_application_search/details?id=161689", "start-date": "2017-12-07", "id": "5a68fbb4a8f0451e5d2f0a04923f5d60634a6df031c7610819ea0b3294905d57:28481"}}