{"type": "Feature", "geometry": {"type": "Point", "coordinates": [-0.19447, 54.08043]}, "properties": {"organisation": "local-authority-eng:ERY", "point": "POINT(-0.19447 54.08043)", "hectares": "0.07", "site-plan-url": "https://newplanningaccess.eastriding.gov.uk/newplanningaccess/PLAN/15/01663/PLF", "site-address": "The Londesborough Hotel West Street, Bridlington", "planning-permission-status": "not permissioned", "ownership-status": "not owned by a public authority", "minimum-net-dwellings": "11", "name": "BF/137", "notes": "15/01663/PLF lapsed", "site": "BF/137", "maximum-net-dwellings": "11", "start-date": "2016-07-12", "slug": "/brownfield-land/local-authority-eng/ERY/BF-137", "entry-date": "2021-03-31"}}