{"type": "Feature", "geometry": {"type": "Point", "coordinates": [0.364256, 51.443437]}, "properties": {"site-plan-url": "https://plan.gravesham.gov.uk/online-applications/applicationDetails.do?activeTab=map&keyVal=LUV5EIHP05800", "name": "BLR13 (Expired 20110996)", "planning-permission-status": "not permissioned", "site": "BLR13 (Expired 20110996)", "notes": "Expired planning permission forms part of the Borough's Land Supply. Conversion of building into 6 no, one bedroom self contained flats involving erection of 2/3 storey infill extension, construction of mezzanine floors and external alterations and provision of 3 no. car parking spaces. https://plan.gravesham.gov.uk/online-applications/applicationDetails.do?activeTab=constraints&keyVal=LUV5EIHP05800", "maximum-net-dwellings": "6", "hectares": "0.03", "start-date": "2017-12-20", "ownership-status": "not owned by a public authority", "organisation": "local-authority-eng:GRA", "site-address": "24 Stuart Road (previously Known As 20 Stuart Road) Gravesend", "planning-permission-history": "https://plan.gravesham.gov.uk/online-applications/applicationDetails.do?activeTab=relatedCases&keyVal=LUV5EIHP05800", "minimum-net-dwellings": "6", "point": "POINT(0.364256 51.443437)", "slug": "/brownfield-land/local-authority-eng/GRA/BLR13--Expired-20110996-", "entry-date": "2017-12-20"}}