{"type": "Feature", "geometry": {"type": "Point", "coordinates": [-2.40394, 53.548195]}, "properties": {"hectares": "0.86", "site-plan-url": "http://mappinggm.org.uk/gmodin/", "site": "137-BOL", "name": "137-BOL", "planning-permission-history": "https://www.planningpa.bolton.gov.uk/online-applications-17/search.do?action=simple&searchType=Application", "maximum-net-dwellings": "23", "minimum-net-dwellings": "23", "organisation": "local-authority-eng:BOL", "start-date": "2017-12-31", "planning-permission-status": "not permissioned", "notes": "Allocated site for 23 dwellings. http://mappinggm.org.uk/gmodin/", "ownership-status": "not owned by a public authority", "site-address": "Harrowby Mill", "point": "POINT(-2.40394 53.548195)", "slug": "/brownfield-land/local-authority-eng/BOL/137-BOL", "entry-date": "2017-12-31"}}