{"type": "Feature", "geometry": {"type": "Point", "coordinates": [-1.159488, 52.942071]}, "properties": {"resource": "6a1f3cff0fa11f9ad2b2cf4bee3e55b1613798d4b96925dd261ee03de101dd25", "name": "'9/2028", "site-address": "Meadows Police Station (Regeneration Site), Meadows Way", "deliverable": "yes", "end-date": "", "entry-date": "2016-06-24", "hazardous-substances": "", "hectares": "0.17661", "maximum-net-dwellings": "22", "minimum-net-dwellings": "22", "notes": "", "organisation": "local-authority-eng:NGM", "ownership-status": "owned by a public authority", "planning-permission-date": "", "planning-permission-history": "", "planning-permission-status": "not permissioned", "planning-permission-type": "", "point": "POINT(-1.159488 52.942071)", "site": "'9/2028", "site-plan-url": "http://maps.nottinghamcity.gov.uk/insightmapping/?l=0.21,9.63&xmin=443521&xmax=468921&ymin=331072&ymax=348991", "start-date": "2016-06-24", "slug": "/brownfield-land/local-authority-eng/NGM/-9-2028", "href": "local-authority-eng/NGM/-9-2028"}}