{"type": "Feature", "geometry": {"type": "Point", "coordinates": [0.204305, 51.581915]}, "properties": {"resource": "7c06055695b7a313a29d482c079020ad19a5f85b5cda61c3f2a2796712fcb2ba", "site-address": "", "deliverable": "", "end-date": "", "entry-date": "2019-12-05", "hazardous-substances": "", "hectares": "0.02", "maximum-net-dwellings": "", "minimum-net-dwellings": "", "notes": "", "organisation": "local-authority-eng:HAV", "ownership-status": "", "planning-permission-date": "", "planning-permission-history": "", "planning-permission-status": "", "planning-permission-type": "", "point": "POINT(0.204305 51.581915)", "site": "SQH5/19", "site-plan-url": "https://www.havering.gov.uk/downloads/download/743/brownfield_land_register_and_site_maps", "start-date": "2019-12-05", "slug": "local-authority-eng/HAV/SQH5-19"}}