{"type": "Feature", "geometry": {"type": "Point", "coordinates": [1.178034, 51.352415]}, "properties": {"organisation": "local-authority-eng:CAT", "start-date": "2019-11-01", "maximum-net-dwellings": "2", "site-address": "Highstead Riding School, Highstead, Chislet, CT3 4LX", "site-plan-url": "https://mapping.canterbury.gov.uk/webapps/Brownfield_Sites/?center=621384,166276,27700&scale=1000", "point": "POINT(1.178034 51.352415)", "minimum-net-dwellings": "2", "site": "BR-109", "notes": "Proposed erection of 2no. two-storey detached dwellings with associated parking following demolition of former riding school and ancillary buildings.", "planning-permission-status": "permissioned", "deliverable": "yes", "planning-permission-type": "full planning permission", "hectares": "0.4", "name": "BR-109", "planning-permission-date": "2019-06-18", "slug": "/brownfield-land/local-authority-eng/CAT/BR-109", "entity": 478831, "entry-date": "2020-12-10"}}