{"type": "Feature", "geometry": {"type": "Point", "coordinates": [-2.258859, 53.49277]}, "properties": {"maximum-net-dwellings": "3", "start-date": "2017-12-01", "hectares": "0.32", "notes": "Planning permission16/69286/FUL. Construction status not started as of 31 March 2017. Planning permission details as of 27 October 2017.. Gross addition of 39 apartments, loss of 35 apartments and 1 house.", "planning-permission-type": "full planning permission", "site-address": "17 Alexander Gardens, Salford, M7 1RY", "planning-permission-status": "permissioned", "minimum-net-dwellings": "3", "point": "POINT(-2.258859 53.49277)", "planning-permission-date": "2017-04-24", "ownership-status": "not owned by a public authority", "deliverable": "yes", "organisation": "local-authority-eng:SLF", "name": "S/BRO/091", "site-plan-url": "https://map.salford.gov.uk/maps/?lyrs=brownfield_land_register_2017#19/53.492770/-2.258859", "site": "S/BRO/091", "slug": "/brownfield-land/local-authority-eng/SLF/S-BRO-091", "entry-date": "2017-12-01"}}