{"type": "Feature", "geometry": {"type": "Point", "coordinates": [-2.021442, 52.487332]}, "properties": {"resource": "ecfd6677b9cd844ac035e4bd72b63d9242c8865eeaa93dc6ab305c87884af9be", "site-address": "Yard adjacent Waterside Court, Titford Road, Oldbury, B69 4QW", "deliverable": "", "end-date": "", "entry-date": "2016-06-30", "hazardous-substances": "", "hectares": "0.04", "maximum-net-dwellings": "6", "minimum-net-dwellings": "6", "notes": "", "organisation": "local-authority-eng:SAW", "ownership-status": "", "planning-permission-date": "2016-01-07", "planning-permission-history": "", "planning-permission-status": "", "planning-permission-type": "outline planning permission", "point": "POINT(-2.021442 52.487332)", "site": "3260", "site-plan-url": "http://www.sandwell.gov.uk/info/200317/planning_policy/3809/sandwell_brownfield_register", "start-date": "2016-06-30", "id": "ecfd6677b9cd844ac035e4bd72b63d9242c8865eeaa93dc6ab305c87884af9be:63310"}}