{"type": "Feature", "geometry": {"type": "Point", "coordinates": [-2.000928, 52.469867]}, "properties": {"resource": "2780e7d821ffe31314200f79af4c177f43572bed706e65a7f9c5fe985d6a62cb", "site-address": "Site Of Former Lockup Garages Adjacent 37 And 39 Cornwall Avenue Oldbury", "deliverable": "", "end-date": "", "entry-date": "2020-01-15", "hazardous-substances": "", "hectares": "0.10", "maximum-net-dwellings": "5", "minimum-net-dwellings": "5", "notes": "DC/19/62729", "organisation": "local-authority-eng:SAW", "ownership-status": "", "planning-permission-date": "2019-04-12", "planning-permission-history": "", "planning-permission-status": "", "planning-permission-type": "full planning permission", "point": "POINT(-2.000928 52.469867)", "site": "6166", "site-plan-url": "http://www.sandwell.gov.uk/info/200317/planning_policy/3809/sandwell_brownfield_register", "start-date": "2020-01-15", "id": "2780e7d821ffe31314200f79af4c177f43572bed706e65a7f9c5fe985d6a62cb:45139"}}