{"type": "Feature", "geometry": {"type": "Point", "coordinates": [-0.189556, 51.604443]}, "properties": {"resource": "883ee1d7aff787a6a633013ceff55b966d8e55f035266bf8e1504e329068fb06", "site-address": "105A Ballards Lane, London, N3 1XY", "deliverable": "", "end-date": "", "entry-date": "2019-11-26", "hazardous-substances": "", "hectares": "0.107", "maximum-net-dwellings": "10", "minimum-net-dwellings": "10", "notes": "", "organisation": "local-authority-eng:BNE", "ownership-status": "", "planning-permission-date": "", "planning-permission-history": "", "planning-permission-status": "permissioned", "planning-permission-type": "", "point": "POINT(-0.189556 51.604443)", "site": "17/5180/FUL", "site-plan-url": "https://data.london.gov.uk/dataset/brownfield-land-register", "start-date": "2019-11-26", "id": "17-5180-FUL"}}