{"type": "Feature", "geometry": {"type": "Point", "coordinates": [0.063042, 51.434341]}, "properties": {"resource": "fae859c1bd1d64c533cc5b024ac6ed541370f89cb52d84e97c7ac6523039c3a2", "site-address": "?260-262 Green Lane Mottingham?", "deliverable": "yes", "end-date": "", "entry-date": "2018-12-17", "hazardous-substances": "", "hectares": "0.07", "maximum-net-dwellings": "10", "minimum-net-dwellings": "10", "notes": "Started. ?16/0273/F. Demolition of existing houses and redevelopment to provide a 4-storey building of 12 residential flats (5 x 1-brm, 4 x 2-brm, 3 x 3-brm) with associated amenity space, landscaping, refuse and recycling storage, car and cycle parking, and adjustment of the vehicular access from Green Lane.?", "organisation": "local-authority-eng:GRE", "ownership-status": "", "planning-permission-date": "2017-02-24", "planning-permission-history": "", "planning-permission-status": "permissioned", "planning-permission-type": "full planning permission", "point": "POINT(0.063042 51.434341)", "site": "RBG-70", "site-plan-url": "", "start-date": "2017-12-22", "id": "fae859c1bd1d64c533cc5b024ac6ed541370f89cb52d84e97c7ac6523039c3a2:65877"}}