{"type": "Feature", "geometry": {"type": "Point", "coordinates": [-2.253367, 52.217411]}, "properties": {"name": "MHDCBLR/0009", "maximum-net-dwellings": "9", "site-plan-url": "https://www.malvernhills.gov.uk/documents/283188/8904555/MHDCBLR0009+Land+at+Braithwaite+Yard%2C+Main+Road%2C+Hallow.pdf/f6b32bbd-b1be-4b03-05ca-5b7e2a09663a", "planning-permission-type": "full planning permission", "deliverable": "yes", "ownership-status": "not owned by a public authority", "point": "POINT(-2.253367 52.217411)", "site": "MHDCBLR/0009", "planning-permission-history": "https://plan.malvernhills.gov.uk/plandisp.aspx?recno=71498", "planning-permission-date": "2016-12-21", "site-address": "Land at Braithwaite\u2019s Yard, Main Road, Hallow", "hectares": "0.67", "notes": "Development of 9 dwellings. Development of 9 dwellings. https://plan.malvernhills.gov.uk/plandisp.aspx?recno=71498", "minimum-net-dwellings": "9", "start-date": "2017-12-28", "planning-permission-status": "permissioned", "organisation": "local-authority-eng:MAV", "slug": "/brownfield-land/local-authority-eng/MAV/MHDCBLR-0009", "entry-date": "2017-12-28"}}