{"type": "Feature", "geometry": {"type": "Point", "coordinates": [-2.372585, 53.299953]}, "properties": {"resource": "b6ed0267c9db2903f719643ff3e153fbdf65894e33706a8a52280ce453e53ec3", "site-address": "Elsterne, Toft Road, Knutsford", "deliverable": "yes", "end-date": "", "entry-date": "2017-10-19", "hazardous-substances": "", "hectares": "0.07", "maximum-net-dwellings": "5", "minimum-net-dwellings": "5", "notes": "14/2081M 16/5147M - Variation of Condition 3 (plans) on application 14/2081M - Alterations, sub-division, part re-construction and extensions of existing semi-detached dwelling to create 5 apartments, demolition of existing garage - Approved 21 December 2016 17/1619M - Removal of condition 8 on application 16/5147M - Alterations, Sub-Division, part re-construction and extensions of existing semi-detached dwelling to create 5 apartments, demolition of existing garage. This application was registered on the 29 March 2017.. Alterations, sub-division, part re-construction and extensions of existing semi-detached dwelling to create 5 apartments", "organisation": "local-authority-eng:CHE", "ownership-status": "not owned by a public authority", "planning-permission-date": "2014-06-24", "planning-permission-history": "http://planning.cheshireeast.gov.uk/applicationdetails.aspx?pr=14/2081M&query=b70c22cb-64c1-47e2-b7ec-f5d5aacfe07b", "planning-permission-status": "permissioned", "planning-permission-type": "full planning permission", "point": "POINT(-2.372585 53.299953)", "site": "4927", "site-plan-url": "http://cheshireeast.gov.uk/planning/spatial_planning/brownfield-register.aspx", "start-date": "2017-10-19", "id": "4927"}}