{"type": "Feature", "geometry": {"type": "Point", "coordinates": [-2.054842, 53.483016]}, "properties": {"notes": "Planning permission reference 14/00821/FUL. Construction has not commenced. Former police station in the centre of Stalybridge town centre.. Gross addition of 18 apartments.", "maximum-net-dwellings": "18", "minimum-net-dwellings": "18", "planning-permission-history": "https://public.tameside.gov.uk/plan/f422planapp.asp", "planning-permission-status": "permissioned", "organisation": "local-authority-eng:TAM", "ownership-status": "not owned by a public authority", "point": "POINT(-2.054842 53.483016)", "deliverable": "yes", "planning-permission-type": "full planning permission", "planning-permission-date": "2014-12-12", "start-date": "2017-12-04", "hectares": "0.08", "site-plan-url": "https://www.tameside.gov.uk/planning/brownfieldregister/h-dukstb-036.pdf", "name": "H-DUKSTB-036", "site": "H-DUKSTB-036", "site-address": "Former police station site, Corporation Street, Stalybridge, SK15 3AA", "slug": "/brownfield-land/local-authority-eng/TAM/H-DUKSTB-036", "entry-date": "2017-12-04"}}