{"type": "Feature", "geometry": {"type": "Point", "coordinates": [-0.524563, 51.908063]}, "properties": {"ownership-status": "not owned by a public authority", "start-date": "2016-07-18", "maximum-net-dwellings": "20", "hectares": "0.75", "planning-permission-status": "Not Permissioned", "site-address": "Dell Mount, Bedford Road, Houghton Regis", "organisation": "local-authority-eng:CBF", "notes": "Redevelopment to provide approx. 20-25 dwellings", "name": "BR1", "minimum-net-dwellings": "10", "point": "POINT(-0.524563 51.908063)", "site": "BR1", "slug": "/brownfield-land/local-authority-eng/CBF/BR1", "entry-date": "2019-10-11"}}