{"type": "Feature", "geometry": {"type": "Point", "coordinates": [-2.221496, 52.190562]}, "properties": {"minimum-net-dwellings": "9", "name": "P18D0310", "deliverable": "yes", "ownership-status": "not owned by a public authority", "organisation": "local-authority-eng:WOC", "planning-permission-type": "permission in principle", "planning-permission-date": "2017-08-17", "site": "P18D0310", "planning-permission-history": "https://www.worcester.gov.uk/planning-application-search", "point": "POINT(-2.221496 52.190562)", "planning-permission-status": "permissioned", "hectares": "0.16", "maximum-net-dwellings": "9", "site-address": "Former Worcester Fire Station", "slug": "/brownfield-land/local-authority-eng/WOC/P18D0310", "entity": 501311, "entry-date": "2019-12-17", "start-date": "2018-12-20", "site-plan-url": "https://www.worcester.gov.uk/?option=com_fileman&view=file&routed=1&name=Former%20Fire%20Station.pdf&folder=PDF%20Documents%2FPlanning%2Fplanning_policy%2Fbrownfieldsites&container=fileman-files"}}