{"type": "Feature", "geometry": {"type": "Point", "coordinates": [-1.173685, 53.489164]}, "properties": {"start-date": "2017-12-31", "site": "646", "hectares": "17.6", "planning-permission-type": "outline planning permission", "organisation": "local-authority-eng:DNC", "site-plan-url": "http://dmbc.maps.arcgis.com/apps/webappviewer/index.html?id=2ac0d9b40cc34eb2b05e80a122b7a6e2", "deliverable": "yes", "minimum-net-dwellings": "375", "point": "POINT(-1.173685 53.489164)", "notes": "18/02100/OUTM. Hybrid planning application comprising: Part A: Full planning application for creation of temporary access and enabling earthworks to create development platform. Part B: Outline planning application for residential development of up to 375 houses and public house with associated access, landscaping and public open space. Approval sought for access. All other matters reserved. DRAFT. http://www.doncaster.gov.uk/services/planning/planning-applications-online-public-access", "planning-permission-status": "pending decision", "planning-permission-history": "http://www.doncaster.gov.uk/services/planning/planning-applications-online-public-access", "ownership-status": "not owned by a public authority", "maximum-net-dwellings": "375", "site-address": "Site At Former Yorkshire Main Colliery , Broomhouse Lane, Balby", "name": "646", "planning-permission-date": "2015-12-16", "slug": "/brownfield-land/local-authority-eng/DNC/646", "entry-date": "2018-12-31"}}