{"type": "Feature", "geometry": {"type": "Point", "coordinates": [-0.126934, 50.83479]}, "properties": {"resource": "705ceb15dcf386c1df3b529f229bea20a994c75e1b8ddc1a76c171a15520586b", "name": "SHLAA6081", "site-address": "Above Co-operative 56-57 Lewes Road Brighton", "deliverable": "", "end-date": "", "entry-date": "2017-12-18", "hazardous-substances": "", "hectares": "0.05", "maximum-net-dwellings": "6", "minimum-net-dwellings": "6", "notes": "Single storey building could accommodate some residential above", "organisation": "local-authority-eng:BNH", "ownership-status": "not owned by a public authority", "planning-permission-date": "", "planning-permission-history": "", "planning-permission-status": "not permissioned", "planning-permission-type": "", "point": "POINT(-0.126934 50.83479)", "site": "SHLAA6081", "site-plan-url": "https://www.brighton-hove.gov.uk/sites/brighton-hove.gov.uk/files/SHLAA6081%20Above%20Co-operative%2056-57%20Lewes%20Road%20Brighton.pdf", "start-date": "2017-10-03", "slug": "/brownfield-land/local-authority-eng/BNH/SHLAA6081"}}