{"type": "Feature", "geometry": {"type": "Point", "coordinates": [-0.336462, 53.676999]}, "properties": {"site-address": "Former Mellors Coaches Depot, Goxhill", "start-date": "2018-12-18", "hectares": "0.25", "notes": "Part of the site is within the development limit of Goxhill", "name": "RM14C", "site-plan-url": "https://map.northlincs.gov.uk/mycouncil.aspx?mapsource=nlincs_mapsources/AllMaps&StartEasting=509982.744550759&StartNorthing=421344.16994787&StartZoom=1000&Layers=Brownfield_Register", "organisation": "local-authority-eng:NLN", "point": "POINT(-0.336462 53.676999)", "ownership-status": "not owned by a public authority", "planning-permission-status": "Not permissioned", "minimum-net-dwellings": "11", "site": "RM14C", "maximum-net-dwellings": "11", "slug": "/brownfield-land/local-authority-eng/NLN/RM14C", "entry-date": "2019-12-17"}}