{"type": "Feature", "geometry": {"type": "Point", "coordinates": [-0.7, 51.52]}, "properties": {"planning-permission-type": "full planning permission", "planning-permission-status": "permissioned", "start-date": "2018-12-10", "minimum-net-dwellings": "10", "hectares": "0.46", "notes": "Any future development proposals should consider that the site is within the Green Belt. Green Belt policies will apply to any future development proposals.. Replacement nursery and 10 no. 2 bedroom apartments.", "point": "POINT(-0.7 51.52)", "name": "SB0454", "maximum-net-dwellings": "10", "site-plan-url": "http://www.southbucks.gov.uk/planning/brownfieldregister", "planning-permission-date": "2018-03-20", "site-address": "Silchester Manor Day Nursery", "ownership-status": "not owned by a public authority", "site": "SB0454", "organisation": "local-authority-eng:SBU", "slug": "/brownfield-land/local-authority-eng/SBU/SB0454", "entity": 492345, "entry-date": "2018-12-10"}}