{"type": "Feature", "geometry": {"type": "Point", "coordinates": [-0.339327, 51.580321]}, "properties": {"resource": "53ff7410d03797e7747d4df128ca450bbe808f4eacc79d0e2d18623ab4a99554", "site-address": "College Road, 104, Vyman House, Harrow", "deliverable": "yes", "end-date": "", "entry-date": "2017-11-28", "hazardous-substances": "", "hectares": "0.053210233099999997", "maximum-net-dwellings": "15", "minimum-net-dwellings": "15", "notes": "Conversion of offices (Class B1a) to 15 self-contained flats (Class C3) (PRIOR APPROVAL)", "organisation": "local-authority-eng:HRW", "ownership-status": "not owned by a public authority", "planning-permission-date": "2015-09-29", "planning-permission-history": "", "planning-permission-status": "permissioned", "planning-permission-type": "full planning permission", "point": "POINT(-0.339327 51.580321)", "site": "P/3723/15", "site-plan-url": "https://maps.london.gov.uk/brownfield-site-register", "start-date": "2017-11-28", "id": "P-3723-15"}}