{"type": "Feature", "geometry": {"type": "Point", "coordinates": [-1.019187, 53.567394]}, "properties": {"site-address": "Land At Former The Warrenne Youth Centre, Broadway, Dunscroft, Doncaster, DN7 4HX", "name": "1068", "planning-permission-type": "full planning permission", "site-plan-url": "http://dmbc.maps.arcgis.com/apps/webappviewer/index.html?id=2ac0d9b40cc34eb2b05e80a122b7a6e2", "planning-permission-date": "2017-11-20", "ownership-status": "not owned by a public authority", "deliverable": "yes", "hectares": "0.322", "planning-permission-history": "http://www.doncaster.gov.uk/services/planning/planning-applications-online-public-access", "organisation": "local-authority-eng:DNC", "point": "POINT(-1.019187 53.567394)", "start-date": "2018-12-31", "planning-permission-status": "permissioned", "minimum-net-dwellings": "14", "maximum-net-dwellings": "14", "notes": "17/00879/FULM. Erection of 8 dwellings and 6 1-bed flats, parking and new access following demolition of existing building.. http://www.doncaster.gov.uk/services/planning/planning-applications-online-public-access", "site": "1068", "slug": "/brownfield-land/local-authority-eng/DNC/1068", "entity": 481220, "entry-date": "2018-12-31"}}