{"type": "Feature", "geometry": {"type": "Point", "coordinates": [-1.786605, 53.794315]}, "properties": {"minimum-net-dwellings": "100", "site": "SW/120", "planning-permission-history": "https://planning.bradford.gov.uk/online-applications/applicationDetails.do?keyVal=7704795REM&activeTab=summary|https://planning.bradford.gov.uk/online-applications/applicationDetails.do?keyVal=9401824FUL&activeTab=summary|https://planning.bradford.gov.uk/online-applications/applicationDetails.do?keyVal=M3P8BUDH0B300&activeTab=summary|https://planning.bradford.gov.uk/online-applications/applicationDetails.do?keyVal=O70MIPDH02F00&activeTab=summary|https://planning.bradford.gov.uk/online-applications/applicationDetails.do?keyVal=0203244FUL&activeTab=summary|https://planning.bradford.gov.uk/online-applications/applicationDetails.do?keyVal=8706034COU&activeTab=summary|https://planning.bradford.gov.uk/online-applications/applicationDetails.do?keyVal=8604128EXT&activeTab=summary|https://planning.bradford.gov.uk/online-applications/applicationDetails.do?keyVal=8907753OUT&activeTab=summary|https://planning.bradford.gov.uk/online-applications/applicationDetails.do?keyVal=LLOZNCDH0GF00&activeTab=summary|https://planning.bradford.gov.uk/online-applications/applicationDetails.do?keyVal=LW3KRODH03N00&activeTab=summary|https://planning.bradford.gov.uk/online-applications/applicationDetails.do?keyVal=LMTURXDH0B300&activeTab=summary|https://planning.bradford.gov.uk/online-applications/applicationDetails.do?keyVal=MTMFNTDHLT000&activeTab=summary|https://planning.bradford.gov.uk/online-applications/applicationDetails.do?keyVal=PA00YVDH0IL00&activeTab=summary|https://planning.bradford.gov.uk/online-applications/applicationDetails.do?keyVal=0003396FUL&activeTab=summary|https://planning.bradford.gov.uk/online-applications/applicationDetails.do?keyVal=0202000FUL&activeTab=summary|https://planning.bradford.gov.uk/online-applications/applicationDetails.do?keyVal=7400721FUL&activeTab=summary|https://planning.bradford.gov.uk/online-applications/applicationDetails.do?keyVal=7704794OUT&activeTab=summary|https://planning.bradford.gov.uk/online-applications/applicationDetails.do?keyVal=7704837FUL&activeTab=summary|https://planning.bradford.gov.uk/online-applications/applicationDetails.do?keyVal=8093628OUT&activeTab=summary|https://planning.bradford.gov.uk/online-applications/applicationDetails.do?keyVal=9702900FUL&activeTab=summary|https://planning.bradford.gov.uk/online-applications/applicationDetails.do?keyVal=KJBSYJDH02100&activeTab=summary|https://planning.bradford.gov.uk/online-applications/applicationDetails.do?keyVal=LYPRT3DH0GF00&activeTab=summary|https://planning.bradford.gov.uk/online-applications/applicationDetails.do?keyVal=N0KUYCDHLT00A&activeTab=summary|https://planning.bradford.gov.uk/online-applications/applicationDetails.do?keyVal=NUO8EHDHLT000&activeTab=summary|https://planning.bradford.gov.uk/online-applications/applicationDetails.do?keyVal=7700667OUT&activeTab=summary|https://planning.bradford.gov.uk/online-applications/applicationDetails.do?keyVal=8502828COU&activeTab=summary|https://planning.bradford.gov.uk/online-applications/applicationDetails.do?keyVal=NT0N0FDH0IO00&activeTab=summary|https://planning.bradford.gov.uk/online-applications/applicationDetails.do?keyVal=M7RKIVDH0B200&activeTab=summary|https://planning.bradford.gov.uk/online-applications/applicationDetails.do?keyVal=7707710REM&activeTab=summary|https://planning.bradford.gov.uk/online-applications/applicationDetails.do?keyVal=KR7B9GDH0B200&activeTab=summary|https://planning.bradford.gov.uk/online-applications/applicationDetails.do?keyVal=HN996MDHH1000&activeTab=summary|https://planning.bradford.gov.uk/online-applications/applicationDetails.do?keyVal=M05LIJDH0B200&activeTab=summary|https://planning.bradford.gov.uk/online-applications/applicationDetails.do?keyVal=8308035FUL&activeTab=summary|https://planning.bradford.gov.uk/online-applications/applicationDetails.do?keyVal=8405582REM&activeTab=summary|https://planning.bradford.gov.uk/online-applications/applicationDetails.do?keyVal=8906306FUL&activeTab=summary|https://planning.bradford.gov.uk/online-applications/applicationDet", "site-address": "Ingleby Rd", "site-plan-url": "http://cbmdc.maps.arcgis.com/apps/webappviewer/index.html?id=2134938ccf5843649ef0e555c0926dae&extent=414021.8389,433037.7479,414326.6491,433212.3149,27700", "start-date": "2019-12-01", "planning-permission-status": "not permissioned", "hectares": "3.25", "name": "SW/120", "point": "POINT(-1.786605 53.794315)", "maximum-net-dwellings": "122", "organisation": "local-authority-eng:BRD", "notes": "Unused land", "slug": "/brownfield-land/local-authority-eng/BRD/SW-120", "entry-date": "2019-12-01"}}