{"type": "Feature", "geometry": {"type": "Point", "coordinates": [-2.050543, 52.560297]}, "properties": {"organisation": "local-authority-eng:WLL", "maximum-net-dwellings": "6", "planning-permission-date": "2015-04-15", "site-plan-url": "http://mymaps.walsall.gov.uk/", "site": "LC12A", "point": "POINT(-2.050543 52.560297)", "name": "LC12A", "start-date": "2017-12-29", "planning-permission-status": "permissioned", "site-address": "LAND ADJACENT TO 64 HIGH STREET, MOXLEY", "hectares": "0.09", "minimum-net-dwellings": "6", "planning-permission-type": "full planning permission", "slug": "/brownfield-land/local-authority-eng/WLL/LC12A", "entity": 498344, "entry-date": "2017-12-29"}}