{"type": "Feature", "geometry": {"type": "Point", "coordinates": [-6.813612, 52.443384]}, "properties": {"resource": "fbb2e387ccb2486b8bffb9545563a67bfc028d3c814f3763c2e08febb17088ac", "site-address": "Clay Lane, Teignmouth TQ14 8FW", "deliverable": "yes", "end-date": "", "entry-date": "2017-11-01", "hazardous-substances": "", "hectares": "0.08", "maximum-net-dwellings": "21", "minimum-net-dwellings": "21", "notes": "2 phase scheme part 1 completed in 2009 - this phase started", "organisation": "local-authority-eng:TEI", "ownership-status": "not owned by a public authority", "planning-permission-date": "2014-10-09", "planning-permission-history": "", "planning-permission-status": "permissioned", "planning-permission-type": "full planning permission", "point": "POINT(-6.813612 52.443384)", "site": "BFR009", "site-plan-url": "", "start-date": "2017-11-01", "id": "fbb2e387ccb2486b8bffb9545563a67bfc028d3c814f3763c2e08febb17088ac:66012"}}