{"type": "Feature", "geometry": {"type": "Point", "coordinates": [-0.198498, 51.630491]}, "properties": {"resource": "53ff7410d03797e7747d4df128ca450bbe808f4eacc79d0e2d18623ab4a99554", "site-address": "Copped Close, 15 Totteridge Village, London, N20 8PN", "deliverable": "yes", "end-date": "", "entry-date": "2017-12-04", "hazardous-substances": "", "hectares": "0.27387984650000002", "maximum-net-dwellings": "2", "minimum-net-dwellings": "2", "notes": "Demolition of the existing dwelling and buildings and erection of two detached dwellings and replacement double garage. Associated refuse and recycling area", "organisation": "local-authority-eng:BNE", "ownership-status": "not owned by a public authority", "planning-permission-date": "2017-06-21", "planning-permission-history": "", "planning-permission-status": "permissioned", "planning-permission-type": "full planning permission", "point": "POINT(-0.198498 51.630491)", "site": "17/0824/FUL", "site-plan-url": "https://maps.london.gov.uk/brownfield-site-register", "start-date": "2017-12-04", "id": "17-0824-FUL"}}