{"type": "Feature", "geometry": {"type": "Point", "coordinates": [-0.016381, 51.477088]}, "properties": {"deliverable": "yes", "hectares": "0.03", "planning-permission-status": "permissioned", "name": "RBG-16", "maximum-net-dwellings": "9", "planning-permission-date": "2015-01-14", "planning-permission-type": "full planning permission", "minimum-net-dwellings": "9", "site": "RBG-16", "site-address": "\u201c139 Greenwich High Rd Greenwich\u201c", "start-date": "2017-12-22", "point": "POINT(-0.016381 51.477088)", "organisation": "local-authority-eng:GRE", "notes": "\u201c14/2868/F. Completed in 2019.", "slug": "/brownfield-land/local-authority-eng/GRE/RBG-16", "entry-date": "2019-12-17", "end-date": "2019-12-17", "ownership-status": "not owned by a public authority", "planning-permission-history": "https://www.royalgreenwich.gov.uk/info/200193/planning_applications_and_permissions/21/view_planning_applications_decisions_and_appeals"}}