{"type": "Feature", "geometry": {"type": "Point", "coordinates": [-0.089823, 51.49435]}, "properties": {"resource": "69584001774ee43f8bc3e6df5517c2b8eb3109bcb6db5e1e5103e9ff594f2c22", "site-address": "221 New Kent Road London SE1 4AG", "deliverable": "", "end-date": "", "entry-date": "2020-03-24", "hazardous-substances": "", "hectares": "0.16", "maximum-net-dwellings": "109", "minimum-net-dwellings": "109", "notes": "Demolition of existing warehouse building and erection of a part 4, part 6 and part 9 storey building comprising 109 affordable residential units (44 no. studio units and 65 no. one bedroom units) and 1,380 sqm of flexible co-work/maker space at ground floor with provision for ancillary retail use and associated landscaping, car parking and access works", "organisation": "local-authority-eng:SWK", "ownership-status": "", "planning-permission-date": "2019-09-13", "planning-permission-history": "", "planning-permission-status": "permissioned", "planning-permission-type": "", "point": "POINT(-0.089823 51.49435)", "site": "19-AP-1189", "site-plan-url": "", "start-date": "2020-03-24", "slug": "local-authority-eng/SWK/19-AP-1189"}}