{"type": "Feature", "geometry": {"type": "Point", "coordinates": [-1.593931, 53.736081]}, "properties": {"resource": "0718b0fcb6c27713952a624965815f05a214a9c1861a8271367502f60ac44e82", "site-address": "Tingley Mills Tingley Common Morley Leeds", "deliverable": "", "end-date": "", "entry-date": "2016-07-11", "hazardous-substances": "", "hectares": "0.99", "maximum-net-dwellings": "100", "minimum-net-dwellings": "100", "notes": "", "organisation": "local-authority-eng:LDS", "ownership-status": "not owned by a public authority", "planning-permission-date": "", "planning-permission-history": "", "planning-permission-status": "not permissioned", "planning-permission-type": "", "point": "POINT(-1.593931 53.736081)", "site": "SHL00044", "site-plan-url": "https://leedscc.maps.arcgis.com/apps/webappviewer/index.html?id=612532561dc547fa93e683a5fca73079&find=SHL00044", "start-date": "2016-07-11", "id": "SHL00044"}}