{"type": "Feature", "geometry": {"type": "Point", "coordinates": [-0.151239, 51.574]}, "properties": {"resource": "caa60d5ffae6d94a73fa94be2f5c02a5ab40172f4cc37d01fe8f4c4bed94b7c5", "site-address": "65 & 67 North Road,,N6 4BJ", "deliverable": "yes", "end-date": "", "entry-date": "2019-12-31", "hazardous-substances": "", "hectares": "0.104", "maximum-net-dwellings": "6", "minimum-net-dwellings": "6", "notes": "The demolition of existing buildings and the construction of a part single, part three storey building to provide 8 self-contained flats. http://www.planningservices.haringey.gov.uk/portal/servlets/ApplicationSearchServlet?", "organisation": "local-authority-eng:HRY", "ownership-status": "not owned by a public authority", "planning-permission-date": "2018-06-22", "planning-permission-history": "", "planning-permission-status": "permissioned", "planning-permission-type": "full planning permission", "point": "POINT(-0.151239 51.574)", "site": "HGY/2017/3071", "site-plan-url": "http://www.planningservices.haringey.gov.uk/portal/servlets/ApplicationSearchServlet", "start-date": "2019-12-31", "id": "local-authority-eng/HRY/HGY-2017-3071"}}