{"type": "Feature", "geometry": {"type": "Point", "coordinates": [-2.003848, 55.771542]}, "properties": {"resource": "aed5c6f79471ef3168d5210dbf8f7da13619f4238de52f4629dce0b92dafcda6", "site-address": "Land adjacent to former Kwik Save, Walkergate, Berwick-upon-Tweed", "deliverable": "", "end-date": "", "entry-date": "2020-12-17", "hazardous-substances": "", "hectares": "0.11", "maximum-net-dwellings": "10", "minimum-net-dwellings": "9", "notes": "Cleared land close to Berwick town centre that is comprises of vacant hardstanding, previously used for car parking. This was for the retail unit that previously occupied the adjacent land. However, this shop has now been demolished and a new office development recently constructed in replacement. Residential development on this vacant site could complement this scheme. A higher-density could be fitting given the central location, with a flatted/apartment scheme potentially being appropriate. There is known interest in taking forward a project and the site has recently been sold. Currently considered developable later in the plan period. The site is identified as an allocation in the draft Local Plan (submitted May 2019).", "organisation": "local-authority-eng:NBL", "ownership-status": "owned by a public authority", "planning-permission-date": "", "planning-permission-history": "", "planning-permission-status": "not permissioned", "planning-permission-type": "", "point": "POINT(-2.003848 55.771542)", "site": "9552", "site-plan-url": "http://northumberland.maps.arcgis.com/apps/webappviewer/index.html?id=c1b801d50f8040efbf8c9bc9f916cfae", "start-date": "2018-12-31", "slug": "local-authority-eng/NBL/9552"}}