{"type": "Feature", "geometry": {"type": "Point", "coordinates": [0.115862, 51.448418]}, "properties": {"resource": "fc0f9927f2efd16909f6ab730d32c3401f93042c3626e024939d71a2cd6e13a5", "site-address": "475, 475a and 475b Blackfen Road, Sidcup", "deliverable": "yes", "end-date": "", "entry-date": "2017-12-07", "hazardous-substances": "", "hectares": "0.07", "maximum-net-dwellings": "6", "minimum-net-dwellings": "6", "notes": "16/02004/FUL. Demolition of existing shops and erection of one restaurant (Class A3) and 6 x 2 bedroom flats with associated parking and amenity space.", "organisation": "local-authority-eng:BEX", "ownership-status": "not owned by a public authority", "planning-permission-date": "2017-03-21", "planning-permission-history": "http://pa.bexley.gov.uk/online-applications/propertyDetails.do?activeTab=relatedCases&keyVal=0027F8BELI000", "planning-permission-status": "permissioned", "planning-permission-type": "full planning permission", "point": "POINT(0.115862 51.448418)", "site": "BLR022", "site-plan-url": "https://www.bexley.gov.uk/services/planning-and-building-control/planning-policy/brownfield-land-register", "start-date": "2017-12-07", "id": "fc0f9927f2efd16909f6ab730d32c3401f93042c3626e024939d71a2cd6e13a5:65755"}}