{"type": "Feature", "geometry": {"type": "Point", "coordinates": [-1.894609, 52.407793]}, "properties": {"hectares": "37.41", "maximum-net-dwellings": "-50", "ownership-status": "owned by a public authority", "site": "S128", "planning-permission-status": "Not Permissioned", "point": "POINT(-1.894609 52.407793)", "name": "S128", "minimum-net-dwellings": "-50", "site-plan-url": "https://maps.birmingham.gov.uk/webapps/shlaa/", "site-address": "Druids Heath Phase 1, Druids Heath & Monyhull", "deliverable": "yes", "organisation": "local-authority-eng:BIR", "start-date": "2017-12-19", "slug": "/brownfield-land/local-authority-eng/BIR/S128", "entry-date": "2019-12-31", "notes": "Birmingham Development Plan. In BMHT 5 year Development Programme."}}