{"type": "Feature", "geometry": {"type": "Point", "coordinates": [-1.988348, 52.501996]}, "properties": {"start-date": "2016-06-30", "planning-permission-date": "2012-01-01", "site-address": "104-110 Oldbury Road, Smethwick B66 1JE", "point": "POINT(-1.988348 52.501996)", "ownership-status": "owned by a public authority", "minimum-net-dwellings": "24", "name": "3015", "site-plan-url": "http://www.sandwell.gov.uk/info/200317/planning_policy/3809/sandwell_brownfield_register", "maximum-net-dwellings": "24", "planning-permission-type": "Other", "organisation": "local-authority-eng:SAW", "site": "3015", "notes": "Part SMBC and part private", "hectares": "0.68", "slug": "/brownfield-land/local-authority-eng/SAW/3015", "entry-date": "2016-06-30"}}