{"type": "Feature", "geometry": {"type": "Point", "coordinates": [-0.070078, 51.47174]}, "properties": {"resource": "86dee119f806d0c7f62295e6aae502851827e848202c4e43e833126ed62773db", "site-address": "32-36 Rye Lane SE15 5BS", "deliverable": "yes", "end-date": "", "entry-date": "2017-12-20", "hazardous-substances": "", "hectares": "0.10000000000000001", "maximum-net-dwellings": "0", "minimum-net-dwellings": "0", "notes": "Construction of a 3-storey extension (fronting onto Highshore Road) above the existing commercial units and service yard to provide 8 residential units (6 x 2-bed flats and 2 x 3-bed flats); reconfi", "organisation": "local-authority-eng:SWK", "ownership-status": "", "planning-permission-date": "2017-06-01", "planning-permission-history": "", "planning-permission-status": "permissioned", "planning-permission-type": "full planning permission", "point": "POINT(-0.070078 51.47174)", "site": "17-AP-0862", "site-plan-url": "", "start-date": "2017-12-20", "id": "17-AP-0862"}}