{"type": "Feature", "geometry": {"type": "Point", "coordinates": [-0.659374, 51.904946]}, "properties": {"resource": "b5cba9e1380a55b1599df756ca93de088ba994bb05bbefd9c2bdf1c4ab7440e0", "site-address": "Brickyard Quarry, Leighton Linslade", "deliverable": "", "end-date": "", "entry-date": "2018-12-31", "hazardous-substances": "", "hectares": "5.9", "maximum-net-dwellings": "165", "minimum-net-dwellings": "165", "notes": "", "organisation": "local-authority-eng:CBF", "ownership-status": "not owned by a public authority", "planning-permission-date": "2018-07-23", "planning-permission-history": "", "planning-permission-status": "permissioned", "planning-permission-type": "reserved matters approval", "point": "POINT(-0.659374 51.904946)", "site": "CB/19/00001/BRWN", "site-plan-url": "https://centralbedfordshire.box.com/s/6q9szxnzaeekng0hfzmrwdwtj4fiu567", "start-date": "2018-11-19", "id": "CB-19-00001-BRWN"}}