{"type": "Feature", "geometry": {"type": "Point", "coordinates": [-4.47102, 50.448494]}, "properties": {"minimum-net-dwellings": "9", "deliverable": "yes", "name": "BR54", "point": "POINT(-4.47102 50.448494)", "notes": "7 dwellings plus creation of 2 new build dwellings", "start-date": "2017-12-12", "planning-permission-history": "http://planning.cornwall.gov.uk/online-applications/", "planning-permission-status": "permissioned", "ownership-status": "not owned by a public authority", "planning-permission-date": "2016-09-30", "planning-permission-type": "full planning permission", "hectares": "0.14", "organisation": "local-authority-eng:CON", "site-address": "The Old Stag Station Road Liskeard PL14 4DA", "site": "BR54", "maximum-net-dwellings": "9", "site-plan-url": "https://map.cornwall.gov.uk/website/ccmap/?zoomlevel=1&xcoord=162690&ycoord=64380&wsName=ccmap&layerName", "slug": "/brownfield-land/local-authority-eng/CON/BR54", "entry-date": "2017-12-12"}}