{"type": "Feature", "geometry": {"type": "Point", "coordinates": [-2.21605, 53.480019]}, "properties": {"minimum-net-dwellings": "10", "planning-permission-status": "permissioned", "organisation": "local-authority-eng:MAN", "notes": "Erection of 4 storey building to form 10 apartments (Class C3)", "site-plan-url": "https://mappinggm.org.uk/gmodin/?lyrs=brownfield_2019_gm#os_maps_light/18/53.480019/-2.21605", "planning-permission-type": "full planning permission", "name": "113955/FO/2016", "planning-permission-date": "2016-12-19", "site-address": "All Souls Rectory Every Street", "planning-permission-history": "http://pa.manchester.gov.uk/online-applications/", "deliverable": "yes", "start-date": "2017-12-31", "hectares": "0.059058", "maximum-net-dwellings": "10", "point": "POINT(-2.21605 53.480019)", "site": "113955/FO/2016", "slug": "/brownfield-land/local-authority-eng/MAN/113955-FO-2016", "entry-date": "2019-12-31"}}