{"type": "Feature", "geometry": {"type": "Point", "coordinates": [-1.929873, 52.481384]}, "properties": {"resource": "586fd8bf0779012ac7c4b8681341b640e538deeaaf5529b2363862253b528703", "site-address": "IPL Site, Ladywood", "deliverable": "yes", "end-date": "", "entry-date": "2017-12-19", "hazardous-substances": "", "hectares": "21.7", "maximum-net-dwellings": "1150", "minimum-net-dwellings": "1150", "notes": "2011/07399/PA (outline)/ 2017/07024/PA (detailed). Outline planning application for demolition of buildings and a mixed use redevelopment of up to 1150 dwellings, retail, service, employment, leisure and non-residential institutions uses", "organisation": "local-authority-eng:BIR", "ownership-status": "mixed ownership", "planning-permission-date": "2013-09-20", "planning-permission-history": "", "planning-permission-status": "permissioned", "planning-permission-type": "Other", "point": "POINT(-1.929873 52.481384)", "site": "N717", "site-plan-url": "https://localview.birmingham.gov.uk/Planning/Sites/SHLAA/", "start-date": "2017-12-19", "id": "N717"}}