{"type": "Feature", "geometry": {"type": "Point", "coordinates": [-0.12548, 50.81931]}, "properties": {"resource": "0abd8a357da3b458504a8e16969a1c7ede85e8b7ef2bdef274d382f1db4108fc", "site-address": "St Joseph's Rest Home 3-7 Bristol Road Brighton", "deliverable": "", "end-date": "", "entry-date": "2019-12-16", "hazardous-substances": "", "hectares": "0.16", "maximum-net-dwellings": "10", "minimum-net-dwellings": "10", "notes": "", "organisation": "local-authority-eng:BNH", "ownership-status": "not owned by a public authority", "planning-permission-date": "", "planning-permission-history": "https://planningapps.brighton-hove.gov.uk/online-applications/applicationDetails.do?activeTab=summary&keyVal=OG2KC7DMKB000|https://planningapps.brighton-hove.gov.uk/online-applications/applicationDetails.do?activeTab=summary&keyVal=ZZZR5ZDMXE195", "planning-permission-status": "not permissioned", "planning-permission-type": "", "point": "POINT(-0.12548 50.81931)", "site": "SHLAA6116", "site-plan-url": "https://new.brighton-hove.gov.uk/sites/default/files/planning_bc_regen/policy/brownfield-sites/shlaa6116-st-josephs-rest-home-3-7-bristol-road-brighton.pdf", "start-date": "2017-10-03", "id": "SHLAA6116"}}