{"type": "Feature", "geometry": {"type": "Point", "coordinates": [-2.561955, 51.45734]}, "properties": {"deliverable": "yes", "organisation": "local-authority-eng:BST", "planning-permission-status": "not permissioned", "notes": "10 dwellings", "point": "POINT(-2.561955 51.45734)", "planning-permission-history": "https://www.bristol.gov.uk/documents/20182/34540/Site%20Allocations%20Annex%20Adopted%20July%202014%20Indexed.pdf#page=82", "maximum-net-dwellings": "10", "site-address": "Shiner Ltd Builders Merchants, Church Road, Redfield", "name": "BSA0802", "site": "BSA0802", "start-date": "2017-12-19", "minimum-net-dwellings": "10", "hectares": "0.62", "site-plan-url": "http://maps.bristol.gov.uk/policies/", "slug": "/brownfield-land/local-authority-eng/BST/BSA0802", "entry-date": "2018-12-19"}}