{"type": "Feature", "geometry": {"type": "Point", "coordinates": [-1.303032, 53.532721]}, "properties": {"resource": "61037665de19446e5f458708ed9ead5d517a61d28fee72b93be3c8c8a5083a99", "site-address": "Market street, goldthorpe, south yorkshire, s63 9nq", "deliverable": "", "end-date": "", "entry-date": "2017-08-02", "hazardous-substances": "", "hectares": "0.4", "maximum-net-dwellings": "6", "minimum-net-dwellings": "6", "notes": "", "organisation": "local-authority-eng:BNS", "ownership-status": "", "planning-permission-date": "", "planning-permission-history": "", "planning-permission-status": "not permissioned", "planning-permission-type": "other", "point": "POINT(-1.303032 53.532721)", "site": "H0594", "site-plan-url": "https://www.barnsley.gov.uk/services/planning-and-buildings/local-planning-and-development/brownfield-land-register/", "start-date": "2017-08-02", "id": "H0594"}}