{"type": "Feature", "geometry": {"type": "Point", "coordinates": [0.052238, 51.525493]}, "properties": {"resource": "53ff7410d03797e7747d4df128ca450bbe808f4eacc79d0e2d18623ab4a99554", "site-address": "East Ham Jewish Cemetery Marlow Road East Ham London E6 3QG", "deliverable": "yes", "end-date": "", "entry-date": "1899-12-30", "hazardous-substances": "", "hectares": "0.15917023114199999", "maximum-net-dwellings": "9", "minimum-net-dwellings": "7", "notes": "Proposed demolition of existing detached house and erection of six dwelling houses and two flats.", "organisation": "local-authority-eng:NWM", "ownership-status": "not owned by a public authority", "planning-permission-date": "2018-04-17", "planning-permission-history": "", "planning-permission-status": "permissioned", "planning-permission-type": "full planning permission", "point": "POINT(0.052238 51.525493)", "site": "UPRN:010008991173", "site-plan-url": "https://maps.london.gov.uk/brownfield-site-register", "start-date": "2018-12-18", "id": "53ff7410d03797e7747d4df128ca450bbe808f4eacc79d0e2d18623ab4a99554:21594"}}