{"type": "Feature", "geometry": {"type": "Point", "coordinates": [-0.075848, 51.495345]}, "properties": {"deliverable": "yes", "start-date": "2017-12-20", "planning-permission-type": "full planning permission", "site-address": "Ground Floor Unit 15 The Cube, 5 Spa Road SE16 3GD", "site": "15-AP-4672", "name": "15-AP-4672", "maximum-net-dwellings": "0", "hectares": "0.01", "point": "POINT(-0.075848 51.495345)", "minimum-net-dwellings": "0", "planning-permission-status": "permissioned", "planning-permission-date": "2016-01-21", "organisation": "local-authority-eng:SWK", "slug": "/brownfield-land/local-authority-eng/SWK/15-AP-4672", "entry-date": "2017-12-20", "notes": "Class B1(a) (Offices) to x 1 residential Class C3 (Dwelling houses)."}}