{"type": "Feature", "geometry": {"type": "Point", "coordinates": [-2.004874, 53.361119]}, "properties": {"resource": "26dc5b9c9152233e92ef1e3bfd5d63b075d86baf54c4b31b04247fe226de0788", "site-address": "Woodside Street, New Mills", "deliverable": "", "end-date": "", "entry-date": "2020-03-25", "hazardous-substances": "", "hectares": "0.6", "maximum-net-dwellings": "25", "minimum-net-dwellings": "25", "notes": "", "organisation": "local-authority-eng:HIG", "ownership-status": "not owned by a public authority", "planning-permission-date": "", "planning-permission-history": "", "planning-permission-status": "not permissioned", "planning-permission-type": "", "point": "POINT(-2.004874 53.361119)", "site": "NM034", "site-plan-url": "https://www.highpeak.gov.uk/media/4697/Brownfield-Register-2019/pdf/HPBC_Brownfield_Register_2019_Maps.pdf?m=1576509189877", "start-date": "2017-11-30", "id": "NM034"}}