{"type": "Feature", "geometry": {"type": "Point", "coordinates": [-3.264386, 54.211917]}, "properties": {"maximum-net-dwellings": "10", "notes": "Demolition Of Existing Commercial Building & Erection Of Nine Dwellings (Resubmission Of 4/08/2146/0)", "site-address": "Former Ashburners Compound Millom Road", "deliverable": "yes", "planning-permission-type": "full planning permission", "point": "POINT(-3.264386 54.211917)", "planning-permission-date": "2012-02-09", "ownership-status": "not owned by a public authority", "organisation": "local-authority-eng:COP", "minimum-net-dwellings": "9", "planning-permission-status": "permissioned", "site-plan-url": "https://www.copeland.gov.uk/attachments/cbr004-former-ashburners-compound", "name": "CBR004", "hectares": "0.16", "site": "CBR004", "start-date": "2017-12-22", "slug": "/brownfield-land/local-authority-eng/COP/CBR004", "entry-date": "2017-12-22"}}