{"type": "Feature", "geometry": {"type": "Point", "coordinates": [-2.587619, 53.382421]}, "properties": {"site-address": "Former Wilderspool Stadium, Priory Street, Warrington, WA4 6YP", "site": "1752.0", "maximum-net-dwellings": "163", "hectares": "1.95", "planning-permission-status": "Not Permissioned", "organisation": "local-authority-eng:WRT", "minimum-net-dwellings": "163", "point": "POINT(-2.587619 53.382421)", "notes": "Not applicable", "name": "1752.0", "start-date": "2017-06-01", "slug": "/brownfield-land/local-authority-eng/WRT/1752-0", "entity": 499688, "entry-date": "2017-06-01", "deliverable": "yes"}}