{"type": "Feature", "geometry": {"type": "Point", "coordinates": [-0.820929, 51.341889]}, "properties": {"resource": "f14c68a28cde2f75a7cf2dbf67d91c861e0b33421139cb9da77f9941fb4a33c8", "site-address": "Rosebank Parade, Plough Road, Yateley, Hampshire, GU17 7RN", "deliverable": "", "end-date": "21/11/2019", "entry-date": "2018-12-20", "hazardous-substances": "", "hectares": "0.11", "maximum-net-dwellings": "11", "minimum-net-dwellings": "11", "notes": "Change of use of 1st floor office to form 11 flats. Scheme has no SANG mitigation and therefore can not be considered deliverable. Site not included in housing trajectory. Permission lapsed 2019-08-19.", "organisation": "local-authority-eng:HAT", "ownership-status": "not owned by a public authority", "planning-permission-date": "2016-08-19", "planning-permission-history": "", "planning-permission-status": "permissioned", "planning-permission-type": "other", "point": "POINT(-0.820929 51.341889)", "site": "16/01704/PRIOR", "site-plan-url": "https://publicaccess.hart.gov.uk/online-applications/", "start-date": "2018-12-20", "id": "16-01704-PRIOR"}}