{"type": "Feature", "geometry": {"type": "Point", "coordinates": [-0.39104, 51.623429]}, "properties": {"resource": "9fe78bed7e853a8e13011843dab52f6aa24b672a946f5db77f5fd605d711fc15", "site-address": "Northwick Day Centre, South Oxhey Town Centre", "deliverable": "yes", "end-date": "", "entry-date": "2018-12-10", "hazardous-substances": "", "hectares": "0.56", "maximum-net-dwellings": "55", "minimum-net-dwellings": "40", "notes": "", "organisation": "local-authority-eng:THE", "ownership-status": "owned by a public authority", "planning-permission-date": "", "planning-permission-history": "", "planning-permission-status": "not permissioned", "planning-permission-type": "", "point": "POINT(-0.39104 51.623429)", "site": "BR25", "site-plan-url": "http://www.mapsinteractive.co.uk/planvu/trdc/index.php", "start-date": "2017-12-12", "id": "9fe78bed7e853a8e13011843dab52f6aa24b672a946f5db77f5fd605d711fc15:19113"}}