{"type": "Feature", "geometry": {"type": "Point", "coordinates": [-2.801196, 54.220004]}, "properties": {"resource": "37c12dfb931e781d57d4fcd5bff61adf0a61fc093e03e3530a4ffc1b9af874de", "site-address": "Land at Sandside Road and Quarry Lane, Sandside", "deliverable": "", "end-date": "", "entry-date": "2017-12-01", "hazardous-substances": "", "hectares": "3.09", "maximum-net-dwellings": "40", "minimum-net-dwellings": "20", "notes": "Employment, Residential, community facilities", "organisation": "local-authority-eng:SLA", "ownership-status": "not owned by a public authority", "planning-permission-date": "", "planning-permission-history": "", "planning-permission-status": "not permissioned", "planning-permission-type": "", "point": "POINT(-2.801196 54.220004)", "site": "BLR17", "site-plan-url": "https://my.southlakeland.gov.uk/mysouthlakeland.aspx?SouthLakes/MyMapsSouthLakes&SearchLayer=Brownfield&SearchField=site_ref&SearchValue=BLR17", "start-date": "2017-12-01", "id": "37c12dfb931e781d57d4fcd5bff61adf0a61fc093e03e3530a4ffc1b9af874de:12661"}}