{"type": "Feature", "geometry": {"type": "Point", "coordinates": [-0.09195, 51.576109]}, "properties": {"resource": "9ee698608d8c7dcad9d872d2e109b28a00e577e100a53fc7f2e46a81c8a126e3", "name": "HGY/2005/0333", "site-address": "Omega Works Hermitage Road London N4 1NA London", "deliverable": "yes", "end-date": "", "entry-date": "", "hazardous-substances": "", "hectares": "0.51", "maximum-net-dwellings": "66", "minimum-net-dwellings": "66", "notes": "", "organisation": "local-authority-eng:HRY", "ownership-status": "not owned by a public authority", "planning-permission-date": "2005-09-20", "planning-permission-history": "", "planning-permission-status": "permissioned", "planning-permission-type": "full planning permission", "point": "POINT(-0.09195 51.576109)", "site": "HGY/2005/0333", "site-plan-url": "http://www.planningservices.haringey.gov.uk/portal/servlets/ApplicationSearchServlet?PKID=119994", "start-date": "", "slug": "/brownfield-land/local-authority-eng/HRY/HGY-2005-0333"}}