{"type": "Feature", "geometry": {"type": "Point", "coordinates": [-1.281013, 53.418094]}, "properties": {"notes": "RDF2071, Under Construction", "site-address": "land at 40 Morthen Road Wickersley", "maximum-net-dwellings": "8", "ownership-status": "not owned by a public authority", "name": "BR0063", "planning-permission-type": "full planning permission", "planning-permission-date": "2018-05-11", "start-date": "2018-11-30", "planning-permission-status": "permissioned", "site": "BR0063", "organisation": "local-authority-eng:ROT", "minimum-net-dwellings": "0", "deliverable": "yes", "hectares": "0.18", "planning-permission-history": "http://rotherham.planportal.co.uk/?id=RB2017/1777", "slug": "/brownfield-land/local-authority-eng/ROT/BR0063", "entry-date": "2020-12-15", "site-plan-url": "http://communitymapping.rotherham.gov.uk/Communitymapfindit/findit/", "point": "POINT(-1.281013 53.418094)"}}