{"type": "Feature", "geometry": {"type": "Point", "coordinates": [-0.109586, 51.521585]}, "properties": {"resource": "86dee119f806d0c7f62295e6aae502851827e848202c4e43e833126ed62773db", "site-address": "18-26 Hatton Wall London EC1N 8JH", "deliverable": "yes", "end-date": "", "entry-date": "2018-10-12", "hazardous-substances": "", "hectares": "0.14000000000000001", "maximum-net-dwellings": "7", "minimum-net-dwellings": "7", "notes": "Redevelopment comprising retention of the building and replacement of western, northern and eastern facades, a three-storey roof extension, and single-storey extension to eastern elevation to provide", "organisation": "local-authority-eng:CMD", "ownership-status": "", "planning-permission-date": "2017-06-09", "planning-permission-history": "http://planningrecords.camden.gov.uk/Northgate/PlanningExplorer17/Generic/StdResults.aspx?PT=Planning%20Applications%20On-Line&SC=Application%20Number%20is%202014/5873/P%20and%20Date%20Validated%20is%", "planning-permission-status": "permissioned", "planning-permission-type": "full planning permission", "point": "POINT(-0.109586 51.521585)", "site": "LBCBLR064", "site-plan-url": "https://opendata.camden.gov.uk/Environment/Camden-Brownfield-Register-Polygons/wi65-z696/data", "start-date": "2018-10-12", "id": "86dee119f806d0c7f62295e6aae502851827e848202c4e43e833126ed62773db:37220"}}