{"type": "Feature", "geometry": {"type": "Point", "coordinates": [-1.976058, 52.586344]}, "properties": {"resource": "1f57061ab1128107cd734a5010136376105124f5f1d646e0907aea36aa9c498c", "site-address": "LANTERN HOUSE, 129-130, LICHFIELD STREET, WALSALL, WS1 1SY", "deliverable": "", "end-date": "", "entry-date": "2017-12-29", "hazardous-substances": "", "hectares": "0.1", "maximum-net-dwellings": "6", "minimum-net-dwellings": "6", "notes": "", "organisation": "local-authority-eng:WLL", "ownership-status": "", "planning-permission-date": "2017-05-25", "planning-permission-history": "", "planning-permission-status": "permissioned", "planning-permission-type": "full planning permission", "point": "POINT(-1.976058 52.586344)", "site": "HO1145", "site-plan-url": "", "start-date": "2017-12-29", "id": "1f57061ab1128107cd734a5010136376105124f5f1d646e0907aea36aa9c498c:60773"}}