{"type": "Feature", "geometry": {"type": "Point", "coordinates": [-1.5476, 53.803126]}, "properties": {"start-date": "2016-11-07", "site-plan-url": "https://leedscc.maps.arcgis.com/apps/webappviewer/index.html?id=612532561dc547fa93e683a5fca73079&find=SHL00212", "site": "SHL00212", "organisation": "local-authority-eng:LDS", "maximum-net-dwellings": "50", "minimum-net-dwellings": "50", "name": "SHL00212", "point": "POINT(-1.5476 53.803126)", "planning-permission-status": "not permissioned", "ownership-status": "mixed ownership", "site-address": "Portland Crescent LS1", "hectares": "0.92", "slug": "/brownfield-land/local-authority-eng/LDS/SHL00212", "entity": 485613, "entry-date": "2016-11-07"}}