{"type": "Feature", "geometry": {"type": "Point", "coordinates": [-0.868743, 51.502588]}, "properties": {"site": "BR196", "deliverable": "yes", "planning-permission-status": "permissioned", "point": "POINT(-0.868743 51.502588)", "start-date": "2018-04-01", "ownership-status": "not owned by a public authority", "site-address": "15-27 High Street, Wargrave, RG10 8BU", "planning-permission-date": "2017-08-10", "organisation": "local-authority-eng:WOK", "maximum-net-dwellings": "10", "name": "BR196", "hectares": "0.288889", "notes": "Full planning application for demolition of existing car showroom, repair/MOT garage plus Suncroft dwelling and proposed erection of 10 dwellings with provision of car-parking, private amenity space, bin and bicycle storage.", "minimum-net-dwellings": "10", "site-plan-url": "http://planning.wokingham.gov.uk/FastWebPL/welcome.asp", "planning-permission-type": "full planning permission", "slug": "/brownfield-land/local-authority-eng/WOK/BR196", "entity": 499453, "entry-date": "2018-12-10"}}