{"type": "Feature", "geometry": {"type": "Point", "coordinates": [-0.765253, 51.249781]}, "properties": {"resource": "a4cc7d794baef80bf3a8f4af66553e41d8acda559067a229ea191b4dd89ca6af", "name": "SHELAA ID: 591", "site-address": "Union Street East, Aldershot", "deliverable": "yes", "end-date": "", "entry-date": "2020-12-08", "hazardous-substances": "", "hectares": "0.53", "maximum-net-dwellings": "100", "minimum-net-dwellings": "100", "notes": "The Council's Development Management Committee resolved to grant planning permission in June 2020 for the demolition of the existing buildings and the construction of 100 residential units, as well as 128 student units and flexible retail/commercial/business/community floorspace, subject to the completion of a satisfactory s106 legal agreement (ref. 20/00171/FULPP)", "organisation": "local-authority-eng:RUH", "ownership-status": "owned by a public authority", "planning-permission-date": "", "planning-permission-history": "", "planning-permission-status": "pending decision", "planning-permission-type": "", "point": "POINT(-0.765253 51.249781)", "site": "SHELAA ID: 591", "site-plan-url": "http://www.rushmoor.gov.uk/article/10524/Brownfield-land-register", "start-date": "2020-12-08", "slug": "/brownfield-land/local-authority-eng/RUH/SHELAA-ID--591", "href": "local-authority-eng/RUH/SHELAA-ID--591"}}