{"type": "Feature", "geometry": {"type": "Point", "coordinates": [-0.064655, 51.485845]}, "properties": {"resource": "314a6fc71008dd8e91a2e7420b73ad3616a8ed8c76863e30fe5d7f1cf7d938eb", "site-address": "9 Culloden Close SE16 3JH", "deliverable": "yes", "end-date": "", "entry-date": "2017-12-20", "hazardous-substances": "", "hectares": "0.03", "maximum-net-dwellings": "0", "minimum-net-dwellings": "0", "notes": "Construction of new two bedroom house on part of existing plot.", "organisation": "local-authority-eng:SWK", "ownership-status": "", "planning-permission-date": "2017-08-24", "planning-permission-history": "", "planning-permission-status": "permissioned", "planning-permission-type": "full planning permission", "point": "POINT(-0.064655 51.485845)", "site": "16-AP-4057", "site-plan-url": "", "start-date": "2017-12-20", "id": "16-AP-4057"}}