{"type": "Feature", "geometry": {"type": "Point", "coordinates": [-1.268091, 51.767304]}, "properties": {"planning-permission-status": "permissioned", "ownership-status": "not owned by a public authority", "site": "493", "planning-permission-history": "http://public.oxford.gov.uk/online-applications/", "start-date": "2017-10-30", "point": "POINT(-1.268091 51.767304)", "organisation": "local-authority-eng:OXO", "minimum-net-dwellings": "4", "site-plan-url": "https://www.oxford.gov.uk/downloads/file/4172/site_493_-_corner_of_hayfield_road_and_aristotle_lane", "name": "493", "hectares": "0.19", "maximum-net-dwellings": "7", "notes": "This site has been removed from the register as it falls below the size threshold.", "site-address": "Site at corner of Hayfield Road and Aristotle Lane, Oxford", "slug": "/brownfield-land/local-authority-eng/OXO/493", "entry-date": "2019-12-09", "planning-permission-type": "full planning permission", "planning-permission-date": "2018-09-10", "end-date": "2020-03-31"}}