{"type": "Feature", "geometry": {"type": "Point", "coordinates": [1.17864, 52.664083]}, "properties": {"planning-permission-history": "https://info.south-norfolk.gov.uk/online-applications/", "planning-permission-status": "permissioned", "planning-permission-type": "full planning permission", "minimum-net-dwellings": "26", "planning-permission-date": "2015-08-25", "name": "S/COS/001", "site": "S/COS/001", "start-date": "2017-12-31", "site-address": "Costessey: North of the River Tud/Queen's Hills", "maximum-net-dwellings": "26", "notes": "Outline planning permissions (2007/1443, 2008/1569), reserved matters and full planning permission (2015/0570) for 304 dwellings of which approx 87 units are on pdl", "deliverable": "yes", "ownership-status": "not owned by a public authority", "organisation": "local-authority-eng:SNO", "point": "POINT(1.17864 52.664083)", "slug": "/brownfield-land/local-authority-eng/SNO/S-COS-001", "entry-date": "2017-12-31", "site-plan-url": "https://www.arcgis.com/apps/webappviewer/index.html?id=64110f1c89b340938fdc601e639d063e&query=BrownfieldSites_8038_0%2CAlt_Ref%2C2015%2F0570", "hectares": "0.39"}}