{"type": "Feature", "geometry": {"type": "Point", "coordinates": [-1.903834, 53.867354]}, "properties": {"resource": "45943bab01aef31a1c8c60cb8eb9a9385275b491a3dc6d4f2d0572902c54d0e9", "site-address": "Victoria Hotel Cavendish Street Keighley", "deliverable": "yes", "end-date": "", "entry-date": "2018-11-01", "hazardous-substances": "", "hectares": "0.04", "maximum-net-dwellings": "0", "minimum-net-dwellings": "0", "notes": "Conversion of existing public house/hotel into 4 retail units on the ground floor with associated external changes and the creation of 9 self-contained units", "organisation": "local-authority-eng:BRD", "ownership-status": "not owned by a public authority", "planning-permission-date": "2015-07-22", "planning-permission-history": "https://planning.bradford.gov.uk/online-applications/applicationDetails.do?keyVal=NMSFP5DHLT000&activeTab=summary|https://planning.bradford.gov.uk/online-applications/applicationDetails.do?keyVal=9403664COU&activeTab=summary|https://planning.bradford.gov", "planning-permission-status": "permissioned", "planning-permission-type": "full planning permission", "point": "POINT(-1.903834 53.867354)", "site": "KY/155", "site-plan-url": "http://cbmdc.maps.arcgis.com/apps/webappviewer/index.html?id=2134938ccf5843649ef0e555c0926dae&extent=406403.3,441231.6,406438.3,441253.5,27700", "start-date": "2017-11-01", "id": "KY-155"}}