{"type": "Feature", "geometry": {"type": "Point", "coordinates": [-0.44207, 54.2951]}, "properties": {"organisation": "local-authority-eng:SCE", "point": "POINT(-0.44207 54.2951)", "hectares": "1.49", "start-date": "2018-09-05", "ownership-status": "not owned by a public authority", "deliverable": "yes", "notes": "Outline application for 24 dwellings, GPs surgery and 59 room Extra Care building, with full details of the Extra care building and new vehicular access", "site": "BR-056", "minimum-net-dwellings": "63", "planning-permission-date": "2018-01-12", "maximum-net-dwellings": "63", "planning-permission-type": "full planning permission", "planning-permission-status": "permissioned", "site-plan-url": "https://tinyurl.com/y7e3f4b5", "name": "BR-056", "site-address": "Former Scarborough Rugby Union Football Club, Scalby Road, Scalby, Scarborough", "slug": "/brownfield-land/local-authority-eng/SCE/BR-056", "entry-date": "2018-09-05"}}