{"type": "Feature", "geometry": {"type": "Point", "coordinates": [-2.119677, 52.815707]}, "properties": {"resource": "61239efef1dba3bb2d89a7a4f6e1260c13a7b12cdd9804243e04de18e272ca7a", "name": "36 Rowley Street, Stafford", "site-address": "36 Rowley Street, Stafford", "deliverable": "yes", "end-date": "", "entry-date": "2017-11-15", "hazardous-substances": "", "hectares": "0.03", "maximum-net-dwellings": "8", "minimum-net-dwellings": "8", "notes": "15/21724/COU - Change of use of existing building from student accommodation into eight individual bedsits", "organisation": "local-authority-eng:STA", "ownership-status": "not owned by a public authority", "planning-permission-date": "2015-05-27", "planning-permission-history": "http://www.staffordbc.gov.uk/planning-public-access", "planning-permission-status": "permissioned", "planning-permission-type": "full planning permission", "point": "POINT(-2.119677 52.815707)", "site": "36 Rowley Street, Stafford", "site-plan-url": "http://www.staffordbc.gov.uk/live/Documents/Planning%20Policy/Brownfield%20Land%20Register/Brownfield-Land-Register-Site-Plans.pdf", "start-date": "2017-11-15", "slug": "/brownfield-land/local-authority-eng/STA/36-Rowley-Street--Stafford", "href": "local-authority-eng/STA/36-Rowley-Street--Stafford"}}