{"type": "Feature", "geometry": {"type": "Point", "coordinates": [-0.305136, 51.512332]}, "properties": {"resource": "53ff7410d03797e7747d4df128ca450bbe808f4eacc79d0e2d18623ab4a99554", "site-address": "EAL5 Sandringham Mews, 25-45 High Street/7-11 New Broadway/Sandringham Mews, W5", "deliverable": "", "end-date": "", "entry-date": "2017-12-20", "hazardous-substances": "", "hectares": "0.63", "maximum-net-dwellings": "5", "minimum-net-dwellings": "5", "notes": "The allocation promotes the site for a mixed use development appropriate to the town centre. Whilst an estimate of 5 is given for the minimum net number of dwellings, this is the size threshold for i. See allocation in Development Sites DPD (2013)", "organisation": "local-authority-eng:EAL", "ownership-status": "not owned by a public authority", "planning-permission-date": "", "planning-permission-history": "", "planning-permission-status": "Not permissioned", "planning-permission-type": "", "point": "POINT(-0.305136 51.512332)", "site": "EAL5", "site-plan-url": "http://maps.ealing.gov.uk/map/Aurora.svc/run?script=%5cAurora%5cBrownfield_Register_Zoom.AuroraScript%24&nocache=2087154948&resize=always&x=517709.61&y=180628.68", "start-date": "2017-12-20", "id": "53ff7410d03797e7747d4df128ca450bbe808f4eacc79d0e2d18623ab4a99554:20881"}}