{"type": "Feature", "geometry": {"type": "Point", "coordinates": [-1.208397, 52.769563]}, "properties": {"resource": "ab85c24f14fd2c75be27e526ee3a95ef647140424d09a4f27fc7cdf64ea0112a", "site-address": "Devonshire Square Opportunity Site Loughborough", "deliverable": "", "end-date": "", "entry-date": "2017-11-17", "hazardous-substances": "", "hectares": "1.3", "maximum-net-dwellings": "32", "minimum-net-dwellings": "32", "notes": "", "organisation": "local-authority-eng:CHA", "ownership-status": "mixed ownership", "planning-permission-date": "", "planning-permission-history": "", "planning-permission-status": "not permissioned", "planning-permission-type": "", "point": "POINT(-1.208397 52.769563)", "site": "SH51", "site-plan-url": "https://www.charnwood.gov.uk/pages/strategic_housing_and_employment_land_availability_assessments_2014", "start-date": "2017-11-17", "id": "SH51"}}