{"type": "Feature", "geometry": {"type": "Point", "coordinates": [-3.068003, 50.70324]}, "properties": {"resource": "ccf1e5ed6b2f62728d94bed3665bbdd7381d736b94b28fd066a21fb96ee9f23d", "site-address": "Fosse Way Court, Seaton", "deliverable": "yes", "end-date": "", "entry-date": "2018-06-14", "hazardous-substances": "", "hectares": "0.15", "maximum-net-dwellings": "30", "minimum-net-dwellings": "30", "notes": "Part of a Floodzone 2. Plans progressed 2017.. Refurbishment and extension of existing apartment blocks (inc additional levels) and construction of new link apartment block to provide an additional 30 apartments", "organisation": "local-authority-eng:EDE", "ownership-status": "not owned by a public authority", "planning-permission-date": "2014-10-22", "planning-permission-history": "https://planning.eastdevon.gov.uk/online-applications/applicationDetails.do?activeTab=details&keyVal=N03T7VGH00E00", "planning-permission-status": "permissioned", "planning-permission-type": "full planning permission", "point": "POINT(-3.068003 50.70324)", "site": "BL15", "site-plan-url": "http://eastdevon.gov.uk/planning/planning-policy/housing-issues/brownfield-land/brownfield-site/?long=-3.068003&lat=50.703240", "start-date": "2016-09-16", "id": "ccf1e5ed6b2f62728d94bed3665bbdd7381d736b94b28fd066a21fb96ee9f23d:54470"}}