{"type": "Feature", "geometry": {"type": "Point", "coordinates": [-2.166205, 53.024688]}, "properties": {"maximum-net-dwellings": "58", "planning-permission-type": "full planning permission", "planning-permission-status": "permissioned", "site-plan-url": "https://webmaplayers.stoke.gov.uk/webmaplayers8/Map.aspx?MapName=SHLAA", "point": "POINT(-2.166205 53.024688)", "planning-permission-date": "2016-08-31", "name": "59772", "minimum-net-dwellings": "58", "deliverable": "yes", "organisation": "local-authority-eng:STE", "site-address": "Land at Bucknall New Road, Hanley, Stoke-on-Trent", "start-date": "2017-12-31", "hectares": "1.32", "site": "59772", "ownership-status": "not owned by a public authority", "slug": "/brownfield-land/local-authority-eng/STE/59772", "entity": 501227, "entry-date": "2017-12-31"}}