{"type": "Feature", "geometry": {"type": "Point", "coordinates": [-1.904716, 53.860637]}, "properties": {"resource": "392f3e0ee0fa2c8b209c8197d34069a06e7c7dbdeadcdaecd4eb2a0d3625f63a", "site-address": "Whinfield Drive, Keighley", "deliverable": "", "end-date": "", "entry-date": "2017-11-01", "hazardous-substances": "", "hectares": "1.24", "maximum-net-dwellings": "56", "minimum-net-dwellings": "46", "notes": "Cleared site but subject to permission could be developed at any time", "organisation": "local-authority-eng:BRD", "ownership-status": "owned by a public authority", "planning-permission-date": "", "planning-permission-history": "https://planning.bradford.gov.uk/online-applications/applicationDetails.do?keyVal=8404534COU&activeTab=summary|https://planning.bradford.gov.uk/online-applications/applicationDetails.do?keyVal=L2PI4XDHC1000&activeTab=summary|https://planning.bradford.gov.uk/online-applications/applicationDetails.do?keyVal=8011002FUL&activeTab=summary|https://planning.bradford.gov.uk/online-applications/applicationDetails.do?keyVal=9205037OUT&activeTab=summary|https://planning.bradford.gov.uk/online-applications/applicationDetails.do?keyVal=MSHYKKDH0B200&activeTab=summary|https://planning.bradford.gov.uk/online-applications/applicationDetails.do?keyVal=ONL1LODH0LY00&activeTab=summary|https://planning.bradford.gov.uk/online-applications/applicationDetails.do?keyVal=KX7LH3DHFH000&activeTab=summary|https://planning.bradford.gov.uk/online-applications/applicationDetails.do?keyVal=OVYBN6DH0LY00&activeTab=summary|https://planning.bradford.gov.uk/online-applications/applicationDetails.do?keyVal=7804626FUL&activeTab=summary|https://planning.bradford.gov.uk/online-applications/applicationDetails.do?keyVal=8401640COU&activeTab=summary|https://planning.bradford.gov.uk/online-applications/applicationDetails.do?keyVal=OUS7PMDH0LY00&activeTab=summary", "planning-permission-status": "not permissioned", "planning-permission-type": "", "point": "POINT(-1.904716 53.860637)", "site": "KY/012", "site-plan-url": "http://cbmdc.maps.arcgis.com/apps/webappviewer/index.html?id=2134938ccf5843649ef0e555c0926dae&extent=406339.8,440455.6,406400.2,440527.25,27700", "start-date": "2017-11-01", "id": "local-authority-eng/BRD/KY-012"}}