{"type": "Feature", "geometry": {"type": "Point", "coordinates": [-3.52586, 50.4619]}, "properties": {"resource": "34240c200237cd3ba15eb0bd8feb8ac18a4c76afa82d08d6c88bc87f560a099b", "site-address": "59 Rock Road, Torquay", "deliverable": "yes", "end-date": "", "entry-date": "2017-12-20", "hazardous-substances": "", "hectares": "0.07", "maximum-net-dwellings": "10", "minimum-net-dwellings": "10", "notes": "P/2014/0634 expired", "organisation": "local-authority-eng:TOB", "ownership-status": "not owned by a public authority", "planning-permission-date": "", "planning-permission-history": "", "planning-permission-status": "not permissioned", "planning-permission-type": "", "point": "POINT(-3.52586 50.4619)", "site": "R792", "site-plan-url": "http://torbay.addresscafe.com/app/exploreit/default.aspx", "start-date": "2016-06-24", "id": "34240c200237cd3ba15eb0bd8feb8ac18a4c76afa82d08d6c88bc87f560a099b:31842"}}