{"type": "Feature", "geometry": {"type": "Point", "coordinates": [-2.768379, 53.541465]}, "properties": {"notes": "Site has a Local Development Order 2015/1327/LDO with the figure of 45 dwellings on the site.", "hectares": "2.56", "site": "WL005", "deliverable": "yes", "start-date": "2016-08-03", "organisation": "local-authority-eng:WLA", "planning-permission-history": "https://pa.westlancs.gov.uk/online-applications/applicationDetails.do?activeTab=summary&keyVal=O3GNU6RH00300", "ownership-status": "not owned by a public authority", "minimum-net-dwellings": "45", "site-address": "Site of Former Sports Centre, Digmoor Road, Skelmersdale", "point": "POINT(-2.768379 53.541465)", "planning-permission-type": "full planning permission", "planning-permission-status": "permissioned", "planning-permission-date": "2016-03-15", "name": "WL005", "maximum-net-dwellings": "45", "slug": "/brownfield-land/local-authority-eng/WLA/WL005", "entry-date": "2018-12-11"}}