{"type": "Feature", "geometry": {"type": "Point", "coordinates": [-0.096258, 51.576492]}, "properties": {"resource": "53ff7410d03797e7747d4df128ca450bbe808f4eacc79d0e2d18623ab4a99554", "site-address": "Arena Retail Park", "deliverable": "yes", "end-date": "", "entry-date": "", "hazardous-substances": "", "hectares": "5.5499999999999998", "maximum-net-dwellings": "539", "minimum-net-dwellings": "539", "notes": "", "organisation": "local-authority-eng:HRY", "ownership-status": "mixed ownership", "planning-permission-date": "", "planning-permission-history": "", "planning-permission-status": "", "planning-permission-type": "", "point": "POINT(-0.096258 51.576492)", "site": "17140075", "site-plan-url": "http://www.haringey.gov.uk/planning-and-building-control/planning/planning-policy/local-plan/local-plan-site-allocations-dpd", "start-date": "", "id": "53ff7410d03797e7747d4df128ca450bbe808f4eacc79d0e2d18623ab4a99554:40683"}}