{"type": "Feature", "geometry": {"type": "Point", "coordinates": [-2.011269, 53.455865]}, "properties": {"minimum-net-dwellings": "6", "site": "H-LONGDE-215", "site-plan-url": "https://www.tameside.gov.uk/planning/brownfieldregister/h-longde-215.pdf", "site-address": "White Hart 91, Market Street, Mottram, Hyde, SK14 6JQ", "point": "POINT(-2.011269 53.455865)", "ownership-status": "not owned by a public authority", "maximum-net-dwellings": "6", "planning-permission-history": "https://public.tameside.gov.uk/plan/f422planapp.asp", "hectares": "0.04", "notes": "Planning permission reference 15/00946/FUL. Construction has not commenced. Vacant public house located within Mottram-in-Longdendale Conservation Area.. Gross addition of 7 apartments. Loss of 1 apartment.", "planning-permission-type": "full planning permission", "planning-permission-status": "permissioned", "start-date": "2017-12-04", "organisation": "local-authority-eng:TAM", "deliverable": "yes", "name": "H-LONGDE-215", "planning-permission-date": "2016-01-28", "slug": "/brownfield-land/local-authority-eng/TAM/H-LONGDE-215", "entity": 496180, "entry-date": "2017-12-04"}}