{"type": "Feature", "geometry": {"type": "Point", "coordinates": [-1.938994, 49.900207]}, "properties": {"planning-permission-status": "Not permissioned", "site": "P/BLR/0080", "start-date": "2017-12-01", "minimum-net-dwellings": "6", "site-plan-url": "http://www.poole.gov.uk/brownfieldlandregister/", "hectares": "1.37", "maximum-net-dwellings": "6", "point": "POINT(-1.938994 49.900207)", "organisation": "local-authority-eng:POL", "name": "P/BLR/0080", "site-address": "Land off Wheelers Lane", "slug": "/brownfield-land/local-authority-eng/POL/P-BLR-0080", "entity": 490456, "entry-date": "2017-12-01"}}