{"type": "Feature", "geometry": {"type": "Point", "coordinates": [-0.040224, 51.381086]}, "properties": {"ownership-status": "not owned by a public authority", "hectares": "0.2", "planning-permission-history": "https://publicaccess3.croydon.gov.uk/online-applications/applicationDetails.do?keyVal=PJVYS3JLLI500&activeTab=summary", "planning-permission-type": "full planning permission", "maximum-net-dwellings": "9", "start-date": "2019-12-23", "site-plan-url": "https://publicaccess3.croydon.gov.uk/online-applications/applicationDetails.do?keyVal=PJVYS3JLLI500&activeTab=summary", "point": "POINT(-0.040224 51.381086)", "notes": "Demolition of the existing house and ancillary office and erection of a two-storey block of 4 flats and 5 three bedroom houses, provision of parking spaces, refuse sorage and cycle stores.. https://publicaccess3.croydon.gov.uk/online-applications/applicationDetails.do?keyVal=PJVYS3JLLI500&activeTab=summary", "planning-permission-status": "permissioned", "name": "18/06070/FUL", "planning-permission-date": "2019-03-22", "minimum-net-dwellings": "9", "site-address": "9a, Orchard Rise", "deliverable": "yes", "site": "18/06070/FUL", "organisation": "local-authority-eng:CRY", "slug": "/brownfield-land/local-authority-eng/CRY/18-06070-FUL", "entity": 480916, "entry-date": "2019-12-23", "end-date": "2020-12-23"}}