{"type": "Feature", "geometry": {"type": "Point", "coordinates": [-0.253404, 51.589647]}, "properties": {"point": "POINT(-0.253404 51.589647)", "minimum-net-dwellings": "34", "hectares": "1.632", "maximum-net-dwellings": "34", "ownership-status": "not owned by a public authority", "planning-permission-status": "permissioned", "site-address": "Land Behind Sheaveshill Court , The Hyde, London, NW9 6SJ", "organisation": "local-authority-eng:BNE", "name": "16/6222/FUL", "site-plan-url": "https://data.london.gov.uk/dataset/brownfield-land-register", "site": "16/6222/FUL", "start-date": "2019-11-26", "slug": "/brownfield-land/local-authority-eng/BNE/16-6222-FUL", "entry-date": "2020-11-16"}}