{"type": "Feature", "geometry": {"type": "Point", "coordinates": [-0.150058, 50.833972]}, "properties": {"resource": "4b2da6f47851f1d21956ad22a691dddd67406e2341d77b84629a4c674366611a", "site-address": "138 Dyke Road 35a Chatsworth Road Brighton", "deliverable": "", "end-date": "", "entry-date": "2017-09-28", "hazardous-substances": "", "hectares": "0.26", "maximum-net-dwellings": "20", "minimum-net-dwellings": "20", "notes": "", "organisation": "local-authority-eng:BNH", "ownership-status": "not owned by a public authority", "planning-permission-date": "", "planning-permission-history": "http://ww3.brighton-hove.gov.uk/index.cfm?request=c1199915&action=showDetail&APPLICATION_NUMBER=BH2002%2F00836%2FFP|http://ww3.brighton-hove.gov.uk/index.cfm?request=c1199915&action=showDetail&APPLICATION_NUMBER=BH2002%2F02393%2FOA|", "planning-permission-status": "not permissioned", "planning-permission-type": "", "point": "POINT(-0.150058 50.833972)", "site": "SHLAA0264", "site-plan-url": "https://www.brighton-hove.gov.uk/sites/brighton-hove.gov.uk/files/SHLAA0264%20138%20Dyke%20Road%2035a%20Chatsworth%20Road%20Brighton.pdf", "start-date": "2017-09-28", "id": "4b2da6f47851f1d21956ad22a691dddd67406e2341d77b84629a4c674366611a:16580"}}