{"type": "Feature", "geometry": {"type": "Point", "coordinates": [1.18865, 51.086034]}, "properties": {"resource": "03c7a1f30e458d43019c33bf16f050650c7e109a833fa57076a660fad9c02bf4", "site-address": "East Station Goods Yard, Southern Way, Folkestone, Kent", "deliverable": "", "end-date": "", "entry-date": "2018-05-22", "hazardous-substances": "", "hectares": "1.25", "maximum-net-dwellings": "41", "minimum-net-dwellings": "41", "notes": "", "organisation": "local-authority-eng:SHE", "ownership-status": "Not owned by a public authority", "planning-permission-date": "", "planning-permission-history": "", "planning-permission-status": "Permitted Planning ref Y14/0928/SH", "planning-permission-type": "", "point": "POINT(1.18865 51.086034)", "site": "UA1", "site-plan-url": "", "start-date": "", "id": "local-authority-eng/SHE/UA1"}}