{"type": "Feature", "geometry": {"type": "Point", "coordinates": [-5.741, 54.35]}, "properties": {"resource": "522d1668b78b6dfa64d64fc689c6e2d3fc9c90e0ac857755e1949e33294ffae9", "site-address": "Ian Allan Motors, 63-65, High Street, Old Woking, GU22 9JN", "deliverable": "", "end-date": "", "entry-date": "2017-12-20", "hazardous-substances": "yes", "hectares": "0.28", "maximum-net-dwellings": "11", "minimum-net-dwellings": "11", "notes": "PLAN/2017/0153 pending decision. Visible contamination sources - existing use & adjacent petrol station. In this case, the min net dwellings is based on indicative density from the SHLAA Methodology 2017 Appendix 4 rather than the pending planning application.. Outline planning application (reserving matters of appearance and landscaping) for the demolition of all existing buildings and erection of 1No. part four, part three storey building, 1No. part three, part two storey building and the erection of 1No. two storey terrace, providing 24No. residential units (7No. 1 bedroom units, 8No. 2 bedroom units and 9No. 3 bedroom units) together with car parking, landscaping and incidental works (amended proposed site plan and flood risk assessment received 20.09.2017).", "organisation": "local-authority-eng:WOI", "ownership-status": "not owned by a public authority", "planning-permission-date": "", "planning-permission-history": "https://www.woking.gov.uk/planning/publicaccess", "planning-permission-status": "pending decision", "planning-permission-type": "", "point": "POINT(-5.741 54.35)", "site": "SHLAAHOE15", "site-plan-url": "http://www.woking2027.info/ldfregisters", "start-date": "2017-12-20", "id": "522d1668b78b6dfa64d64fc689c6e2d3fc9c90e0ac857755e1949e33294ffae9:18893"}}