{"type": "Feature", "geometry": {"type": "Point", "coordinates": [-0.085661, 51.467577]}, "properties": {"resource": "69584001774ee43f8bc3e6df5517c2b8eb3109bcb6db5e1e5103e9ff594f2c22", "site-address": "141 Grove Lane SE5 8BG", "deliverable": "yes", "end-date": "", "entry-date": "2017-12-20", "hazardous-substances": "", "hectares": "0.03", "maximum-net-dwellings": "0", "minimum-net-dwellings": "0", "notes": "Demolition of existing single storey garage and construction of a new 2 storey dwelling onto Stories Mews; refurbishment of the front elevation of main dwelling including repairs to render, replacement windows and partial excavation of the front garden,", "organisation": "local-authority-eng:SWK", "ownership-status": "", "planning-permission-date": "2017-01-06", "planning-permission-history": "", "planning-permission-status": "permissioned", "planning-permission-type": "full planning permission", "point": "POINT(-0.085661 51.467577)", "site": "16-AP-4473", "site-plan-url": "", "start-date": "2017-12-20", "id": "69584001774ee43f8bc3e6df5517c2b8eb3109bcb6db5e1e5103e9ff594f2c22:27184"}}