{"type": "Feature", "geometry": {"type": "Point", "coordinates": [-2.239753, 51.740309]}, "properties": {"resource": "4a10af24fbc0983c63537d0875f5666f9d6f4cb7c41570745354abc974faca53", "site-address": "Dudbridge Industrial Estate Dudbridge Road Stroud", "deliverable": "yes", "end-date": "", "entry-date": "2019-12-01", "hazardous-substances": "", "hectares": "0.18", "maximum-net-dwellings": "130", "minimum-net-dwellings": "130", "notes": "CAINSCROSS|Residential development of up to 130 dwellings", "organisation": "local-authority-eng:STO", "ownership-status": "not owned by a public authority", "planning-permission-date": "2018-05-25", "planning-permission-history": "https://publicaccess.stroud.gov.uk/online-applications/search.do?action=simple&searchType=Application&searchCriteria.caseStatus=All&searchCriteria.simpleSearchString=S.17/1987/OUT", "planning-permission-status": "permissioned", "planning-permission-type": "outline planning permission", "point": "POINT(-2.239753 51.740309)", "site": "BR068", "site-plan-url": "https://stroud.maps.arcgis.com/apps/webappviewer/index.html?id=ce9765b5b8614d88a86d7126329fc614&marker=-2.2397531,51.740309&level=17", "start-date": "2018-12-10", "id": "4a10af24fbc0983c63537d0875f5666f9d6f4cb7c41570745354abc974faca53:16381"}}