{"type": "Feature", "geometry": {"type": "Point", "coordinates": [-3.003346, 53.644748]}, "properties": {"start-date": "2019-11-01", "site": "S0271", "site-plan-url": "http://maps.sefton.gov.uk/webmaplayers/?x=333773&y=416932&resolution=0.2&epsg=27700&mapname=smbc&baseLayer=ColourMapping&datalayers=Sefton%20Boundary%2CBrownfield%20Land%20Register%202020%2CselectFeaturesControl_container", "hectares": "0.15", "notes": "Expired permission.. Commercial buildings on the edge of Southport Town Centre.", "organisation": "local-authority-eng:SFT", "maximum-net-dwellings": "0", "deliverable": "yes", "minimum-net-dwellings": "0", "point": "POINT(-3.003346 53.644748)", "ownership-status": "not owned by a public authority", "site-address": "Land to the rear of 91-97B, Eastbank Street, Southport", "planning-permission-status": "Not permissioned", "name": "S0271", "slug": "/brownfield-land/local-authority-eng/SFT/S0271", "entity": 492797, "entry-date": "2021-05-10"}}