{"type": "Feature", "geometry": {"type": "Point", "coordinates": [1.086727, 51.277082]}, "properties": {"resource": "da787466995e063f8e2c510c82b805cd1e28e229227540cc63287abe00bd2a18", "site-address": "Builders Yard and, 14 Ivy Lane, Canterbury", "deliverable": "yes", "end-date": "", "entry-date": "2019-12-09", "hazardous-substances": "", "hectares": "0.07", "maximum-net-dwellings": "6", "minimum-net-dwellings": "6", "notes": "Proposed six two-storey dwellings following the demolition of storage/office buildings.", "organisation": "local-authority-eng:CAT", "ownership-status": "", "planning-permission-date": "2018-07-03", "planning-permission-history": "", "planning-permission-status": "permissioned", "planning-permission-type": "full planning permission", "point": "POINT(1.086727 51.277082)", "site": "BR-100", "site-plan-url": "https://mapping.canterbury.gov.uk/webapps/Brownfield_Sites/?center=615380,157629,27700&scale=500", "start-date": "2018-11-01", "id": "da787466995e063f8e2c510c82b805cd1e28e229227540cc63287abe00bd2a18:58032"}}