{"type": "Feature", "geometry": {"type": "Point", "coordinates": [-2.236517, 53.469968]}, "properties": {"organisation": "local-authority-eng:MAN", "planning-permission-date": "2017-01-25", "maximum-net-dwellings": "8", "site": "114127/P3OPA/2016", "planning-permission-type": "full planning permission", "minimum-net-dwellings": "8", "start-date": "2017-12-31", "point": "POINT(-2.236517 53.469968)", "site-address": "First and second floors, Tresco House 149 Oxford Road", "planning-permission-status": "permissioned", "site-plan-url": "https://mappinggm.org.uk/gmodin/?lyrs=brownfield_2019_gm#os_maps_light/18/53.469968/-2.236517", "notes": "Prior approval application for change of use of first and second floors from office use (Use Class B1a) to 8 residential apartments", "deliverable": "yes", "planning-permission-history": "http://pa.manchester.gov.uk/online-applications/", "name": "114127/P3OPA/2016", "hectares": "0.048208", "slug": "/brownfield-land/local-authority-eng/MAN/114127-P3OPA-2016", "entry-date": "2019-12-31"}}