{"type": "Feature", "geometry": {"type": "Point", "coordinates": [-1.592839, 51.765718]}, "properties": {"resource": "bb8825b3548ccf7cdf1f2a6170d4b465b6a5d7475272a3251acbcd794a7751be", "site-address": "Carterton Petrol Station and Former Osprey Public House, Upavon Way, Carterton", "deliverable": "", "end-date": "", "entry-date": "2017-12-17", "hazardous-substances": "yes", "hectares": "0.8", "maximum-net-dwellings": "42", "minimum-net-dwellings": "42", "notes": "Permission granted for residential development but not implemented. Residential development. ", "organisation": "local-authority-eng:WOX", "ownership-status": "not owned by a public authority", "planning-permission-date": "2010-10-05", "planning-permission-history": "http://publicaccess.westoxon.gov.uk/online-applications/applicationDetails.do?activeTab=documents&keyVal=ZZZULURKTA094", "planning-permission-status": "permissioned", "planning-permission-type": "outline planning permission", "point": "POINT(-1.592839 51.765718)", "site": "BR2", "site-plan-url": "http://my.westoxon.gov.uk/mwo.aspx?MapSource=WOxford/AllMaps&StartEasting=428195&StartNorthing=207527&StartZoom=250&o=1&Layers=Brownfield_Sites_WODC", "start-date": "2017-12-17", "id": "bb8825b3548ccf7cdf1f2a6170d4b465b6a5d7475272a3251acbcd794a7751be:5032"}}