{"type": "Feature", "geometry": {"type": "Point", "coordinates": [-2.690849, 54.629445]}, "properties": {"resource": "941cb9ebdf1a917696f8d29d9c0e6411590469e5ccff664a8c33d714f3cd8b14", "site-address": "Land at Wetheriggs Pottery, Clifton Dykes, Penrith CA10 2DH", "deliverable": "yes", "end-date": "", "entry-date": "2019-10-20", "hazardous-substances": "", "hectares": "1.6", "maximum-net-dwellings": "5", "minimum-net-dwellings": "5", "notes": "", "organisation": "local-authority-eng:EDN", "ownership-status": "not owned by a public authority", "planning-permission-date": "", "planning-permission-history": "", "planning-permission-status": "", "planning-permission-type": "", "point": "POINT(-2.690849 54.629445)", "site": "17/CDY/0146", "site-plan-url": "http://my.eden.gov.uk/myeden.aspx?MapSource=EDC/MyMapsEden&SearchLayer=Brownfield_Sites&SearchField=alt_site_reference&SearchValue=17/CDY/0146", "start-date": "", "id": "17-CDY-0146"}}