{"type": "Feature", "geometry": {"type": "Point", "coordinates": [-1.585596, 53.68839]}, "properties": {"planning-permission-date": "2016-10-07", "notes": "16/01301/FUL. Construction of 12No dwellings and associated infrastructure", "site-address": "73 Church Street/Hirstlands Drive, Ossett", "maximum-net-dwellings": "12", "name": "BLR17076", "organisation": "local-authority-eng:WKF", "hectares": "0.42", "deliverable": "yes", "planning-permission-type": "full planning permission", "planning-permission-status": "permissioned", "start-date": "2017-12-31", "site-plan-url": "http://map.wakefield.gov.uk/connect/analyst/?mapcfg=BLregister&x=427465&y=421404&zoom=10", "point": "POINT(-1.585596 53.68839)", "site": "BLR17076", "planning-permission-history": "https://planning.wakefield.gov.uk/online-applications/applicationDetails.do?activeTab=summary&keyVal=O7Q9J1QQ01T00", "minimum-net-dwellings": "12", "slug": "/brownfield-land/local-authority-eng/WKF/BLR17076", "entity": 498067, "entry-date": "2017-12-31"}}