{"type": "Feature", "geometry": {"type": "Point", "coordinates": [-1.575505, 50.818959]}, "properties": {"resource": "937c9a1bdda7b0712aae5e088d8ff062a89fc2b9d70b8bcf06c0f4e03d50e6b9", "site-address": "Lloyds Tsb, Sway Road, Brockenhurst, SO42 7ZH", "deliverable": "yes", "end-date": "31/03/2020", "entry-date": "2020-12-09", "hazardous-substances": "", "hectares": "0.06", "maximum-net-dwellings": "", "minimum-net-dwellings": "", "notes": "Change of use to dental practice; 2 flats; Internal alterations", "organisation": "national-park-authority:Q72617158", "ownership-status": "not owned by a public authority", "planning-permission-date": "2017-03-21", "planning-permission-history": "", "planning-permission-status": "permissioned", "planning-permission-type": "full planning permission", "point": "POINT(-1.575505 50.818959)", "site": "BFS16", "site-plan-url": "https://www.newforestnpa.gov.uk/planning/brownfield-sites-register/", "start-date": "2017-12-20", "id": "937c9a1bdda7b0712aae5e088d8ff062a89fc2b9d70b8bcf06c0f4e03d50e6b9:41177"}}