{"type": "Feature", "geometry": {"type": "Point", "coordinates": [-1.876546, 53.715455]}, "properties": {"name": "BLR184", "maximum-net-dwellings": "18", "planning-permission-date": "2019-12-20", "hectares": "0.04", "notes": "19/00595/CON - Conversion of former chapel to 18 apartments. Granted 20.12.19", "site": "BLR184", "deliverable": "yes", "planning-permission-history": "https://portal.calderdale.gov.uk/online-applications/search.do?action=advanced", "minimum-net-dwellings": "18", "organisation": "local-authority-eng:CLD", "site-plan-url": "https://maps.calderdale.gov.uk/map/Aurora.svc/run?script=%5CAurora%5CScripts%5CBrownfield%20Land%20Register%202020.AuroraScript%24&nocache=b3a8172e-c9", "point": "POINT(-1.876546 53.715455)", "planning-permission-status": "permissioned", "start-date": "2020-05-31", "ownership-status": "not owned by a public authority", "site-address": "Trafalgar Works, 49 Haugh Shaw Road, Savile Park, Halifax. HX1 3AR", "planning-permission-type": "full planning permission", "slug": "/brownfield-land/local-authority-eng/CLD/BLR184", "entry-date": "2020-05-31"}}