{"type": "Feature", "geometry": {"type": "Point", "coordinates": [-3.079274, 52.10108]}, "properties": {"notes": "Erection of dwelling on site of part built commercial buidling", "planning-permission-type": "full planning permission", "organisation": "local-authority-eng:HEF", "site-address": "Part OS 1330, The Garlands, Priory Wood, Clifford, Herefordshire", "name": "142860", "planning-permission-date": "2015-10-20", "planning-permission-status": "permissioned", "point": "POINT(-3.079274 52.10108)", "site-plan-url": "https://www.herefordshire.gov.uk/info/200142/planning_services/planning_application_search/details?id=142860", "site": "142860", "hectares": "0", "slug": "/brownfield-land/local-authority-eng/HEF/142860", "entry-date": "2020-01-07"}}