{"type": "Feature", "geometry": {"type": "Point", "coordinates": [-2.262822, 53.475126]}, "properties": {"planning-permission-type": "full planning permission", "planning-permission-history": "http://pa.manchester.gov.uk/online-applications/", "notes": "Erection of a 28 storey building comprising 301 apartments (Use Class C3), 6 town houses (Use Class C3), ground floor commercial units (Use Classes A1, A2, B1, D1 or D2), two levels of basement car parking, landscape and public realm works, and associate", "minimum-net-dwellings": "307", "site-address": "1 Water Street Manchester M3 4JU", "site": "105611/FO/2014/C1", "planning-permission-status": "permissioned", "planning-permission-date": "2014-10-31", "name": "105611/FO/2014/C1", "start-date": "2017-12-31", "deliverable": "yes", "site-plan-url": "https://mappinggm.org.uk/gmodin/", "hectares": "0.45", "point": "POINT(-2.262822 53.475126)", "organisation": "local-authority-eng:MAN", "maximum-net-dwellings": "307", "slug": "/brownfield-land/local-authority-eng/MAN/105611-FO-2014-C1", "entry-date": "2017-12-31"}}