{"type": "Feature", "geometry": {"type": "Point", "coordinates": [-1.55227, 54.9733]}, "properties": {"site-plan-url": "https://www.newcastle.gov.uk/sites/default/files/wwwfileroot/planning-and-buildings/planning-policy/brownfield_register_map-18122017.pdf", "site": "4732", "organisation": "local-authority-eng:NET", "point": "POINT(-1.55227 54.9733)", "minimum-net-dwellings": "2", "name": "4732", "planning-permission-status": "Not Permissioned", "ownership-status": "not owned by a public authority", "site-address": "Site of 2-4 Hexham Avenue, Walker", "maximum-net-dwellings": "5", "hectares": "0.05", "start-date": "2017-12-19", "slug": "/brownfield-land/local-authority-eng/NET/4732", "entry-date": "2017-12-19"}}