{"type": "Feature", "geometry": {"type": "Point", "coordinates": [-1.994466, 49.900223]}, "properties": {"name": "P/BLR/0071", "organisation": "local-authority-eng:POL", "point": "POINT(-1.994466 49.900223)", "ownership-status": "owned by a public authority", "hectares": "4.67", "minimum-net-dwellings": "40", "site-address": "Hillbourne", "start-date": "2017-12-01", "site-plan-url": "http://www.poole.gov.uk/brownfieldlandregister/", "maximum-net-dwellings": "40", "site": "P/BLR/0071", "planning-permission-status": "Not permissioned", "slug": "/brownfield-land/local-authority-eng/POL/P-BLR-0071", "entity": 490447, "entry-date": "2018-12-01"}}