{"type": "Feature", "geometry": {"type": "Point", "coordinates": [-0.274157, 51.544644]}, "properties": {"resource": "d79c490435b91e86940c51deec9f84dad387fabca909dfeddf4f478c7b737ab5", "site-address": "Wembley Point, 1 Harrow Road, Wembley, HA9 6DE", "deliverable": "yes", "end-date": "", "entry-date": "2017-12-15", "hazardous-substances": "", "hectares": "0.92", "maximum-net-dwellings": "382", "minimum-net-dwellings": "382", "notes": "Change of use floors 2nd to 20th (excluding part of 6th and 8th floors) and part of 21st floor from office (Use class B1a) to residential (Use class C3) involving the creation of 382 x studios", "organisation": "local-authority-eng:BEN", "ownership-status": "not owned by a public authority", "planning-permission-date": "2017-01-11", "planning-permission-history": "https://pa.brent.gov.uk/online-applications/propertyDetails.do?activeTab=relatedCases&keyVal=PROPLPI_202152983_1", "planning-permission-status": "permissioned", "planning-permission-type": "full planning permission", "point": "POINT(-0.274157 51.544644)", "site": "BR00010", "site-plan-url": "https://maps.london.gov.uk/brownfield-site-register", "start-date": "2017-12-15", "id": "d79c490435b91e86940c51deec9f84dad387fabca909dfeddf4f478c7b737ab5:31673"}}