{"type": "Feature", "geometry": {"type": "Point", "coordinates": [-1.004295, 54.078986]}, "properties": {"minimum-net-dwellings": "10", "organisation": "local-authority-eng:RUS", "start-date": "2017-12-11", "site-address": "Pedigree Wholesale, The Crescent, Radcliffe on Trent", "notes": "Suggested number of dwellings from SHLAA: 15. 10-15 residential dwellings as defined in a pre application for the site", "site-plan-url": "http://www.rushcliffe.gov.uk/media/1rushcliffe/media/documents/pdf/planningandbuilding/planningpolicy/brownfieldregister/860.pdf", "hectares": "0.5", "point": "POINT(-1.004295 54.078986)", "name": "SHLAA860", "planning-permission-history": "https://planningon-line.rushcliffe.gov.uk/online-applications/propertyDetails.do?activeTab=relatedCases&keyVal=IP83JWNLD7000", "planning-permission-status": "not permissioned", "site": "SHLAA860", "maximum-net-dwellings": "15", "ownership-status": "not owned by a public authority", "deliverable": "yes", "slug": "/brownfield-land/local-authority-eng/RUS/SHLAA860", "entry-date": "2017-12-12"}}