{"type": "Feature", "geometry": {"type": "Point", "coordinates": [-1.82569, 51.5654]}, "properties": {"planning-permission-status": "permissioned", "name": "S0335", "planning-permission-type": "reserved matters approval", "site-plan-url": "https://maps.swindon.gov.uk/sbc_soloexpanded.htm", "site": "S0335", "notes": "54 dwellings built, 16 residual. Erection of 70no. residential units - Reserved Matters from previous outline permission S/OUT/14/0568.", "hectares": "1.83", "organisation": "local-authority-eng:SWD", "deliverable": "yes", "start-date": "2017-12-21", "planning-permission-history": "http://pa1.swindon.gov.uk/publicaccess/caseDetails.do?caseType=Application&keyVal=NSE8XQPT97000", "minimum-net-dwellings": "16", "maximum-net-dwellings": "16", "point": "POINT(-1.82569 51.5654)", "site-address": "Westlea Campus, Chelmsford Road, Eastleaze", "ownership-status": "not owned by a public authority", "planning-permission-date": "2016-03-10", "slug": "/brownfield-land/local-authority-eng/SWD/S0335", "entry-date": "2017-12-21"}}