{"type": "Feature", "geometry": {"type": "Point", "coordinates": [-2.609682, 53.536822]}, "properties": {"start-date": "2017-07-01", "name": "SHLAA0098", "notes": "Wigan Council ownership", "maximum-net-dwellings": "96", "site-address": "Council depot, Christopher Street, Ince", "ownership-status": "owned by a public authority", "minimum-net-dwellings": "96", "site-plan-url": "https://www.arcgis.com/apps/webappviewer/index.html?id=4c4af404cd73491b8cf8dba6fc465395&query=Wigan_Brownfield_2017_Rev_A_9008_0,SITEREF,SHLAA0098", "hectares": "0.916026", "site": "SHLAA0098", "planning-permission-status": "Not permissioned", "planning-permission-history": "https://wigan.maps.arcgis.com/apps/webappviewer/index.html?id=ce2e56afe2ad411bacfa8cb6706f8f84&extent=359389.806377,404786.639679,359989.806377,404486.639679,27700", "organisation": "local-authority-eng:WGN", "point": "POINT(-2.609682 53.536822)", "slug": "/brownfield-land/local-authority-eng/WGN/SHLAA0098", "entity": 497672, "entry-date": "2018-11-01"}}