{"type": "Feature", "geometry": {"type": "Point", "coordinates": [0.083864, 51.577475]}, "properties": {"site-plan-url": "https://my.redbridge.gov.uk/map/brownfield-land-register/BRLBR0113", "site": "BRLBR0113", "planning-permission-history": "http://planning.redbridge.gov.uk/swiftlg/apas/run/wphappcriteria.display", "site-address": "134 Horns Road, Barkingside", "point": "POINT(0.083864 51.577475)", "maximum-net-dwellings": "4", "deliverable": "yes", "start-date": "2019-07-12", "notes": "Approved Planning Application - 1319/16 - Local Plan allocation site number: 157", "name": "BRLBR0113", "hectares": "0.12", "planning-permission-status": "permissioned", "minimum-net-dwellings": "4", "organisation": "local-authority-eng:RDB", "slug": "/brownfield-land/local-authority-eng/RDB/BRLBR0113", "entity": 491092, "entry-date": "2019-07-12"}}