{"type": "Feature", "geometry": {"type": "Point", "coordinates": [-1.027065, 51.451918]}, "properties": {"deliverable": "yes", "planning-permission-status": "permissioned", "name": "BL4006", "minimum-net-dwellings": "44", "notes": "Permission 161390 under construction at 31/03/2019. Residential development comprising 57 dwellings, vehicular, cycle and pedestrian access, parking, and hard and soft landscaping and open space at land off Conwy Close.", "planning-permission-date": "2016-12-15", "maximum-net-dwellings": "44", "start-date": "2017-12-15", "site": "BL4006", "hectares": "1.04", "organisation": "local-authority-eng:RDG", "site-plan-url": "https://www.reading.gov.uk/media/8108/Brownfield-Register-Maps-BL4001-4025/pdf/Brownfield_Land_Register_Maps_2019_4001_to_4025.pdf", "site-address": "Land at Conwy Close, Tilehurst, Reading", "ownership-status": "owned by a public authority", "planning-permission-type": "full planning permission", "slug": "/brownfield-land/local-authority-eng/RDG/BL4006", "entry-date": "2019-12-16", "point": "POINT(-1.027065 51.451918)"}}