{"type": "Feature", "geometry": {"type": "Point", "coordinates": [-1.742152, 52.512747]}, "properties": {"resource": "723447ef60611babd812113719b6e97c72385682965dde7223794e96e3a8dd22", "site-address": "Water Orton Primary School, Attleborough Lane, Water Orton", "deliverable": "yes", "end-date": "", "entry-date": "2018-12-13", "hazardous-substances": "", "hectares": "2.8", "maximum-net-dwellings": "48", "minimum-net-dwellings": "48", "notes": "The land is allocated for residential development within the Submission Local Plan, reference H21", "organisation": "local-authority-eng:NWA", "ownership-status": "owned by a public authority", "planning-permission-date": "", "planning-permission-history": "", "planning-permission-status": "not permissioned", "planning-permission-type": "", "point": "POINT(-1.742152 52.512747)", "site": "BFR004", "site-plan-url": "", "start-date": "2018-12-13", "id": "723447ef60611babd812113719b6e97c72385682965dde7223794e96e3a8dd22:30958"}}