{"type": "Feature", "geometry": {"type": "Point", "coordinates": [-2.710056, 51.158507]}, "properties": {"resource": "f5b23d2fa5322a83c1f738ac4f64e6926c0377bc0756ce42233ae8b4fb958b89", "site-address": "Avalon Motors, Wells Road, Glastonbury", "deliverable": "", "end-date": "", "entry-date": "2017-12-20", "hazardous-substances": "", "hectares": "0.15", "maximum-net-dwellings": "5", "minimum-net-dwellings": "5", "notes": "Garage - alternative site has consent. Housing site allocated in draft Local Plan Part 2 (site allocations document).", "organisation": "local-authority-eng:MEN", "ownership-status": "not owned by a public authority", "planning-permission-date": "", "planning-permission-history": "", "planning-permission-status": "not permissioned", "planning-permission-type": "", "point": "POINT(-2.710056 51.158507)", "site": "GLAS001a", "site-plan-url": "http://www.mendip.gov.uk/land", "start-date": "2017-12-20", "id": "f5b23d2fa5322a83c1f738ac4f64e6926c0377bc0756ce42233ae8b4fb958b89:65084"}}