{"type": "Feature", "geometry": {"type": "Point", "coordinates": [-1.538328, 52.436054]}, "properties": {"minimum-net-dwellings": "12", "site-address": "The Grange Children's Home, Waste Lane", "maximum-net-dwellings": "12", "site": "H2:25", "hectares": "1.8", "name": "H2:25", "notes": "Site is currently occupied as a children's care home. Given its position within the GB and its heritage status a conversion opportunity is likely to be most suitable. There may be scope for small extensions and new build additions.", "organisation": "local-authority-eng:COV", "planning-permission-status": "not permissioned", "site-plan-url": "http://www.coventry.gov.uk/downloads/file/25899/final_local_plan_december_2025", "point": "POINT(-1.538328 52.436054)", "deliverable": "yes", "slug": "/brownfield-land/local-authority-eng/COV/25", "entity": 480471, "entry-date": "2019-11-30"}}