{"type": "Feature", "geometry": {"type": "Point", "coordinates": [-0.089127, 51.490611]}, "properties": {"resource": "69584001774ee43f8bc3e6df5517c2b8eb3109bcb6db5e1e5103e9ff594f2c22", "site-address": "Dawes House Rodney Estate Orb Street SE17 1RD", "deliverable": "yes", "end-date": "", "entry-date": "2017-12-20", "hazardous-substances": "", "hectares": "0.02", "maximum-net-dwellings": "0", "minimum-net-dwellings": "0", "notes": "Conversion of 3 No. separate laundry spaces into habitable accommodation on the first, second and third floors of Dawes House.", "organisation": "local-authority-eng:SWK", "ownership-status": "", "planning-permission-date": "2017-02-10", "planning-permission-history": "", "planning-permission-status": "permissioned", "planning-permission-type": "full planning permission", "point": "POINT(-0.089127 51.490611)", "site": "16-AP-4981", "site-plan-url": "", "start-date": "2017-12-20", "id": "69584001774ee43f8bc3e6df5517c2b8eb3109bcb6db5e1e5103e9ff594f2c22:27195"}}