{"type": "Feature", "geometry": {"type": "Point", "coordinates": [-0.712896, 51.246881]}, "properties": {"resource": "88eb3cd04c8494a5f2277aa0c422c2b70ba8d256d2bdbada175e6383e8a75857", "site-address": "Foreman Manor, Foreman Road, Ash, Guildford, GU12 6HE", "deliverable": "yes", "end-date": "", "entry-date": "2017-09-27", "hazardous-substances": "", "hectares": "0.26", "maximum-net-dwellings": "6", "minimum-net-dwellings": "6", "notes": "Application ref. 16/P/02133. Erection of 9 dwellings following the demolition of Foreman Manor", "organisation": "local-authority-eng:GRT", "ownership-status": "not owned by a public authority", "planning-permission-date": "2016-01-27", "planning-permission-history": "http://www2.guildford.gov.uk/publicaccess/applicationDetails.do?activeTab=documents&keyVal=_GUILD_DCAPR_173966", "planning-permission-status": "permissioned", "planning-permission-type": "full planning permission", "point": "POINT(-0.712896 51.246881)", "site": "BFLR2017_002", "site-plan-url": "https://www.guildford.gov.uk/media/26678/Foreman-Manor-Foreman-Road-Ash-Guildford-GU12-6HE/pdf/BFLR2017_002", "start-date": "2017-09-27", "id": "BFLR2017_002"}}