{"type": "Feature", "geometry": {"type": "Point", "coordinates": [-0.591331, 51.513292]}, "properties": {"resource": "ea0c72de28fa2181f7a4bb172b542a89631bd6aa439f40c1a699d2a71dc659d6", "site-address": "Mill Street South", "deliverable": "", "end-date": "", "entry-date": "2018-12-13", "hazardous-substances": "", "hectares": "3.38", "maximum-net-dwellings": "50", "minimum-net-dwellings": "50", "notes": "oth141. Residential/mixed use. http://webarchive.nationalarchives.gov.uk/20140328084622/http://publications.environment-agency.gov.uk/pdf/SCHO0195BJJX-e-e.pdf|http://webarchive.nationalarchives.gov.uk/20140328084622/http://publications.environment-agency.gov.uk/pdf/SCHO0195BJKQ-e-e.pdf|http://webarchive.nationalarchives.gov.uk/20140328084622/http://publications.environment-agency.gov.uk/pdf/SCHO0195BJKT-e-e.pdf|http://webarchive.nationalarchives.gov.uk/20140328084622/http://publications.environment-agency.gov.uk/pdf/SCHO0195BJKO-e-e.pdf", "organisation": "local-authority-eng:SLG", "ownership-status": "mixed ownership", "planning-permission-date": "", "planning-permission-history": "", "planning-permission-status": "not permissioned", "planning-permission-type": "", "point": "POINT(-0.591331 51.513292)", "site": "br77", "site-plan-url": "http://www.slough.gov.uk/downloads/slough_brownfield_land_register_site_br77.pdf", "start-date": "2018-12-13", "id": "ea0c72de28fa2181f7a4bb172b542a89631bd6aa439f40c1a699d2a71dc659d6:62275"}}