{"type": "Feature", "geometry": {"type": "Point", "coordinates": [-0.130714, 50.822296]}, "properties": {"resource": "6cd0ed46a9a905307ff30d8b99fc5ca8b6e1dceb4f3b4f3c30a2b2949d9ddbc3", "site-address": "Brighton Youth Centre 64 Edward Street Grosvenor Place", "deliverable": "", "end-date": "", "entry-date": "2018-10-23", "hazardous-substances": "", "hectares": "0.07", "maximum-net-dwellings": "11", "minimum-net-dwellings": "11", "notes": "Eastern Street/Edward Street Development Area. Possible ownership constraints. Site protected under policy HO20. Community use to be incorpoated into new development", "organisation": "local-authority-eng:BNH", "ownership-status": "not owned by a public authority", "planning-permission-date": "", "planning-permission-history": "", "planning-permission-status": "not permissioned", "planning-permission-type": "", "point": "POINT(-0.130714 50.822296)", "site": "SHLAA0028", "site-plan-url": "https://www.brighton-hove.gov.uk/sites/brighton-hove.gov.uk/files/SHLAA0028%20Brighton%20Youth%20Centre%2064%20Edward%20Street%20Grosvenor%20Place.pdf", "start-date": "2017-09-26", "id": "6cd0ed46a9a905307ff30d8b99fc5ca8b6e1dceb4f3b4f3c30a2b2949d9ddbc3:29564"}}