{"type": "Feature", "geometry": {"type": "Point", "coordinates": [-1.535064, 54.534139]}, "properties": {"site-plan-url": "http://www.darlington.gov.uk/brownfieldlandregister", "organisation": "local-authority-eng:DAL", "start-date": "2017-11-22", "site-address": "213-221 Haughton Road", "site": "33", "notes": "Erection of 13 residential units in outline", "minimum-net-dwellings": "12", "planning-permission-status": "pending decision", "ownership-status": "not owned by a public authority", "hectares": "0.42", "deliverable": "yes", "name": "33", "point": "POINT(-1.535064 54.534139)", "maximum-net-dwellings": "12", "planning-permission-history": "http://www.darlington.gov.uk/environment-and-planning/planning/planning-applications-and-permission/view-planning-applications-online/", "slug": "/brownfield-land/local-authority-eng/DAL/33", "entry-date": "2017-11-22"}}