{"type": "Feature", "geometry": {"type": "Point", "coordinates": [-0.175905, 51.464365]}, "properties": {"planning-permission-date": "2018-08-01", "planning-permission-type": "full planning permission", "hectares": "0.33", "name": "WBR/19/0056", "site-plan-url": "https://maps.wandsworth.gov.uk/map/Aurora.svc/run?script=%5cAurora%5cpublic_Brownfield_Sites.AuroraScript%24&nocache=614915663&resize=always", "minimum-net-dwellings": "139", "ownership-status": "owned by a public authority", "planning-permission-status": "permissioned", "start-date": "2019-03-31", "planning-permission-history": "https://planning1.wandsworth.gov.uk/Northgate/PlanningExplorer/DisplayAppDetails.aspx?AppNo=2017/6864", "maximum-net-dwellings": "139", "deliverable": "yes", "organisation": "local-authority-eng:WND", "site": "WBR/19/0056", "point": "POINT(-0.175905 51.464365)", "site-address": "Land north of Grant road incl parcels of land on c/o Plough/Winstanley, Grant Road", "slug": "/brownfield-land/local-authority-eng/WND/WBR-19-0056", "entry-date": "2019-03-31"}}