{"type": "Feature", "geometry": {"type": "Point", "coordinates": [-3.004631, 53.292689]}, "properties": {"resource": "a28ab5b077b2881b307a9055ca692b548784af55fdeb821da957363d6d356d6b", "site-address": "Land at Hooton Road, Willaston, Neston, CH64 1SJ", "deliverable": "", "end-date": "", "entry-date": "2017-12-21", "hazardous-substances": "", "hectares": "0.25", "maximum-net-dwellings": "7", "minimum-net-dwellings": "7", "notes": "Residential development", "organisation": "local-authority-eng:CHW", "ownership-status": "not owned by a public authority", "planning-permission-date": "", "planning-permission-history": "", "planning-permission-status": "not permissioned", "planning-permission-type": "", "point": "POINT(-3.004631 53.292689)", "site": "WIT/0023", "site-plan-url": "http://consult.cheshirewestandchester.gov.uk/portal/cwc_ldf/land/blr?tab=files", "start-date": "2017-12-21", "id": "WIT-0023"}}