{"type": "Feature", "geometry": {"type": "Point", "coordinates": [-1.205545, 53.04]}, "properties": {"resource": "a99d3f29f596948177894bc2b4107c0268cc67c0f24c9e52a3fbb9abf6cdc90d", "site-address": "8a Annesley Road, Hucknall", "deliverable": "yes", "end-date": "", "entry-date": "2017-07-28", "hazardous-substances": "", "hectares": "0.03", "maximum-net-dwellings": "9", "minimum-net-dwellings": "9", "notes": "The site has planning permission subject to conditions. Full Planning permission for the conversion into 9 apartments", "organisation": "local-authority-eng:ASH", "ownership-status": "not owned by a public authority", "planning-permission-date": "2016-05-19", "planning-permission-history": "", "planning-permission-status": "permissioned", "planning-permission-type": "full planning permission", "point": "POINT(-1.205545 53.04)", "site": "BFR7", "site-plan-url": "https://www.ashfield.gov.uk/media/3807/bflr-site-plans.pdf", "start-date": "2017-07-28", "id": "a99d3f29f596948177894bc2b4107c0268cc67c0f24c9e52a3fbb9abf6cdc90d:57188"}}