{"type": "Feature", "geometry": {"type": "Point", "coordinates": [-1.053878, 51.724286]}, "properties": {"resource": "ea0d0eb808d415aeff93b9b600217a766e8624d3c9a55cdab97cdb37188d6ffa", "site-address": "Hughendon Motors, London Road, Milton Common", "deliverable": "yes", "end-date": "", "entry-date": "2017-12-22", "hazardous-substances": "", "hectares": "0.27", "maximum-net-dwellings": "5", "minimum-net-dwellings": "5", "notes": "Demolition of the existing buildings and the erection of five detached two-storey dwellings. http://maps.southoxon.gov.uk/gis/?cat=PA&ref=P17/S0322/O", "organisation": "local-authority-eng:SOX", "ownership-status": "not owned by a public authority", "planning-permission-date": "2017-03-23", "planning-permission-history": "http://maps.southoxon.gov.uk/gis/?cat=PA&ref=P17/S0322/O", "planning-permission-status": "permissioned", "planning-permission-type": "outline planning permission", "point": "POINT(-1.053878 51.724286)", "site": "P17/S0322/O (SHELAA: 402)", "site-plan-url": "http://www.southoxon.gov.uk/sites/default/files/402_Hughendon%20Motors.pdf", "start-date": "2017-12-22", "id": "P17-S0322-OSHELAA:402"}}