{"type": "Feature", "geometry": {"type": "Point", "coordinates": [-1.761528, 53.793978]}, "properties": {"resource": "392f3e0ee0fa2c8b209c8197d34069a06e7c7dbdeadcdaecd4eb2a0d3625f63a", "site-address": "Cathedral Quarter, City Centre", "deliverable": "", "end-date": "", "entry-date": "2017-11-01", "hazardous-substances": "", "hectares": "0.70", "maximum-net-dwellings": "0", "minimum-net-dwellings": "0", "notes": "Site identified by City centre AAP (ref CH/1.3) with capacity of at least 100 units. Multi storey residential development with undercroft parking", "organisation": "local-authority-eng:BRD", "ownership-status": "", "planning-permission-date": "2017-10-13", "planning-permission-history": "https://planning.bradford.gov.uk/online-applications/applicationDetails.do?keyVal=7403617FUL&activeTab=summary|https://planning.bradford.gov.uk/online-applications/applicationDetails.do?keyVal=NOA0UDDHLT000&activeTab=summary|https://planning.bradford.gov.uk/online-applications/applicationDetails.do?keyVal=KR5BDADH02100&activeTab=summary|https://planning.bradford.gov.uk/online-applications/applicationDetails.do?keyVal=LUV5UFDHC1000&activeTab=summary|https://planning.bradford.gov.uk/online-applications/applicationDetails.do?keyVal=KB1V4PDHC1000&activeTab=summary|https://planning.bradford.gov.uk/online-applications/applicationDetails.do?keyVal=NOA0UADHLT000&activeTab=summary|https://planning.bradford.gov.uk/online-applications/applicationDetails.do?keyVal=JK6ZT7DHHC000&activeTab=summary|https://planning.bradford.gov.uk/online-applications/applicationDetails.do?keyVal=7702671ADV&activeTab=summary|https://planning.bradford.gov.uk/online-applications/applicationDetails.do?keyVal=OHRUJ1DH0IM00&activeTab=summary|https://planning.bradford.gov.uk/online-applications/applicationDetails.do?keyVal=NANE2ADH02F00&activeTab=summary", "planning-permission-status": "permissioned", "planning-permission-type": "outline planning permission", "point": "POINT(-1.761528 53.793978)", "site": "CC/096", "site-plan-url": "http://cbmdc.maps.arcgis.com/apps/webappviewer/index.html?id=2134938ccf5843649ef0e555c0926dae&extent=415793.45,433085.6,415820.35,433114.6,27700", "start-date": "2017-11-01", "id": "local-authority-eng/BRD/CC-096"}}