{"type": "Feature", "geometry": {"type": "Point", "coordinates": [-1.140149, 52.707426]}, "properties": {"resource": "1916bf47abdb6993ec78965cd87d4dc6cdd223fe60d093cb6da9c4426d8edc3f", "site-address": "Office and Premises, rear of 74 Woodgate Rothley", "deliverable": "yes", "end-date": "", "entry-date": "2017-11-22", "hazardous-substances": "", "hectares": "0.29", "maximum-net-dwellings": "9", "minimum-net-dwellings": "9", "notes": "", "organisation": "local-authority-eng:CHA", "ownership-status": "not owned by a public authority", "planning-permission-date": "2016-03-21", "planning-permission-history": "http://portal.charnwood.gov.uk/Northgate/PlanningExplorerAA/Home.aspx", "planning-permission-status": "permissioned", "planning-permission-type": "full planning permission", "point": "POINT(-1.140149 52.707426)", "site": "SH119", "site-plan-url": "https://www.charnwood.gov.uk/pages/strategic_housing_and_employment_land_availability_assessments_2014", "start-date": "2017-11-22", "id": "SH119"}}