{"type": "Feature", "geometry": {"type": "Point", "coordinates": [-0.485138, 51.142543]}, "properties": {"resource": "f85be5cdd01ac417a52ee40fe4af177a393d3a15e9ccf68c35a4201313f5421e", "site-address": "Cranleigh C of E Primary School (Infant), Church Lane, Cranleigh", "deliverable": "", "end-date": "", "entry-date": "2017-12-15", "hazardous-substances": "", "hectares": "0.61", "maximum-net-dwellings": "20", "minimum-net-dwellings": "20", "notes": "", "organisation": "local-authority-eng:WAE", "ownership-status": "owned by a public authority", "planning-permission-date": "", "planning-permission-history": "http://planning360.waverley.gov.uk/planning/search-applications?civica.query.FullTextSearch=WA%2F2017%2F1389#VIEW?RefType=GFPlanning&KeyNo=309693&KeyText=Subject", "planning-permission-status": "pending decision", "planning-permission-type": "", "point": "POINT(-0.485138 51.142543)", "site": "130", "site-plan-url": "http://85.92.197.215/ishare5.4.web/atsolomap_brownfieldreg.html", "start-date": "2017-12-15", "id": "f85be5cdd01ac417a52ee40fe4af177a393d3a15e9ccf68c35a4201313f5421e:65413"}}