{"type": "Feature", "geometry": {"type": "Point", "coordinates": [-1.519954, 54.131103]}, "properties": {"resource": "ea371d852bf376c050e00acbe72461b5cf1363ccb5ebb6331e6aaa55acb22152", "site-address": "Land adjacent to 63 Bondgate, Ripon", "deliverable": "yes", "end-date": "", "entry-date": "2018-10-04", "hazardous-substances": "", "hectares": "0.25", "maximum-net-dwellings": "10", "minimum-net-dwellings": "10", "notes": "Included as housing allocation in Publication Local Plan (submitted for examination in August 2018). Erection of minimum of 10 dwellings", "organisation": "local-authority-eng:HAG", "ownership-status": "not owned by a public authority", "planning-permission-date": "", "planning-permission-history": "", "planning-permission-status": "Not permissioned", "planning-permission-type": "", "point": "POINT(-1.519954 54.131103)", "site": "BR35", "site-plan-url": "http://harrogatebc.maps.arcgis.com/apps/webappviewer/index.html?id=35605b223adf4a81b45b1a6e1f129a75&find=BR35", "start-date": "2017-10-04", "id": "ea371d852bf376c050e00acbe72461b5cf1363ccb5ebb6331e6aaa55acb22152:66683"}}