{"type": "Feature", "geometry": {"type": "Point", "coordinates": [-1.175468, 52.976689]}, "properties": {"notes": "Variation of dwelling types and layout (variation of condition S1 of planning permission reference 12/02756/PFUL3).", "minimum-net-dwellings": "62", "site": "'1910", "maximum-net-dwellings": "62", "site-plan-url": "http://maps.nottinghamcity.gov.uk/insightmapping/?l=0.21,9.63&xmin=455364.5762&xmax=455584.4282999998&ymin=342288.3499999996&ymax=342671.3911000006", "planning-permission-date": "2014-08-11", "hectares": "3.81", "start-date": "2017-12-14", "organisation": "local-authority-eng:NGM", "planning-permission-history": "http://publicaccess.nottinghamcity.gov.uk/online-applications/applicationDetails.do?activeTab=summary&keyVal=N4FMI4LY00L00", "planning-permission-status": "permissioned", "site-address": "Radford Road - Former Basford Gasworks", "name": "'1910", "point": "POINT(-1.175468 52.976689)", "slug": "/brownfield-land/local-authority-eng/NGM/-1910", "entity": 488787, "entry-date": "2017-12-14"}}