{"type": "Feature", "geometry": {"type": "Point", "coordinates": [0.050007, 51.55135]}, "properties": {"resource": "0eabbcf511b826780dbb52f492f6e2e00b3366148cc1a1e0a499132b7eefee45", "site-address": "656-666 Romford Road, Manor Park, London, E12 5AQ", "deliverable": "yes", "end-date": "", "entry-date": "2019-12-12", "hazardous-substances": "", "hectares": "0.095874", "maximum-net-dwellings": "28", "minimum-net-dwellings": "10", "notes": "Demolition of existing buildings and redevelopment of the site to deliver a five-storey building (plus enlargement of the existing basement level) comprising a 579 sqm retail unit (Use Class A1) at basement and part ground floor and a total of 28 residential (Class C3) units (8 x one-bed, 9 x two-bed, 11 x three-bed) across part ground floor and all upper floors together with associated vehicle parking, amenity space and landscaping.", "organisation": "local-authority-eng:NWM", "ownership-status": "not owned by a public authority", "planning-permission-date": "2019-10-04", "planning-permission-history": "https://pa.newham.gov.uk/online-applications/propertyDetails.do?activeTab=relatedCases&keyVal=IUA1P2JY99000", "planning-permission-status": "permissioned", "planning-permission-type": "full planning permission", "point": "POINT(0.050007 51.55135)", "site": "UPRN:010034509461", "site-plan-url": "https://lbnewham.maps.arcgis.com/apps/webappviewer/index.html?id=730d34968dea4214a10e7d378f37ef2d", "start-date": "2019-12-12", "slug": "local-authority-eng/NWM/UPRN-010034509461"}}