{"type": "Feature", "geometry": {"type": "Point", "coordinates": [-2.012369, 55.768546]}, "properties": {"resource": "51fd36daf72b8b22fcaff19185e18c31456457ac8116b866c28959be3c69eb1a", "site-address": "Warehouse No. 46-52, West End, Tweedmouth", "deliverable": "", "end-date": "", "entry-date": "2017-12-17", "hazardous-substances": "", "hectares": "0.05", "maximum-net-dwellings": "5", "minimum-net-dwellings": "5", "notes": "Consent granted for residential development of 5 three-storey town houses but was not implemented and has lapsed - 10/B/0237", "organisation": "local-authority-eng:NBL", "ownership-status": "not owned by a public authority", "planning-permission-date": "2010-07-23", "planning-permission-history": "https://publicaccess.northumberland.gov.uk/online-applications/propertyDetails.do?activeTab=relatedCases&keyVal=002W7LTGLI000", "planning-permission-status": "not permissioned", "planning-permission-type": "", "point": "POINT(-2.012369 55.768546)", "site": "1024", "site-plan-url": "http://northumberland.maps.arcgis.com/apps/webappviewer/index.html?id=c1b801d50f8040efbf8c9bc9f916cfae", "start-date": "2016-06-30", "id": "1024"}}