{"type": "Feature", "geometry": {"type": "Point", "coordinates": [-2.1786, 53.8524]}, "properties": {"resource": "35bde384fa555a48e4c3007d2b9ad93aeb98bb9bbc43fabe7166c90976e1f442", "site-address": "Green Works, Knotts Lane, Colne", "deliverable": "yes", "end-date": "", "entry-date": "2019-10-14", "hazardous-substances": "", "hectares": "0.29", "maximum-net-dwellings": "26", "minimum-net-dwellings": "9", "notes": "The Council's viability model suggests that this type of site is unlikely to be viable to develop. This site has a number of contamination issues that need to be resolved before development can be undertaken. The owner of the site has previously indicated that the current economic circumstances are having an impact on development timescales. The owner has returned the Housing Land Survey form indicating their intention to bring the site forward within 2-5 years.", "organisation": "local-authority-eng:PEN", "ownership-status": "not owned by a public authority", "planning-permission-date": "", "planning-permission-history": "", "planning-permission-status": "not permissioned", "planning-permission-type": "", "point": "POINT(-2.1786 53.8524)", "site": "P053", "site-plan-url": "http://www.pendle.gov.uk/downloads/file/10022/site_plan_p053_-_green_works_knotts_lane_colne", "start-date": "2017-12-14", "id": "P053"}}