{"type": "Feature", "geometry": {"type": "Point", "coordinates": [-2.486216, 51.49706]}, "properties": {"resource": "b3c8b888e4afcf72d7f606ddf8498a70eb6793ae0eefd4fa43d4bef7d84cfc19", "site-address": "Land Off Beaufort Road Downend Bristol South Gloucestershire", "deliverable": "yes", "end-date": "01/04/2019", "entry-date": "2018-12-31", "hazardous-substances": "", "hectares": "0.26", "maximum-net-dwellings": "0", "minimum-net-dwellings": "0", "notes": "Erection of 12no. self contained flats and 4no. semi-detached dwellings with access and associated works. 16 units completed at 18/19 Residential Land Survey. Site COMPLETE.", "organisation": "local-authority-eng:SGC", "ownership-status": "not owned by a public authority", "planning-permission-date": "2017-03-23", "planning-permission-history": "https://developments.southglos.gov.uk/online-applications/applicationDetails.do?activeTab=summary&keyVal=OAYM1VOKMYZ00", "planning-permission-status": "permissioned", "planning-permission-type": "full planning permission", "point": "POINT(-2.486216 51.49706)", "site": "74", "site-plan-url": "https://developments.southglos.gov.uk/online-applications/applicationDetails.do?activeTab=map&keyVal=OAYM1VOKMYZ00", "start-date": "2017-12-31", "id": "74"}}