{"type": "Feature", "geometry": {"type": "Point", "coordinates": [-3.138134, 51.027494]}, "properties": {"planning-permission-status": "permissioned", "minimum-net-dwellings": "227", "site-plan-url": "https://www.tauntondeane.gov.uk/media/2047/langford-mead-norton-fitzwarren-25120032.pdf", "hectares": "6.77", "name": "25/12/0032oa", "planning-permission-type": "outline planning permission", "point": "POINT(-3.138134 51.027494)", "site": "25/12/0032oa", "ownership-status": "not owned by a public authority", "maximum-net-dwellings": "227", "planning-permission-date": "2013-04-11", "site-address": "Langford Mead, Norton Fitzwarren, TA2", "start-date": "2017-12-31", "organisation": "local-authority-eng:TAU", "notes": "Mixed use development inc. up to 407 dwellings, idustrial units on 2.78ha", "slug": "/brownfield-land/local-authority-eng/TAU/25-12-0032oa", "entry-date": "2017-12-31"}}