{"type": "Feature", "geometry": {"type": "Point", "coordinates": [-1.938177, 52.762152]}, "properties": {"resource": "186a1c0f6aa237ab789047e33bb34d6ae7dc5ce1fe55f0f3e3ab887614ff9a74", "site-address": "Aelfgar School, Taylors Lane, Rugeley", "deliverable": "", "end-date": "", "entry-date": "2017-09-01", "hazardous-substances": "", "hectares": "1.88", "maximum-net-dwellings": "85", "minimum-net-dwellings": "85", "notes": "Identified in the Rugeley TC Area Action Plan as a site for re-development as part of re-organisation of secondary school provision in Rugeley. County Council currently undertaking pre-application work for an extra care and residential scheme but awaiting outcome of extra care review. Demolition works required. Willing to sell.", "organisation": "local-authority-eng:CAN", "ownership-status": "owned by a public authority", "planning-permission-date": "", "planning-permission-history": "", "planning-permission-status": "Not permissioned", "planning-permission-type": "", "point": "POINT(-1.938177 52.762152)", "site": "R9", "site-plan-url": "http://cannockchase.addresscafe.com/app/exploreit/", "start-date": "2017-09-01", "slug": "local-authority-eng/CAN/R9"}}