{"type": "Feature", "geometry": {"type": "Point", "coordinates": [-0.138059, 51.520518]}, "properties": {"resource": "9ee698608d8c7dcad9d872d2e109b28a00e577e100a53fc7f2e46a81c8a126e3", "name": "LBCBLR010", "site-address": "Middlesex Hospital Annex, Cleveland St WC1", "deliverable": "yes", "end-date": "", "entry-date": "2018-10-12", "hazardous-substances": "", "hectares": "0.31", "maximum-net-dwellings": "50", "minimum-net-dwellings": "50", "notes": "", "organisation": "local-authority-eng:CMD", "ownership-status": "owned by a public authority", "planning-permission-date": "", "planning-permission-history": "http://planningrecords.camden.gov.uk/Northgate/PlanningExplorer17/Generic/StdResults.aspx?PT=Planning%20Applications%20On-Line&SC=Application%20Number%20is%202017/0414/P%20and%20Date%20Validated%20is%", "planning-permission-status": "pending decision", "planning-permission-type": "", "point": "POINT(-0.138059 51.520518)", "site": "LBCBLR010", "site-plan-url": "https://opendata.camden.gov.uk/Environment/Camden-Brownfield-Register-Polygons/wi65-z696/data", "start-date": "2018-10-12", "slug": "/brownfield-land/local-authority-eng/CMD/LBCBLR010"}}