{"type": "Feature", "geometry": {"type": "Point", "coordinates": [1.185294, 52.060744]}, "properties": {"name": "BLR/IP131", "point": "POINT(1.185294 52.060744)", "start-date": "2017-12-21", "notes": "IP/18/00552/FUL", "planning-permission-history": "https://ppc.ipswich.gov.uk/appndetails.asp?iAppID=18/00552/FUL&sType=APP", "hectares": "0.28", "minimum-net-dwellings": "9", "organisation": "local-authority-eng:IPS", "deliverable": "yes", "planning-permission-type": "full planning permission", "site-address": "Milton St. (formerly 488-496 Woodbridge Road)", "site": "BLR/IP131", "ownership-status": "not owned by a public authority", "site-plan-url": "https://maps.ipswich.gov.uk/Online_Mapping/Full.aspx?gpm=9afb97c4-a9c2-45fb-a2fe-5ea7305baa93", "planning-permission-date": "2018-08-16", "maximum-net-dwellings": "9", "planning-permission-status": "permissioned", "slug": "/brownfield-land/local-authority-eng/IPS/BLR-IP131", "entity": 484725, "entry-date": "2018-12-13"}}