{"type": "Feature", "geometry": {"type": "Point", "coordinates": [-1.218136, 54.658875]}, "properties": {"minimum-net-dwellings": "11", "site": "BR33 - Land at Leelholm Road", "organisation": "local-authority-eng:HPL", "maximum-net-dwellings": "11", "notes": "Residential development comprising 31 No. two and three bedroomed residential properties with associated internal road layout and parking (resubmitted application)", "hectares": "0.26", "name": "BR33 - Land at Leelholm Road", "deliverable": "yes", "ownership-status": "not owned by a public authority", "planning-permission-type": "full planning permission", "planning-permission-date": "2020-05-13", "point": "POINT(-1.218136 54.658875)", "start-date": "2020-12-11", "site-address": "Land at Newholm Court and Leelholm Road", "planning-permission-history": "http://eforms.hartlepool.gov.uk/portal/servlets/ApplicationSearchServlet?PKID=133327", "planning-permission-status": "permissioned", "slug": "/brownfield-land/local-authority-eng/HPL/BR33---Land-at-Leelholm-Road", "entry-date": "2020-12-14"}}