{"type": "Feature", "geometry": {"type": "Point", "coordinates": [-1.994366, 50.751057]}, "properties": {"maximum-net-dwellings": "40", "ownership-status": "owned by a public authority", "organisation": "local-authority-eng:BPC", "site-plan-url": "https://www.bournemouth.gov.uk/planningbuilding/PlanningPolicy/PlanningPolicyFiles/brownfieldlandregister/blr-2019-site-plans-reduced.pdf", "notes": "Proposed site allocation in the Poole Local Plan Submission Version - November 2017.", "site-address": "Hillbourne", "start-date": "2017-01-12", "deliverable": "yes", "minimum-net-dwellings": "40", "planning-permission-status": "Not permissioned", "name": "P/BLR/0071", "point": "POINT(-1.994366 50.751057)", "hectares": "4.675594", "site": "P/BLR/0071", "slug": "/brownfield-land/local-authority-eng/BPC/P-BLR-0071", "entry-date": "2018-01-12"}}