{"type": "Feature", "geometry": {"type": "Point", "coordinates": [-0.082816, 51.498977]}, "properties": {"resource": "314a6fc71008dd8e91a2e7420b73ad3616a8ed8c76863e30fe5d7f1cf7d938eb", "site-address": "Unit 2, The Glass House, 3 Royal Oak Yard Accessed From The Southern End Of Bermondsey St SE1 3GD", "deliverable": "yes", "end-date": "", "entry-date": "2017-12-20", "hazardous-substances": "", "hectares": "0.01", "maximum-net-dwellings": "0", "minimum-net-dwellings": "0", "notes": "CHANGE OF USE FROM B1 COMMERCIAL TO A THREE BEDROOM RESIDENTIAL UNIT (USE CLASS C3)", "organisation": "local-authority-eng:SWK", "ownership-status": "", "planning-permission-date": "2015-06-15", "planning-permission-history": "", "planning-permission-status": "permissioned", "planning-permission-type": "full planning permission", "point": "POINT(-0.082816 51.498977)", "site": "15-AP-1226", "site-plan-url": "", "start-date": "2017-12-20", "id": "15-AP-1226"}}