{"type": "Feature", "geometry": {"type": "Point", "coordinates": [-0.256339, 51.504123]}, "properties": {"ownership-status": "not owned by a public authority", "organisation": "local-authority-eng:EAL", "deliverable": "yes", "planning-permission-status": "permissioned", "site-plan-url": "http://maps.ealing.gov.uk/map/Aurora.svc/run?script=%5cAurora%5cBrownfield_Register_Zoom.AuroraScript%24&nocache=2087154948&resize=always&x=521117.37&y=179795.3", "minimum-net-dwellings": "7", "maximum-net-dwellings": "7", "planning-permission-type": "full planning permission", "site": "172705FUL", "name": "172705FUL", "hectares": "0.02", "point": "POINT(-0.256339 51.504123)", "site-address": "Ground, first, second and third floors of Power House, 74 Stanley Gardens, Acton", "planning-permission-history": "https://pam.ealing.gov.uk/online-applications/applicationDetails.do?activeTab=documents&keyVal=OQK6S1JMG5S00|https://pam.ealing.gov.uk/online-applications/applicationDetails.do?activeTab=documents&key", "planning-permission-date": "2017-10-23", "notes": "This entry is covered by two separate permissions, which were considered and permitted concurrently. The first of these relates to the ground and first floors and the second permission covers the sec", "start-date": "2017-12-20", "slug": "/brownfield-land/local-authority-eng/EAL/172705FUL", "entry-date": "2017-12-20"}}