{"type": "Feature", "geometry": {"type": "Point", "coordinates": [-0.329568, 51.447994]}, "properties": {"point": "POINT(-0.329568 51.447994)", "minimum-net-dwellings": "17", "hectares": "0.23", "organisation": "local-authority-eng:RIC", "notes": "The minimum and maximum number of dwellings that the land is capable of supporting are estimates. The estimates are derived from the residential capacity estimates in the London Strategic Housing Land. https://www.richmond.gov.uk/twickenham_area_action_plan", "planning-permission-status": "not permissioned", "name": "RBR/17/0052", "site-address": "Police Station, London Road, Twickenham", "site-plan-url": "https://data.london.gov.uk/dataset/brownfield-land-register", "site": "RBR/17/0052", "start-date": "2017-12-13", "maximum-net-dwellings": "20", "slug": "/brownfield-land/local-authority-eng/RIC/RBR-17-0052", "entity": 491538, "entry-date": "2017-12-13", "ownership-status": "owned by a public authority", "deliverable": "yes"}}