{"type": "Feature", "geometry": {"type": "Point", "coordinates": [-1.911747, 50.72168]}, "properties": {"planning-permission-date": "2019-10-25", "notes": "Demolition of existing houses and erection of flatted development of 30 flats with associated access and parking.", "maximum-net-dwellings": "30", "point": "POINT(-1.911747 50.72168)", "site-plan-url": "https://www.bournemouth.gov.uk//planningbuilding/PlanningPolicy/PlanningPolicyFiles/brownfieldlandregister/blr-2020-site-plans.pdf", "name": "BCP/BLR/0043", "start-date": "2020-12-29", "site": "BCP/BLR/0043", "ownership-status": "not owned by a public authority", "planning-permission-status": "permissioned", "planning-permission-history": "https://boppa.poole.gov.uk/online-applications/applicationDetails.do?activeTab=documents&keyVal=_POOLE_DCAPR_255297", "planning-permission-type": "outline planning permission", "minimum-net-dwellings": "30", "deliverable": "yes", "site-address": "18, 18a, 20, 20a & 20b Balcombe Road Canford Cliffs BH13 6DY", "hectares": "0.32", "organisation": "local-authority-eng:BPC", "slug": "/brownfield-land/local-authority-eng/BPC/BCP-BLR-0043", "entity": null, "entry-date": "2020-12-29"}}