{"type": "Feature", "geometry": {"type": "Point", "coordinates": [0.015492, 50.875172]}, "properties": {"start-date": "2017-12-31", "planning-permission-date": "2016-09-30", "organisation": "national-park-authority:Q20198711", "deliverable": "yes", "point": "POINT(0.015492 50.875172)", "site": "SDB010", "hectares": "0.2", "maximum-net-dwellings": "9", "planning-permission-status": "permissioned", "ownership-status": "owned by a public authority", "minimum-net-dwellings": "9", "name": "SDB010", "site-address": "Magistrates court car park, Court Road, Lewes BN7", "site-plan-url": "https://planningpublicaccess.southdowns.gov.uk/online-applications/applicationDetails.do?activeTab=documents&keyVal=O54CV0TUGMI00", "planning-permission-type": "full planning permission", "slug": "/brownfield-land/national-park-authority/Q20198711/SDB010", "entry-date": "2017-12-31"}}