{"type": "Feature", "geometry": {"type": "Point", "coordinates": [-0.20248, 51.242287]}, "properties": {"minimum-net-dwellings": "12", "name": "RBBCBLR137", "start-date": "2020-12-31", "organisation": "local-authority-eng:REI", "site": "RBBCBLR137", "hectares": "0.06", "planning-permission-history": "https://planning.reigate-banstead.gov.uk/online-applications/simpleSearchResults.do?action=firstPage", "deliverable": "yes", "planning-permission-status": "permissioned", "maximum-net-dwellings": "12", "site-address": "Premier House, 1-7 Warren Road, Reigate", "site-plan-url": "https://www.reigate-banstead.gov.uk/downloads/file/6514/rbbcblr137", "point": "POINT(-0.20248 51.242287)", "ownership-status": "not owned by a public authority", "slug": "/brownfield-land/local-authority-eng/REI/RBBCBLR137", "entry-date": "2020-12-31", "planning-permission-type": "Other", "notes": "Prior approval (20/00511/P) granted 2020-04-22 for change of use from offices to residential accommodation.", "planning-permission-date": "2020-02-22"}}