{"type": "Feature", "geometry": {"type": "Point", "coordinates": [-3.097404, 53.338147]}, "properties": {"site-address": "Builders Merchant, 8 Berwyn Drive, Pensby and Thingwall", "notes": "Cat 2 - relocation of business needed", "site-plan-url": "https://mapping.wirral.gov.uk/wml8/Map.aspx?MapName=Brownfield", "site": "898", "start-date": "2018-12-21", "maximum-net-dwellings": "11", "hectares": "0.42", "name": "898", "minimum-net-dwellings": "11", "point": "POINT(-3.097404 53.338147)", "planning-permission-history": "https://planning.wirral.gov.uk/online-applications/applicationDetails.do?activeTab=summary&keyVal=_WIRRA_DCAPR_69185", "ownership-status": "not owned by a public authority", "planning-permission-status": "not permissioned", "organisation": "local-authority-eng:WRL", "slug": "/brownfield-land/local-authority-eng/WRL/898", "entry-date": "2018-12-21"}}