{"type": "Feature", "geometry": {"type": "Point", "coordinates": [-2.037662, 53.447132]}, "properties": {"site": "H-HYDGOD-047", "point": "POINT(-2.037662 53.447132)", "site-address": "Hattersley Regeneration Site 19 - site of 2-18 Waterside and garages, Hyde.", "name": "H-HYDGOD-047", "planning-permission-type": "outline planning permission", "ownership-status": "not owned by a public authority", "minimum-net-dwellings": "21", "planning-permission-status": "permissioned", "planning-permission-date": "2016-12-21", "hectares": "0.38", "site-plan-url": "https://www.tameside.gov.uk/planning/brownfieldregister/h-hydgod-047.pdf", "notes": "Planning permission reference 16/00964/OUT. Construction has not commenced. Former housing site.. Gross addition of 21 houses.", "planning-permission-history": "https://public.tameside.gov.uk/plan/f422planapp.asp", "start-date": "2017-12-04", "maximum-net-dwellings": "21", "deliverable": "yes", "organisation": "local-authority-eng:TAM", "slug": "/brownfield-land/local-authority-eng/TAM/H-HYDGOD-047", "entry-date": "2017-12-04"}}