{"type": "Feature", "geometry": {"type": "Point", "coordinates": [-0.22463, 53.60727]}, "properties": {"planning-permission-type": "outline planning permission", "planning-permission-history": "http://planninganddevelopment.nelincs.gov.uk/online-applications/simpleSearchResults.do?action=firstPage", "name": "BS0017", "point": "POINT(-0.22463 53.60727)", "notes": "Erect 8 Dwellings", "site-address": "Land at Willows Farm, Immingham", "ownership-status": "not owned by a public authority", "minimum-net-dwellings": "8", "deliverable": "yes", "planning-permission-status": "not permissioned", "organisation": "local-authority-eng:NEL", "site": "BS0017", "start-date": "2017-10-18", "maximum-net-dwellings": "8", "hectares": "0.66", "slug": "/brownfield-land/local-authority-eng/NEL/BS0017", "entry-date": "2017-10-18", "planning-permission-date": "2018-02-02"}}