{"type": "Feature", "geometry": {"type": "Point", "coordinates": [-1.810649, 52.689094]}, "properties": {"resource": "30f6d520678eea3f004091763bce629792a5851d6317061ce8c57c148c9c09eb", "site-address": "Former Home, Scotch Orchard, Lichfield", "deliverable": "yes", "end-date": "", "entry-date": "2019-11-18", "hazardous-substances": "", "hectares": "0.97", "maximum-net-dwellings": "27", "minimum-net-dwellings": "27", "notes": "Allocated in adopted local plan. Former Children's care home building and associated car parking", "organisation": "local-authority-eng:LIF", "ownership-status": "owned by a public authority", "planning-permission-date": "2017-04-24", "planning-permission-history": "https://planning.lichfielddc.gov.uk/online-applications/caseDetails.do?caseType=Application&keyVal=NZ5GNGJEL5D00", "planning-permission-status": "permissioned", "planning-permission-type": "full planning permission", "point": "POINT(-1.810649 52.689094)", "site": "LDC-BLR-30", "site-plan-url": "http://lichfielddc.maps.arcgis.com/home/webmap/viewer.html?webmap=f95b5e5ecb4d4a938a89f64a5344eaef", "start-date": "2017-07-17", "id": "30f6d520678eea3f004091763bce629792a5851d6317061ce8c57c148c9c09eb:10237"}}