{"type": "Feature", "geometry": {"type": "Point", "coordinates": [-0.086968, 51.499526]}, "properties": {"resource": "69584001774ee43f8bc3e6df5517c2b8eb3109bcb6db5e1e5103e9ff594f2c22", "site-address": "146 Long Lane SE1 4BS", "deliverable": "yes", "end-date": "", "entry-date": "2017-12-20", "hazardous-substances": "", "hectares": "0.06", "maximum-net-dwellings": "0", "minimum-net-dwellings": "0", "notes": "Change of Use from B1 (office) to C3 residential, comprising of 1 X 4 bed 8 person dwelling; new entrance, erection of external stairs from lower ground floor to ground floor level at rear, roof terrace and restoration of interiors. (Together with ass", "organisation": "local-authority-eng:SWK", "ownership-status": "", "planning-permission-date": "2016-04-08", "planning-permission-history": "", "planning-permission-status": "permissioned", "planning-permission-type": "full planning permission", "point": "POINT(-0.086968 51.499526)", "site": "15-AP-4817", "site-plan-url": "", "start-date": "2017-12-20", "id": "69584001774ee43f8bc3e6df5517c2b8eb3109bcb6db5e1e5103e9ff594f2c22:63215"}}