{"type": "Feature", "geometry": {"type": "Point", "coordinates": [0.47199, 51.574863]}, "properties": {"ownership-status": "owned by a public authority", "maximum-net-dwellings": "5", "deliverable": "yes", "planning-permission-status": "not permissioned", "minimum-net-dwellings": "5", "point": "POINT(0.47199 51.574863)", "site": "BAS0030", "site-plan-url": "https://www.basildon.gov.uk/media/8564/BLR/pdf/BLR.pdf", "start-date": "2017-08-07", "organisation": "local-authority-eng:BAI", "site-address": "Garages located at Downey Close, Basildon. SS14 2NF", "notes": "Deliverable within 3 years. 07/08/17. 31/08/18. 21/08/19.", "hectares": "0.17", "name": "BAS0030", "slug": "/brownfield-land/local-authority-eng/BAI/BAS0030", "entry-date": "2019-08-21"}}