{"type": "Feature", "geometry": {"type": "Point", "coordinates": [-1.710635, 50.73958]}, "properties": {"planning-permission-history": "http://planning.christchurchandeastdorset.gov.uk/plandisp.aspx?recno=111698", "planning-permission-type": "full planning permission", "deliverable": "yes", "organisation": "local-authority-eng:BPC", "start-date": "2019-12-17", "notes": "Application 8/18/2093 granted 7/1/19 to demolish hotel and erect 18 flats. Hotel site only included from larger SHLAA site which has no further potential.", "site-address": "Rothesay Hotel 175 Lymington Road", "point": "POINT(-1.710635 50.73958)", "maximum-net-dwellings": "18", "minimum-net-dwellings": "18", "hectares": "0.198644", "planning-permission-status": "permissioned", "site": "BR8/03/0239", "site-plan-url": "https://www.bournemouth.gov.uk/planningbuilding/PlanningPolicy/PlanningPolicyFiles/brownfieldlandregister/blr-2019-site-plans-reduced.pdf", "ownership-status": "not owned by a public authority", "name": "BR8/03/0239", "slug": "/brownfield-land/local-authority-eng/BPC/BR8-03-0239", "entry-date": "2019-12-17"}}