{"type": "Feature", "geometry": {"type": "Point", "coordinates": [-0.297169, 51.546768]}, "properties": {"resource": "a2751587f6c9df3a75ff4058b9460d616a0e533640684659662057a89217d8b2", "site-address": "85-89 Ealing Road, HA0 4BN", "deliverable": "yes", "end-date": "", "entry-date": "2017-12-15", "hazardous-substances": "", "hectares": "0.1", "maximum-net-dwellings": "9", "minimum-net-dwellings": "9", "notes": "Demolition of the existing buildings (85-89 Ealing Road) and the construction of a 4-storey mixed-use development consisting of commercial uses within retail, financial/professional services and restaurant (Use classes A1, A2, A3) on the basement, ground and first floors and 9 self-contained flats (1 x 1bed, 4 x 2bed, 4 x 3bed) on second and third floors, with associated parking and landscaping.", "organisation": "local-authority-eng:BEN", "ownership-status": "", "planning-permission-date": "2017-06-09", "planning-permission-history": "https://pa.brent.gov.uk/online-applications/propertyDetails.do?activeTab=relatedCases&keyVal=PROPLPI_202102460_1", "planning-permission-status": "permissioned", "planning-permission-type": "full planning permission", "point": "POINT(-0.297169 51.546768)", "site": "BR00091", "site-plan-url": "https://maps.london.gov.uk/brownfield-site-register", "start-date": "2017-12-15", "id": "a2751587f6c9df3a75ff4058b9460d616a0e533640684659662057a89217d8b2:45149"}}