{"type": "Feature", "geometry": {"type": "Point", "coordinates": [-1.91533, 52.487301]}, "properties": {"notes": "2016/09245/PA. Change of use, extensions, alterations and limited demolition and ancillary development to form 14 no. apartments", "minimum-net-dwellings": "14", "planning-permission-date": "2017-06-05", "point": "POINT(-1.91533 52.487301)", "planning-permission-type": "full planning permission", "start-date": "2017-12-19", "deliverable": "yes", "site-plan-url": "https://localview.birmingham.gov.uk/Planning/Sites/SHLAA/", "hectares": "0.24", "name": "CC438", "organisation": "local-authority-eng:BIR", "site": "CC438", "maximum-net-dwellings": "14", "planning-permission-status": "permissioned", "site-address": "156 Warstone Lane, Soho & Jewellery Quarter", "slug": "/brownfield-land/local-authority-eng/BIR/CC438", "entry-date": "2018-09-21"}}