{"type": "Feature", "geometry": {"type": "Point", "coordinates": [-3.575313, 50.364775]}, "properties": {"organisation": "local-authority-eng:SHA", "start-date": "2017-12-22", "planning-permission-status": "pending decision", "hectares": "8.93", "name": "SH_30_05_16", "deliverable": "yes", "ownership-status": "not owned by a public authority", "site-plan-url": "https://www.southhams.gov.uk/article/4291/Brownfield-Land-Register", "site": "SH_30_05_16", "point": "POINT(-3.575313 50.364775)", "planning-permission-type": "other", "notes": "2161/17/OPA. Hybrid application. Full planning for 39 residential units (Use Class C3) and outline permission for a further 91 residential units.", "site-address": "Noss Marina, Bridge Road, Kingswear, Dartmouth, TQ6 0EA", "maximum-net-dwellings": "130", "minimum-net-dwellings": "130", "slug": "/brownfield-land/local-authority-eng/SHA/SH-30-05-16", "entry-date": "2019-12-19", "planning-permission-date": "2018-08-10"}}