{"type": "Feature", "geometry": {"type": "Point", "coordinates": [-0.301541, 51.414955]}, "properties": {"resource": "53ff7410d03797e7747d4df128ca450bbe808f4eacc79d0e2d18623ab4a99554", "site-address": "P19a And P19e Sites Adjoining Kingston College, Richmond Road, Kingston upon Thames", "deliverable": "", "end-date": "", "entry-date": "2017-12-12", "hazardous-substances": "", "hectares": "0.42999999999999999", "maximum-net-dwellings": "85", "minimum-net-dwellings": "85", "notes": "2017 London SHLAA site 17210260. Description taken from Policy P19 of the Kingston Town Centre Area Action Plan (adopted 2008). Redevelopment of site 19e with residential use (C3) above ground floor level.", "organisation": "local-authority-eng:KTT", "ownership-status": "", "planning-permission-date": "", "planning-permission-history": "", "planning-permission-status": "Not permissioned", "planning-permission-type": "", "point": "POINT(-0.301541 51.414955)", "site": "RBK0071", "site-plan-url": "https://maps.london.gov.uk/brownfield-site-register", "start-date": "2017-12-12", "id": "53ff7410d03797e7747d4df128ca450bbe808f4eacc79d0e2d18623ab4a99554:20772"}}