{"type": "Feature", "geometry": {"type": "Point", "coordinates": [-2.077273, 53.652327]}, "properties": {"resource": "34e3c37538889673a7227716ccb0faca6e1b1ffa6a0b8bc7807294d8d144577a", "site-address": "Sladen Mill ,Halifax Road, Littleborough", "deliverable": "", "end-date": "", "entry-date": "2018-12-05", "hazardous-substances": "", "hectares": "1.7", "maximum-net-dwellings": "40", "minimum-net-dwellings": "40", "notes": "", "organisation": "local-authority-eng:RCH", "ownership-status": "", "planning-permission-date": "", "planning-permission-history": "", "planning-permission-status": "permissioned", "planning-permission-type": "", "point": "POINT(-2.077273 53.652327)", "site": "SH 2293", "site-plan-url": "https://mappinggm.org.uk/gmodin/?lyrs=brownfield_2018_gm#os_maps_light/18/53.652327/-2.0772735", "start-date": "2018-12-05", "id": "local-authority-eng/RCH/SH-2293"}}