{"type": "Feature", "geometry": {"type": "Point", "coordinates": [-0.563, 51.318]}, "properties": {"resource": "0a43e3e71d0ca9d0ebcab2c14276687255dd51fd176cef0ce756bea3d34ef01e", "site-address": "Premier House, 15-19 Church Street West, Woking, GU21 6DJ", "deliverable": "yes", "end-date": "", "entry-date": "2019-12-19", "hazardous-substances": "", "hectares": "0.09", "maximum-net-dwellings": "29", "minimum-net-dwellings": "29", "notes": "PLAN/2017/0165 prior approval detailed.. Prior approval for a proposed change of use from Office (Class B1(a)) to dwellinghouse (Class C3) to provide 29no. 1 bedroom dwellings.", "organisation": "local-authority-eng:WOI", "ownership-status": "not owned by a public authority", "planning-permission-date": "2017-03-30", "planning-permission-history": "https://www.woking.gov.uk/planning/publicaccess", "planning-permission-status": "permissioned", "planning-permission-type": "full planning permission", "point": "POINT(-0.563 51.318)", "site": "SHLAACAN041", "site-plan-url": "http://www.woking2027.info/ldfregisters", "start-date": "2017-12-20", "id": "0a43e3e71d0ca9d0ebcab2c14276687255dd51fd176cef0ce756bea3d34ef01e:53492"}}