{"type": "Feature", "geometry": {"type": "Point", "coordinates": [-0.369073, 53.743362]}, "properties": {"maximum-net-dwellings": "6", "start-date": "2017-12-20", "hectares": "0.020378", "site-plan-url": "https://hullcc-consult.objective.co.uk/portal/planning/shlaa/bfl17/blr17", "point": "POINT(-0.369073 53.743362)", "planning-permission-status": "Not Permissioned", "planning-permission-type": "full planning permission", "ownership-status": "not owned by a public authority", "name": "BLR297", "minimum-net-dwellings": "6", "site": "BLR297", "deliverable": "yes", "site-address": "363 Anlaby Road, Kingston Upon Hull, HU3 6AB", "planning-permission-history": "https://www.hullcc.gov.uk/padcbc/publicaccess-live/applicationDetails.do?activeTab=summary&keyVal=NAPA77SO05400", "notes": "Lapsed 14/01031/FULL - Erection of 3 storey building to provide 6 self contained flats following demolition of existing building.", "planning-permission-date": "2014-12-18", "organisation": "local-authority-eng:KHL", "slug": "/brownfield-land/local-authority-eng/KHL/BLR297", "entry-date": "2020-12-01"}}