{"type": "Feature", "geometry": {"type": "Point", "coordinates": [-0.628047, 51.252149]}, "properties": {"resource": "ed165dbcad702b44bec651010421317c97374ee0e368ea5c4415b38974a3bf64", "name": "BLR_050", "site-address": "Land at Oak Hill, Wood Street Village", "deliverable": "yes", "end-date": "", "entry-date": "2017-10-20", "hazardous-substances": "", "hectares": "4.4", "maximum-net-dwellings": "22", "minimum-net-dwellings": "22", "notes": "Part of site is PDL in the Green Belt; remainder is PDL within the current village inset boundary.", "organisation": "local-authority-eng:GRT", "ownership-status": "not owned by a public authority", "planning-permission-date": "", "planning-permission-history": "", "planning-permission-status": "not permissioned", "planning-permission-type": "", "point": "POINT(-0.628047 51.252149)", "site": "BLR_050", "site-plan-url": "https://www.guildford.gov.uk/media/26726/Land-at-Oak-Hill-Wood-Street-Village/pdf/BFLR2017_050", "start-date": "2017-10-20", "slug": "/brownfield-land/local-authority-eng/GRT/BLR-050"}}