{"type": "Feature", "geometry": {"type": "Point", "coordinates": [-4.104483, 51.204937]}, "properties": {"resource": "037ba4565c934c7d1aeeade3d39811b2d667c2a1de9760ecd18339811281180a", "site-address": "Chambercombe Bakery (ILF1a), Chambercombe Road Ilfracombe EX34 9PH", "deliverable": "", "end-date": "", "entry-date": "2018-12-17", "hazardous-substances": "", "hectares": "0.45", "maximum-net-dwellings": "25", "minimum-net-dwellings": "20", "notes": "Site is currently occupied as small scale employment although the long term vision is to develop the site for housing. 40002 Outline Application in respect of demolition of existing buildings & erection of 16 flats & 15 houses Refused 04 /07/05 40737 Outline Application in respect of demolition of existing buildings & erection of 16 flats & 15 houses together with surface & underground garaging, landscaping & associated works Withdrawn 03/03/06 38946 Outline Application in respect of demolition of existing buildings & erection of 16 flats & 16 houses together with surface & underground garaging & associated works Refused 03/02/05 32555 Outline Application in respect of demolition of existing building and erection of 19no. flats and 16no. houses including affordable housing together with surface and underground garaging, landscaping and associated works Refused 04/10/04", "organisation": "local-authority-eng:NDE", "ownership-status": "not owned by a public authority", "planning-permission-date": "", "planning-permission-history": "", "planning-permission-status": "Not permissioned", "planning-permission-type": "", "point": "POINT(-4.104483 51.204937)", "site": "BFL/ILF/063", "site-plan-url": "https://www.northdevon.gov.uk/media/379137/bfl-ilf-063-former-chambercombe-bakery-ilfracombe-1-750.pdf", "start-date": "2017-08-02", "slug": "local-authority-eng/NDE/BFL-ILF-063"}}