{"type": "Feature", "geometry": {"type": "Point", "coordinates": [-2.133889, 53.633788]}, "properties": {"organisation": "local-authority-eng:RCH", "deliverable": "yes", "name": "SH 2171", "point": "POINT(-2.133889 53.633788)", "minimum-net-dwellings": "6", "planning-permission-status": "permissioned", "start-date": "2017-11-28", "site-address": "431 Halifax Road, Wardle", "hectares": "0.04", "site": "SH 2171", "maximum-net-dwellings": "6", "slug": "/brownfield-land/local-authority-eng/RCH/SH-2171", "entry-date": "2017-11-28"}}