{"type": "Feature", "geometry": {"type": "Point", "coordinates": [0.150766, 51.326057]}, "properties": {"resource": "93da33cb203fda2a6f2866049b6a239c50804cba68446d538fcbcf8f23bc93d2", "site-address": "Oak Tree Farm, London Road, Halstead", "deliverable": "", "end-date": "1970/01/01 00:00:00+00", "entry-date": "2020-05-20", "hazardous-substances": "", "hectares": "1.2901065", "maximum-net-dwellings": "37", "minimum-net-dwellings": "37", "notes": "Emerging Local Plan Ref ST2-56 - A contamination assessment is to be submitted as part of any planning application. The review of the existing use is to be considered as part of any planning application. Access to be improved.", "organisation": "local-authority-eng:SEV", "ownership-status": "not owned by a public authority", "planning-permission-date": "", "planning-permission-history": "", "planning-permission-status": "not permissioned", "planning-permission-type": "", "point": "POINT(0.150766 51.326057)", "site": "BFR131", "site-plan-url": "https://maps.sevenoaks.gov.uk/brownfield_register/", "start-date": "", "id": "93da33cb203fda2a6f2866049b6a239c50804cba68446d538fcbcf8f23bc93d2:62939"}}