{"type": "Feature", "geometry": {"type": "Point", "coordinates": [-2.762764, 51.486298]}, "properties": {"resource": "da98a951d37e6a2fff10956c22c5fbbc0314e8304a002104a235db896b50fcec", "site-address": "Site V2 Harbour Road Portishead", "deliverable": "yes", "end-date": "", "entry-date": "2019-12-31", "hazardous-substances": "", "hectares": "0.17", "maximum-net-dwellings": "26", "minimum-net-dwellings": "26", "notes": "", "organisation": "local-authority-eng:NSM", "ownership-status": "not owned by a public authority", "planning-permission-date": "2019-11-08", "planning-permission-history": "https://planning.n-somerset.gov.uk/online-applications/", "planning-permission-status": "permissioned", "planning-permission-type": "full planning permission", "point": "POINT(-2.762764 51.486298)", "site": "NSBR0036", "site-plan-url": "http://map.n-somerset.gov.uk/map/Aurora.svc/run?embedded=true&nocache=0.5788848812441214&script=%5cAurora%5cBrownfieldSiteRegister.AuroraScript%24&x=347155.446&y=176648.369&scale=1024", "start-date": "2017-12-31", "id": "da98a951d37e6a2fff10956c22c5fbbc0314e8304a002104a235db896b50fcec:58175"}}