{"type": "Feature", "geometry": {"type": "Point", "coordinates": [-1.58869, 54.533682]}, "properties": {"notes": "Site cleared of former office building. Potential for brownfield housing development of approximately 35 units", "name": "51", "site": "51", "maximum-net-dwellings": "35", "organisation": "local-authority-eng:DAL", "start-date": "2017-11-22", "planning-permission-status": "not permissioned", "deliverable": "yes", "planning-permission-history": "http://www.darlington.gov.uk/environment-and-planning/planning/planning-applications-and-permission/view-planning-applications-online/", "minimum-net-dwellings": "35", "hectares": "1.98", "ownership-status": "owned by a public authority", "site-plan-url": "http://www.darlington.gov.uk/brownfieldlandregister", "site-address": "Mowden Hall", "point": "POINT(-1.58869 54.533682)", "slug": "/brownfield-land/local-authority-eng/DAL/51", "entity": 481091, "entry-date": "2017-12-12"}}