{"type": "Feature", "geometry": {"type": "Point", "coordinates": [-0.487737, 51.363743]}, "properties": {"ownership-status": "not owned by a public authority", "planning-permission-history": "http://maps.runnymede.gov.uk/website/maps/index.html", "site-address": "The Black Horse, New Haw Road", "maximum-net-dwellings": "9", "planning-permission-status": "permissioned", "minimum-net-dwellings": "9", "planning-permission-date": "2017-02-16", "planning-permission-type": "full planning permission", "deliverable": "yes", "notes": "RU.16/1933. Demolition of existing public house and construction of 8 no 2 bedroom flats and 2 no 1 bedroom flats", "name": "SLAA/NHW/306", "start-date": "2018-02-02", "organisation": "local-authority-eng:RUN", "point": "POINT(-0.487737 51.363743)", "hectares": "0.1", "site": "SLAA/NHW/306", "site-plan-url": "http://maps.runnymede.gov.uk/website/maps/index.html", "slug": "/brownfield-land/local-authority-eng/RUN/SLAA-NHW-306", "entry-date": "2018-02-02"}}