{"type": "Feature", "geometry": {"type": "Point", "coordinates": [-0.334809, 52.022998]}, "properties": {"hectares": "1.1", "name": "CB/16/02756/BRWN", "site-address": "Meppershall Nursing Home, Shefford Road, Meppershall", "notes": "Existing care home in operation adjacent to the village boundary. Narrow site access may be an issue", "start-date": "2016-07-18", "planning-permission-status": "Not Permissioned", "ownership-status": "not owned by a public authority", "site-plan-url": "https://centralbedfordshire.box.com/s/r3v8jiqcjmr20e5yay5az027d4xnr6sz", "organisation": "local-authority-eng:CBF", "deliverable": "yes", "minimum-net-dwellings": "30", "maximum-net-dwellings": "40", "site": "CB/16/02756/BRWN", "point": "POINT(-0.334809 52.022998)", "slug": "/brownfield-land/local-authority-eng/CBF/CB-16-02756-BRWN", "entry-date": "2018-12-31"}}