{"type": "Feature", "geometry": {"type": "Point", "coordinates": [-0.4058, 51.89344]}, "properties": {"resource": "6dd5b4e8f86c741a0a8e35c075edce0293288ff38ef1abe2f3dd35c85b259aa5", "site-address": "Land at Stockingstone Road", "deliverable": "", "end-date": "", "entry-date": "2017-12-01", "hazardous-substances": "", "hectares": "2.25", "maximum-net-dwellings": "62", "minimum-net-dwellings": "56", "notes": "", "organisation": "local-authority-eng:LUT", "ownership-status": "", "planning-permission-date": "", "planning-permission-history": "https://planning.luton.gov.uk/online-applications/propertyDetails.do?activeTab=relatedCases&keyVal=00254LKGLI000", "planning-permission-status": "not permissioned", "planning-permission-type": "", "point": "POINT(-0.4058 51.89344)", "site": "SHLAA339", "site-plan-url": "http://www.luton.gov.uk/Environment/Lists/LutonDocuments/PDF/SHLAA-2017/Maps/338-and-339.pdf", "start-date": "2017-12-01", "id": "6dd5b4e8f86c741a0a8e35c075edce0293288ff38ef1abe2f3dd35c85b259aa5:29902"}}