{"type": "Feature", "geometry": {"type": "Point", "coordinates": [-1.437481, 53.2417]}, "properties": {"resource": "a298e7d789189f540d645491797ed62117b693f964796d4312e4e109c686c481", "site-address": "Avondale Surgery, 3 - 5 Avondale Road, Chesterfield, Derbyshire, Chesterfield", "deliverable": "yes", "end-date": "", "entry-date": "2017-12-19", "hazardous-substances": "", "hectares": "0.12", "maximum-net-dwellings": "6", "minimum-net-dwellings": "6", "notes": "Full planning permission received.. Conversion of surgery to 2 dwellings, pharmacy to 2 flats and erection of 2 new dwellings.", "organisation": "local-authority-eng:CHS", "ownership-status": "not owned by a public authority", "planning-permission-date": "2015-12-14", "planning-permission-history": "https://publicaccess.chesterfield.gov.uk/online-applications/propertyDetails.do?activeTab=relatedCases&keyVal=000A1SEPLI000", "planning-permission-status": "permissioned", "planning-permission-type": "full planning permission", "point": "POINT(-1.437481 53.2417)", "site": "387", "site-plan-url": "https://www.chesterfield.gov.uk/media/562162/387-avondale-surgery-3-5-avondale-road-chesterfield.pdf", "start-date": "2017-12-19", "id": "a298e7d789189f540d645491797ed62117b693f964796d4312e4e109c686c481:57336"}}