{"type": "Feature", "geometry": {"type": "Point", "coordinates": [-2.125462, 52.587441]}, "properties": {"resource": "3938ddedb2fedca20fa409e23118564ff80bfd283b05852eb5d968affc13697d", "name": "P32", "site-address": "Blunts Shoeshop, 5-15 Broad Street, Wolverhampton", "deliverable": "", "end-date": "", "entry-date": "2018-05-22", "hazardous-substances": "", "hectares": "0.04", "maximum-net-dwellings": "", "minimum-net-dwellings": "", "notes": "", "organisation": "local-authority-eng:WLV", "ownership-status": "", "planning-permission-date": "", "planning-permission-history": "", "planning-permission-status": "Other Commitment", "planning-permission-type": "", "point": "POINT(-2.125462 52.587441)", "site": "P32", "site-plan-url": "", "start-date": "", "slug": "/brownfield-land/local-authority-eng/WLV/P32"}}