{"type": "Feature", "geometry": {"type": "Point", "coordinates": [-1.80269, 51.5668]}, "properties": {"resource": "f3dc7ff2b9903e8e1330a567543653cd25b36cc2995f96b649373d8e849948a3", "site-address": "Former Even Swindon Infants & Junior School, Hughes Street, Rodbourne", "deliverable": "yes", "end-date": "", "entry-date": "2017-12-21", "hazardous-substances": "", "hectares": "0.26", "maximum-net-dwellings": "12", "minimum-net-dwellings": "12", "notes": "Erection of 12no. dwellings and associated works", "organisation": "local-authority-eng:SWD", "ownership-status": "not owned by a public authority", "planning-permission-date": "2017-04-12", "planning-permission-history": "http://pa1.swindon.gov.uk/publicaccess/caseDetails.do?caseType=Application&keyVal=OH37ORPTJTJ00", "planning-permission-status": "permissioned", "planning-permission-type": "full planning permission", "point": "POINT(-1.80269 51.5668)", "site": "S0362", "site-plan-url": "https://maps.swindon.gov.uk/sbc_soloexpanded.htm", "start-date": "2017-12-21", "id": "S0362"}}