{"type": "Feature", "geometry": {"type": "Point", "coordinates": [-0.61, 51.68]}, "properties": {"site": "CD0160", "site-plan-url": "http://www.chiltern.gov.uk/planning/brownfieldregister", "site-address": "''67 - 75 Sycamore Road, Amersham''", "name": "CD0160", "start-date": "2017-12-08", "planning-permission-status": "permissioned", "notes": "The site is currently under construction. Redevelopment of site to facilitate erection of a mixed use building comprising ground floor retail (Use Class A1) with associated access parking, servicing and residential accommodation (Use Class C3) on the first, second and third floors comprising 35 studio, 1 and 2 bed flats, associated access, basement parking and private communal amenity space", "planning-permission-date": "2016-08-05", "point": "POINT(-0.61 51.68)", "hectares": "0.16", "planning-permission-type": "full planning permission", "minimum-net-dwellings": "34", "organisation": "local-authority-eng:CHN", "maximum-net-dwellings": "34", "deliverable": "yes", "ownership-status": "not owned by a public authority", "slug": "/brownfield-land/local-authority-eng/CHN/CD0160", "entity": 479376, "entry-date": "2017-12-08"}}