{"type": "Feature", "geometry": {"type": "Point", "coordinates": [-1.433025, 52.494777]}, "properties": {"resource": "ebe0eeccbd0d57218454c33ad2e4f0ce09ba162e0e3fee7fd36252298895f359", "site-address": "Land rear of Marston House Farm, Nuneaton Road, Bulkington", "deliverable": "yes", "end-date": "", "entry-date": "2019-12-06", "hazardous-substances": "", "hectares": "1.4", "maximum-net-dwellings": "43", "minimum-net-dwellings": "43", "notes": "The site is located in the Greenbelt consisting of farm buildings and farmland. Allocated as a Non-strategic site in NBBC Borough Plan 2011-2031 (NUN318)", "organisation": "local-authority-eng:NUN", "ownership-status": "not owned by a public authority", "planning-permission-date": "", "planning-permission-history": "", "planning-permission-status": "not permissioned", "planning-permission-type": "", "point": "POINT(-1.433025 52.494777)", "site": "BF016", "site-plan-url": "https://www.nuneatonandbedworth.gov.uk/downloads/file/2200/brownfield_register_-_individual_site_maps_2032", "start-date": "", "id": "ebe0eeccbd0d57218454c33ad2e4f0ce09ba162e0e3fee7fd36252298895f359:62816"}}