{"type": "Feature", "geometry": {"type": "Point", "coordinates": [-5.661605, 54.535507]}, "properties": {"resource": "7054465d8c8c10a3d45508912b91518e9635f1165be87050db8efbb9d77eb444", "site-address": "Lower Mill, Kingston Road", "deliverable": "yes", "end-date": "17/09/2019", "entry-date": "2019-12-10", "hazardous-substances": "", "hectares": "0.55", "maximum-net-dwellings": "29", "minimum-net-dwellings": "29", "notes": "Site developed", "organisation": "local-authority-eng:EPS", "ownership-status": "not owned by a public authority", "planning-permission-date": "2019-07-17", "planning-permission-history": "http://eplanning.epsom-ewell.gov.uk/online-applications/simpleSearchResults.do?action=firstPage", "planning-permission-status": "permissioned", "planning-permission-type": "full planning permission", "point": "POINT(-5.661605 54.535507)", "site": "600", "site-plan-url": "", "start-date": "2018-12-04", "id": "600"}}