{"type": "Feature", "geometry": {"type": "Point", "coordinates": [1.724297, 52.48391]}, "properties": {"start-date": "2017-12-01", "minimum-net-dwellings": "0", "hectares": "1.52", "site-plan-url": "http://waveney.maps.arcgis.com/apps/MapJournal/index.html?appid=1a787ff0d2604387987c86ac1ae56188", "notes": "Owned by a developer and expected to complete by 2022. Residential development including new access road. http://www.eastsuffolk.gov.uk/assets/Planning/Waveney-Local-Plan/Site-Specific-Allocations-DPD/01-Main-Document.pdf", "name": "WDC002", "site": "WDC002", "planning-permission-status": "permissioned", "point": "POINT(1.724297 52.48391)", "organisation": "local-authority-eng:WAV", "maximum-net-dwellings": "0", "deliverable": "yes", "ownership-status": "not owned by a public authority", "site-address": "Monckton Avenue Nursery Lowestoft Suffolk", "planning-permission-history": "http://publicaccess.eastsuffolk.gov.uk/online-applications/applicationDetails.do?activeTab=summary&keyVal=OLFAPQQXK8F00", "slug": "/brownfield-land/local-authority-eng/WAV/WDC002", "entry-date": "2018-11-20", "planning-permission-type": "full planning permission", "planning-permission-date": "2017-12-05"}}