{"type": "Feature", "geometry": {"type": "Point", "coordinates": [-1.727007, 51.811519]}, "properties": {"planning-permission-status": "permissioned", "site-address": "Former filling station on the A40 Windrush section, Windrush", "maximum-net-dwellings": "16", "start-date": "2017-11-13", "organisation": "local-authority-eng:COT", "point": "POINT(-1.727007 51.811519)", "site-plan-url": "http://my.cotswold.gov.uk/mcd.aspx?MapSource=WOxford/cdc_AllMaps&StartEasting=418917.000000&StartNorthing=212578.000000&StartZoom=250&o=1&Layers=Brownfield_Sites_CDC", "name": "13/02463/OUT", "ownership-status": "not owned by a public authority", "deliverable": "yes", "site": "13/02463/OUT", "planning-permission-date": "2014-06-03", "minimum-net-dwellings": "16", "planning-permission-type": "outline planning permission", "hectares": "1.17", "notes": "Has planning permission for 16 dwellings. Conversion of partially constructed motel building to form 16 apartments", "slug": "/brownfield-land/local-authority-eng/COT/13-02463-OUT", "entity": 500732, "entry-date": "2017-11-13"}}