{"type": "Feature", "geometry": {"type": "Point", "coordinates": [0.042958, 51.491428]}, "properties": {"resource": "7b913c52d8f27965df11035d969a9803fa35921c4a2d889867a9e6151681ab8f", "site-address": "\u201cPenhall Tyres Ltd, 700 Woolwich Rd Charlton\u201c", "deliverable": "yes", "end-date": "", "entry-date": "2019-12-17", "hazardous-substances": "", "hectares": "0.06", "maximum-net-dwellings": "14", "minimum-net-dwellings": "14", "notes": "\u201c14/0289/F. Started.", "organisation": "local-authority-eng:GRE", "ownership-status": "not owned by a public authority", "planning-permission-date": "2016-08-08", "planning-permission-history": "https://www.royalgreenwich.gov.uk/info/200193/planning_applications_and_permissions/21/view_planning_applications_decisions_and_appeals", "planning-permission-status": "permissioned", "planning-permission-type": "full planning permission", "point": "POINT(0.042958 51.491428)", "site": "RBG-58", "site-plan-url": "", "start-date": "2017-12-22", "id": "7b913c52d8f27965df11035d969a9803fa35921c4a2d889867a9e6151681ab8f:33598"}}