{"type": "Feature", "geometry": {"type": "Point", "coordinates": [-1.384731, 54.912772]}, "properties": {"resource": "65a6d1082bfe7c2136d2fa9d42a4974f075398e3d927751c7aa9e23dd74151a9", "site-address": "Stadium Village, Sheepfolds South", "deliverable": "", "end-date": "", "entry-date": "2018-11-30", "hazardous-substances": "", "hectares": "0.89", "maximum-net-dwellings": "70", "minimum-net-dwellings": "63", "notes": "Part of Stadium Village Development Framework SPD masterplan and Central Area Urban Design Strategy SPD", "organisation": "local-authority-eng:SND", "ownership-status": "mixed ownership", "planning-permission-date": "", "planning-permission-history": "https://www.sunderland.gov.uk/online-applications", "planning-permission-status": "not permissioned", "planning-permission-type": "", "point": "POINT(-1.384731 54.912772)", "site": "080B", "site-plan-url": "https://www.sunderland.gov.uk/article/12739/Brownfield-Sites-Register", "start-date": "2017-11-30", "id": "080B"}}