{"type": "Feature", "geometry": {"type": "Point", "coordinates": [-0.7894, 54.139174]}, "properties": {"name": "Malton-02", "maximum-net-dwellings": "42", "site-plan-url": "https://www.ryedale.gov.uk/images/PDF/planning/Ryedale_House_Malton.pdf", "hectares": "1.4", "planning-permission-status": "not permissioned", "site-address": "Ryedale House, Old Malton Road, Malton", "organisation": "local-authority-eng:RYE", "ownership-status": "owned by a public authority", "point": "POINT(-0.7894 54.139174)", "start-date": "2017-12-21", "deliverable": "yes", "minimum-net-dwellings": "42", "site": "Malton-02", "slug": "/brownfield-land/local-authority-eng/RYE/Malton-02", "entry-date": "2017-12-21"}}