{"type": "Feature", "geometry": {"type": "Point", "coordinates": [-0.946808, 51.452349]}, "properties": {"organisation": "local-authority-eng:RDG", "hectares": "0.07", "site-address": "28 Wokingham Road, Reading", "minimum-net-dwellings": "7", "name": "BL2038", "notes": "Permission 150325. Erection of seven new flats: 4 x 2 bed flats and 3 x 1 bed flat", "start-date": "2017-12-15", "site": "BL2038", "maximum-net-dwellings": "7", "planning-permission-date": "2016-05-03", "site-plan-url": "https://www.reading.gov.uk/media/8107/Brownfield-Register-Maps-BL2001-2051/pdf/Brownfield_Land_Register_Maps_2019_2001_to_2051.pdf", "planning-permission-type": "full planning permission", "ownership-status": "not owned by a public authority", "planning-permission-status": "permissioned", "deliverable": "yes", "slug": "/brownfield-land/local-authority-eng/RDG/BL2038", "entry-date": "2019-12-16", "point": "POINT(-0.946808 51.452349)"}}