{"type": "Feature", "geometry": {"type": "Point", "coordinates": [-2.669151, 53.393098]}, "properties": {"resource": "e626e52de15e9af1e4518031bf1bc0157c9aaf661312b2da6e121488717e5673", "site-address": "Front of Former Hewden Tool Hire, Junction of Laburnum Lane/Liverpool Road, Gt Sankey, WA5 3LF", "deliverable": "", "end-date": "", "entry-date": "2017-01-01", "hazardous-substances": "", "hectares": "0.16", "maximum-net-dwellings": "5", "minimum-net-dwellings": "5", "notes": "Not applicable. Not applicable", "organisation": "local-authority-eng:WRT", "ownership-status": "", "planning-permission-date": "", "planning-permission-history": "", "planning-permission-status": "Not Permissioned", "planning-permission-type": "", "point": "POINT(-2.669151 53.393098)", "site": "2128.0", "site-plan-url": "", "start-date": "2017-01-01", "id": "e626e52de15e9af1e4518031bf1bc0157c9aaf661312b2da6e121488717e5673:60873"}}