{"type": "Feature", "geometry": {"type": "Point", "coordinates": [-0.576282, 51.422475]}, "properties": {"site-address": "Wick Road", "planning-permission-type": "full planning permission", "site": "SLAA/ENG/37", "ownership-status": "not owned by a public authority", "site-plan-url": "http://maps.runnymede.gov.uk/website/maps/index.html", "organisation": "local-authority-eng:RUN", "maximum-net-dwellings": "89", "minimum-net-dwellings": "89", "deliverable": "yes", "hectares": "2.78", "planning-permission-history": "http://maps.runnymede.gov.uk/website/maps/index.html", "planning-permission-date": "2015-03-18", "name": "SLAA/ENG/37", "notes": "RU.14/1208. Erection of 89 residential units in a mix of two and three storey buildings (33 no. 4 plus bed houses, 5 no. 3 bed houses, 50 no. 2 bed flats, 1 no. 1 bed flat, including 18 affordable units) with associated access, parking and landscaping", "point": "POINT(-0.576282 51.422475)", "start-date": "2018-02-02", "planning-permission-status": "permissioned", "slug": "/brownfield-land/local-authority-eng/RUN/SLAA-ENG-37", "entity": 491901, "entry-date": "2018-02-02"}}