{"type": "Feature", "geometry": {"type": "Point", "coordinates": [-1.138845, 52.974215]}, "properties": {"resource": "6a1f3cff0fa11f9ad2b2cf4bee3e55b1613798d4b96925dd261ee03de101dd25", "site-address": "Former Childrens Home, 383-387 Woodborough Road", "deliverable": "yes", "end-date": "", "entry-date": "2016-06-24", "hazardous-substances": "", "hectares": "0.70416", "maximum-net-dwellings": "11", "minimum-net-dwellings": "11", "notes": "", "organisation": "local-authority-eng:NGM", "ownership-status": "not owned by a public authority", "planning-permission-date": "2015-04-14", "planning-permission-history": "", "planning-permission-status": "permissioned", "planning-permission-type": "full planning permission", "point": "POINT(-1.138845 52.974215)", "site": "'9/402", "site-plan-url": "http://maps.nottinghamcity.gov.uk/insightmapping/?l=0.21,9.63&xmin=443521&xmax=468921&ymin=331072&ymax=348991", "start-date": "2016-06-24", "id": "local-authority-eng/NGM/-9-402"}}