{"type": "Feature", "geometry": {"type": "Point", "coordinates": [-1.892976, 52.442314]}, "properties": {"planning-permission-date": "2016-07-15", "site": "S192", "planning-permission-type": "full planning permission", "planning-permission-status": "permissioned", "name": "S192", "maximum-net-dwellings": "14", "ownership-status": "mixed ownership", "organisation": "local-authority-eng:BIR", "hectares": "0.27", "minimum-net-dwellings": "14", "notes": "2015/07557/PA", "deliverable": "yes", "site-plan-url": "https://maps.birmingham.gov.uk/webapps/shlaa/", "site-address": "Land adjacent to 6 Moor Green Lane, Moseley", "point": "POINT(-1.892976 52.442314)", "start-date": "2017-12-19", "slug": "/brownfield-land/local-authority-eng/BIR/S192", "entity": 476447, "entry-date": "2019-12-31"}}