{"type": "Feature", "geometry": {"type": "Point", "coordinates": [-0.01676, 51.4245]}, "properties": {"resource": "86dee119f806d0c7f62295e6aae502851827e848202c4e43e833126ed62773db", "site-address": "117 Dunfield Road", "deliverable": "yes", "end-date": "", "entry-date": "2017-11-30", "hazardous-substances": "", "hectares": "0.04", "maximum-net-dwellings": "7", "minimum-net-dwellings": "7", "notes": "16/99506 for residential development including 4 x one bedroom, 3 x two bedroom and 1 x three bedroom self-contained flats", "organisation": "local-authority-eng:LEW", "ownership-status": "not owned by a public authority", "planning-permission-date": "2017-05-19", "planning-permission-history": "", "planning-permission-status": "permissioned", "planning-permission-type": "full planning permission", "point": "POINT(-0.01676 51.4245)", "site": "BL002", "site-plan-url": "http://www.lewisham.gov.uk/brownfieldregister", "start-date": "2017-11-30", "id": "86dee119f806d0c7f62295e6aae502851827e848202c4e43e833126ed62773db:26139"}}