{"type": "Feature", "geometry": {"type": "Point", "coordinates": [0.191154, 51.293173]}, "properties": {"resource": "88b8c74d627654fe025357f34a133d75a5e35758d4c191e6c55d6677105bd5d4", "site-address": "Sevenoaks Gasholder Station, Cramptons Road, Sevenoaks", "deliverable": "", "end-date": "", "entry-date": "2018-12-01", "hazardous-substances": "", "hectares": "0.98", "maximum-net-dwellings": "98", "minimum-net-dwellings": "98", "notes": "", "organisation": "local-authority-eng:SEV", "ownership-status": "not owned by a public authority", "planning-permission-date": "", "planning-permission-history": "", "planning-permission-status": "Not permissioned", "planning-permission-type": "", "point": "POINT(0.191154 51.293173)", "site": "BFR108", "site-plan-url": "https://www.sevenoaks.gov.uk/downloads/file/1926/sup017a_site_appraisals_-_sites_included_in_the_local_plan", "start-date": "2017-12-01", "id": "88b8c74d627654fe025357f34a133d75a5e35758d4c191e6c55d6677105bd5d4:38330"}}