{"type": "Feature", "geometry": {"type": "Point", "coordinates": [-1.704538, 52.355722]}, "properties": {"planning-permission-date": "2019-04-10", "ownership-status": "not owned by a public authority", "start-date": "2019-12-09", "site-address": "The Willows, Netherwood Lane, Chadwick End B93 0BD", "planning-permission-history": "https://publicaccess.solihull.gov.uk/online-applications/propertyDetails.do?activeTab=relatedCases&keyVal=000Y69OELI000", "site-plan-url": "https://www.solihull.gov.uk/Portals/0/Planning/BLR/PR72.pdf", "minimum-net-dwellings": "1", "planning-permission-status": "permissioned", "maximum-net-dwellings": "1", "planning-permission-type": "outline planning permission", "name": "PR72", "deliverable": "yes", "organisation": "local-authority-eng:SOL", "point": "POINT(-1.704538 52.355722)", "site": "PR72", "hectares": "0.11", "slug": "/brownfield-land/local-authority-eng/SOL/PR72", "entry-date": "2019-12-09"}}