{"type": "Feature", "geometry": {"type": "Point", "coordinates": [-1.730805, 53.792823]}, "properties": {"resource": "45943bab01aef31a1c8c60cb8eb9a9385275b491a3dc6d4f2d0572902c54d0e9", "site-address": "Steadman Street, Whitehead Street, Barkerend", "deliverable": "", "end-date": "", "entry-date": "2018-11-01", "hazardous-substances": "", "hectares": "0.4", "maximum-net-dwellings": "18", "minimum-net-dwellings": "15", "notes": "The site is vacant and is not being used but it has had planning permission for residential previously but the owners intentions are not currently known", "organisation": "local-authority-eng:BRD", "ownership-status": "", "planning-permission-date": "", "planning-permission-history": "https://planning.bradford.gov.uk/online-applications/applicationDetails.do?keyVal=JBYZZDDHV6000&activeTab=summary|https://planning.bradford.gov.uk/online-applications/applicationDetails.do?keyVal=7404184COU&activeTab=summary|https://planning.bradford.gov", "planning-permission-status": "not permissioned", "planning-permission-type": "", "point": "POINT(-1.730805 53.792823)", "site": "NE/113", "site-plan-url": "http://cbmdc.maps.arcgis.com/apps/webappviewer/index.html?id=2134938ccf5843649ef0e555c0926dae&extent=417784.0195,432938.0819,417868.91,433017.6256,27700", "start-date": "2017-11-01", "id": "NE-113"}}