{"type": "Feature", "geometry": {"type": "Point", "coordinates": [-0.02002, 51.47867]}, "properties": {"planning-permission-status": "not permissioned", "organisation": "local-authority-eng:LEW", "start-date": "2017-11-30", "ownership-status": "not owned by a public authority", "notes": "Site Allocation SA11 for mixed use development including 200 residential units", "site": "NX010", "hectares": "1", "minimum-net-dwellings": "233", "site-address": "Sun Wharf, Cockpit Arts", "name": "NX010", "point": "POINT(-0.02002 51.47867)", "maximum-net-dwellings": "233", "slug": "/brownfield-land/local-authority-eng/LEW/NX010", "entry-date": "2018-10-22", "site-plan-url": "http://www.lewisham.gov.uk/brownfieldregister"}}