{"type": "Feature", "geometry": {"type": "Point", "coordinates": [1.126311, 51.369332]}, "properties": {"resource": "9b92c71e9e1c35f506a9fb6e6840a19f0e88be36d3845bf04823d07187124d00", "site-address": "Garage Site at Kings Road/Park Road Junction, Herne Bay", "deliverable": "", "end-date": "", "entry-date": "2017-11-23", "hazardous-substances": "", "hectares": "0.13", "maximum-net-dwellings": "43", "minimum-net-dwellings": "43", "notes": "Existing Allocation in Local Plan. Allocated for 43 dwellings", "organisation": "local-authority-eng:CAT", "ownership-status": "", "planning-permission-date": "", "planning-permission-history": "", "planning-permission-status": "Not Permissioned", "planning-permission-type": "", "point": "POINT(1.126311 51.369332)", "site": "BR-020", "site-plan-url": "https://mapping.canterbury.gov.uk/webapps/Brownfield_Sites/?center=617703,168002,27700&scale=500", "start-date": "2017-11-01", "id": "9b92c71e9e1c35f506a9fb6e6840a19f0e88be36d3845bf04823d07187124d00:43190"}}