{"type": "Feature", "geometry": {"type": "Point", "coordinates": [-2.520302, 53.580837]}, "properties": {"minimum-net-dwellings": "26", "organisation": "local-authority-eng:BOL", "site-plan-url": "http://mappinggm.org.uk/gmodin/", "planning-permission-history": "https://www.planningpa.bolton.gov.uk/online-applications-17/search.do?action=simple&searchType=Application", "planning-permission-status": "not permissioned", "notes": "Allocated site for 26 dwellings. http://mappinggm.org.uk/gmodin/", "maximum-net-dwellings": "26", "site-address": "Ox Hey Lane", "hectares": "0.97", "point": "POINT(-2.520302 53.580837)", "start-date": "2017-12-31", "name": "148-BOL", "ownership-status": "not owned by a public authority", "site": "148-BOL", "slug": "/brownfield-land/local-authority-eng/BOL/148-BOL", "entity": 477203, "entry-date": "2017-12-31"}}