{"type": "Feature", "geometry": {"type": "Point", "coordinates": [1.078152, 51.278603]}, "properties": {"deliverable": "yes", "planning-permission-status": "permissioned", "notes": "Demolition of rear extension to 75 Stour Street together with internal alterations, change of use and construction of 2 new buildings within the courtyard to form 5 new residential dwellings.", "planning-permission-date": "2016-05-13", "planning-permission-type": "full planning permission", "site": "BR-053", "minimum-net-dwellings": "5", "point": "POINT(1.078152 51.278603)", "name": "BR-053", "site-address": "Old Brewery Business Centre, 75 Stour Street, Canterbury, CT1 2NR", "start-date": "2017-11-01", "maximum-net-dwellings": "5", "hectares": "0.07", "organisation": "local-authority-eng:CAT", "site-plan-url": "https://mapping.canterbury.gov.uk/webapps/Brownfield_Sites/?center=614775,157773,27700&scale=500", "slug": "/brownfield-land/local-authority-eng/CAT/BR-053", "entry-date": "2020-12-10"}}