{"type": "Feature", "geometry": {"type": "Point", "coordinates": [-2.14763, 52.591488]}, "properties": {"point": "POINT(-2.14763 52.591488)", "hectares": "0.1477", "planning-permission-status": "Completed During 2016/17", "name": "36070", "site-address": "57 Albert Road Wolverhampton West Midlands WV6 0AG", "start-date": "2016-01-01", "organisation": "local-authority-eng:WLV", "site": "36070", "slug": "/brownfield-land/local-authority-eng/WLV/36070", "entity": 498559, "entry-date": "2018-05-22"}}