{"type": "Feature", "geometry": {"type": "Point", "coordinates": [-1.527058, 54.898914]}, "properties": {"resource": "e91a0e5bf7accaf40bb0bf4c1aa5c287c79ac9577db89034b99b482991936a56", "site-address": "Glebe Parkway", "deliverable": "yes", "end-date": "", "entry-date": "2018-11-30", "hazardous-substances": "", "hectares": "1.64", "maximum-net-dwellings": "43", "minimum-net-dwellings": "43", "notes": "Permitted application ref. 16/01045/FUL. https://www.sunderland.gov.uk/media/20420/SHLAA-Washington-Appendices/pdf/20d_Washington_App_O.pdf?m=636645832611900000|https://www.sunderland.gov.uk/media/19102/Strategic-Land-Review-Washington-2016-/pdf/14E_Strategic_Land_Review_Washington_(2016).pdf", "organisation": "local-authority-eng:SND", "ownership-status": "not owned by a public authority", "planning-permission-date": "2016-11-23", "planning-permission-history": "https://www.sunderland.gov.uk/online-applications", "planning-permission-status": "permissioned", "planning-permission-type": "full planning permission", "point": "POINT(-1.527058 54.898914)", "site": "109", "site-plan-url": "https://www.sunderland.gov.uk/article/12739/Brownfield-Sites-Register", "start-date": "2017-11-30", "id": "e91a0e5bf7accaf40bb0bf4c1aa5c287c79ac9577db89034b99b482991936a56:62476"}}