{"type": "Feature", "geometry": {"type": "Point", "coordinates": [-0.415621, 51.332107]}, "properties": {"planning-permission-type": "full planning permission", "organisation": "local-authority-eng:ELM", "name": "21", "ownership-status": "not owned by a public authority", "site-plan-url": "http://emaps.elmbridge.gov.uk/ebc_brownfield.aspx?requesttype=parseTemplate&template=BrownFieldmapsearch.tmplt&layers=Brownfield_Register,ebc_boroughboundary&startzoom=800&startEasting=510476.41588508699&startNorthing=160414.89856539501", "notes": "PD Prior Notification: Change of use from Office (B1a) to Residential (C3)", "planning-permission-date": "2017-04-04", "point": "POINT(-0.415621 51.332107)", "site": "21", "start-date": "2017-12-15", "site-address": "The Glashaus, 74 Portsmouth Road, Cobham Surrey, KT11 1HY", "planning-permission-history": "http://emaps.elmbridge.gov.uk/ebc_planning.aspx?pagerecs=500&maxrecords=500&template=SearchResultsTab.tmplt&requestType=parseTemplate&ADDRESS%3APARAM=Wyndham+Court", "planning-permission-status": "permissioned", "deliverable": "yes", "hectares": "0.5995", "slug": "/brownfield-land/local-authority-eng/ELM/21", "entry-date": "2018-04-01", "maximum-net-dwellings": "53", "minimum-net-dwellings": "53"}}