{"type": "Feature", "geometry": {"type": "Point", "coordinates": [-1.625312, 54.971382]}, "properties": {"name": "6011", "minimum-net-dwellings": "5", "site": "6011", "maximum-net-dwellings": "6", "point": "POINT(-1.625312 54.971382)", "planning-permission-status": "permissioned", "ownership-status": "not owned by a public authority", "site-plan-url": "https://www.newcastle.gov.uk/sites/default/files/planning/policy/Brownfield%20Register%20Map%202019.pdf", "site-address": "Ron Eager House 214 Westgate Road Newcastle upon Tyne NE4 6AN", "hectares": "0.02", "organisation": "local-authority-eng:NET", "slug": "/brownfield-land/local-authority-eng/NET/6011", "entity": 488687, "entry-date": "2019-12-23", "planning-permission-date": "2018-05-24", "planning-permission-type": "full planning permission", "start-date": "2018-12-17", "notes": "Change of use from offices (Class B1) to 2 No. studios and 3 No. flats (Class C3) erection of cycle shelter and provision of refuse storage"}}