{"type": "Feature", "geometry": {"type": "Point", "coordinates": [-1.081185, 53.960156]}, "properties": {"resource": "e919e918e557d3ddcb1a4a843a902218b2b8ad76c429814650dea00d4b6efda5", "site-address": "26-30 Swinegate", "deliverable": "yes", "end-date": "", "entry-date": "2019-12-18", "hazardous-substances": "", "hectares": "0.06", "maximum-net-dwellings": "8", "minimum-net-dwellings": "8", "notes": "See planning application: 16/01532/FUL. Conversion of upper floors of 4-6 Church Street and 26-30 Swinegate (use Class B1a) to form 8no. Apartments", "organisation": "local-authority-eng:YOR", "ownership-status": "not owned by a public authority", "planning-permission-date": "2016-10-07", "planning-permission-history": "https://www.york.gov.uk/SearchPlanningApplications", "planning-permission-status": "permissioned", "planning-permission-type": "full planning permission", "point": "POINT(-1.081185 53.960156)", "site": "BR-009", "site-plan-url": "https://www.york.gov.uk/downloads/download/4172/brownfield_register", "start-date": "2017-12-21", "id": "e919e918e557d3ddcb1a4a843a902218b2b8ad76c429814650dea00d4b6efda5:14307"}}