{"type": "Feature", "geometry": {"type": "Point", "coordinates": [-2.286456, 53.541192]}, "properties": {"start-date": "2020-10-22", "name": "HL/2985/00", "site": "HL/2985/00", "site-plan-url": "http://maps.bury.gov.uk/webmaplayers8/Map.aspx?x=381114&y=404988&resolution=0.5&epsg=27700&mapname=bury_shlaa_external&baseLayer=GreyScaleBury&datalayers=Brownfield%20Land%20Register%20Now%2CBury%20Council%2CselectFeaturesControl_container", "planning-permission-date": "2019-06-11", "planning-permission-status": "permissioned", "organisation": "local-authority-eng:BUR", "site-address": "85 Bury Old Road, Whitefield, Manchester, M45 7AY", "hectares": "0.12", "point": "POINT(-2.286456 53.541192)", "planning-permission-type": "full planning permission", "notes": "63003 - Erection of office building and apartment building (11 dwl) approved 11/6/19", "ownership-status": "not owned by a public authority", "maximum-net-dwellings": "11", "planning-permission-history": "https://planning.bury.gov.uk/online-applications/search.do?action=simple", "minimum-net-dwellings": "11", "deliverable": "yes", "slug": "/brownfield-land/local-authority-eng/BUR/HL-2985-00", "entity": null, "entry-date": "2020-10-22"}}