{"type": "Feature", "geometry": {"type": "Point", "coordinates": [-2.1714, 53.8581]}, "properties": {"minimum-net-dwellings": "9", "notes": "Full: Major: Erection of 10 semi-detached bungalows with associated bin storage and parking. Work has started on site", "name": "CE197 / P167", "hectares": "0.287", "planning-permission-status": "permissioned", "planning-permission-history": "https://publicaccess.pendle.gov.uk/online-applications/", "organisation": "local-authority-eng:PEN", "site": "CE197 / P167", "deliverable": "yes", "start-date": "2019-10-14", "ownership-status": "not owned by a public authority", "maximum-net-dwellings": "9", "site-address": "Site of Former 1 to 34 Bright Street, Colne", "planning-permission-date": "2018-12-07", "site-plan-url": "https://www.pendle.gov.uk/downloads/download/3052/brownfield_register_site_plans", "planning-permission-type": "full planning permission", "point": "POINT(-2.1714 53.8581)", "slug": "/brownfield-land/local-authority-eng/PEN/CE197---P167", "entry-date": "2019-10-14"}}