{"type": "Feature", "geometry": {"type": "Point", "coordinates": [0.291208, 50.819957]}, "properties": {"organisation": "local-authority-eng:WEA", "planning-permission-status": "permissioned", "minimum-net-dwellings": "5", "site-address": "Blackness Yard, Hailsham Road, Stone Cross", "notes": "Total of five units comprising of five detached dwellings", "site": "BFR20", "point": "POINT(0.291208 50.819957)", "site-plan-url": "http://www.wealden.gov.uk/Wealden/Residents/Planning_and_Building_Control/Planning_Policy/Brownfield_Register/PPolicy_Brownfield_Register.aspx", "deliverable": "yes", "planning-permission-history": "http://www.planning.wealden.gov.uk/searchresults.aspx?SearchType=15&ApplicationNumber=2017/0177/F", "start-date": "2017-12-13", "hectares": "0.28", "maximum-net-dwellings": "5", "ownership-status": "not owned by a public authority", "name": "BFR20", "planning-permission-type": "full planning permission", "planning-permission-date": "2017-08-18", "slug": "/brownfield-land/local-authority-eng/WEA/BFR20", "entry-date": "2017-12-13"}}