{"type": "Feature", "geometry": {"type": "Point", "coordinates": [0.09364, 51.372091]}, "properties": {"point": "POINT(0.09364 51.372091)", "hectares": "0.06", "minimum-net-dwellings": "5", "name": "BLR67", "planning-permission-date": "2018-01-04", "maximum-net-dwellings": "5", "site": "BLR67", "planning-permission-type": "full planning permission", "site-address": "Heatherwood, 33 Station Road Orpington", "deliverable": "yes", "planning-permission-status": "permissioned", "organisation": "local-authority-eng:BRY", "slug": "/brownfield-land/local-authority-eng/BRY/BLR67", "entry-date": "2019-10-20"}}