{"type": "Feature", "geometry": {"type": "Point", "coordinates": [0.007324, 51.609829]}, "properties": {"site-plan-url": "https://maps.london.gov.uk/brownfield-site-register", "ownership-status": "not owned by a public authority", "site-address": "73 And 75 Falmouth Avenue", "organisation": "local-authority-eng:WFT", "name": "173176", "maximum-net-dwellings": "7", "site": "173176", "planning-permission-type": "full planning permission", "deliverable": "yes", "start-date": "2019-12-10", "minimum-net-dwellings": "7", "planning-permission-status": "permissioned", "point": "POINT(0.007324 51.609829)", "hectares": "0.162", "planning-permission-date": "2018-07-18", "slug": "/brownfield-land/local-authority-eng/WFT/173176", "entry-date": "2019-12-10"}}