{"type": "Feature", "geometry": {"type": "Point", "coordinates": [-2.186268, 52.624327]}, "properties": {"resource": "070747cb51d68682cd9a42e6d3e7887cf1789164006238b4c3bd52d5243307b6", "site-address": "Birches Bridge Garage, Wolverhampton Road, Bilbrook", "deliverable": "yes", "end-date": "", "entry-date": "2017-11-21", "hazardous-substances": "", "hectares": "0.4", "maximum-net-dwellings": "39", "minimum-net-dwellings": "39", "notes": "The proposed demolition and development of 39 Retirement Living apartments including communal facilities, landscaping and car parking. (Major development)", "organisation": "local-authority-eng:SST", "ownership-status": "not owned by a public authority", "planning-permission-date": "2016-04-11", "planning-permission-history": "", "planning-permission-status": "permissioned", "planning-permission-type": "full planning permission", "point": "POINT(-2.186268 52.624327)", "site": "BI/41", "site-plan-url": "https://www.sstaffs.gov.uk/planning/brownfield-land-register.cfm", "start-date": "2017-11-21", "id": "BI-41"}}