{"type": "Feature", "geometry": {"type": "Point", "coordinates": [-0.147933, 50.838165]}, "properties": {"resource": "4b2da6f47851f1d21956ad22a691dddd67406e2341d77b84629a4c674366611a", "site-address": "171 - 173 Preston Road (Prestamex House)", "deliverable": "yes", "end-date": "", "entry-date": "2017-09-25", "hazardous-substances": "", "hectares": "0.46", "maximum-net-dwellings": "63", "minimum-net-dwellings": "63", "notes": "Development commenced 201617. Change of use from offices (B1) to 34no one bedroom 25no two bedroom and 4no three bedroom flats (C3).", "organisation": "local-authority-eng:BNH", "ownership-status": "not owned by a public authority", "planning-permission-date": "2016-07-22", "planning-permission-history": "http://ww3.brighton-hove.gov.uk/index.cfm?request=c1199915&action=showDetail&APPLICATION_NUMBER=BH2016%2F01968|http://ww3.brighton-hove.gov.uk/index.cfm?request=c1199915&action=showDetail&APPLICATION_NUMBER=BH2015%2F00250|http://ww3.brighton-hove.gov.uk/index.cfm?request=c1199915&action=showDetail&APPLICATION_NUMBER=BH2014%2F02673|http://ww3.brighton-hove.gov.uk/index.cfm?request=c1199915&action=showDetail&APPLICATION_NUMBER=BH2014%2F01522", "planning-permission-status": "permissioned", "planning-permission-type": "", "point": "POINT(-0.147933 50.838165)", "site": "SHLAA6138", "site-plan-url": "https://www.brighton-hove.gov.uk/sites/brighton-hove.gov.uk/files/SHLAA6138%20171%20-%20173%20Preston%20Road%20%28Prestamex%20House%29.pdf", "start-date": "2017-09-25", "id": "4b2da6f47851f1d21956ad22a691dddd67406e2341d77b84629a4c674366611a:15405"}}