{"type": "Feature", "geometry": {"type": "Point", "coordinates": [-0.076705, 51.461907]}, "properties": {"planning-permission-status": "permissioned", "point": "POINT(-0.076705 51.461907)", "notes": "Conversion of four bedroom dwellinghouse into x 3 flats (1 x 2 bed flat and 2 x 1 bed flats); construction of a single storey rear extension; construction of dormer roof extension to rear slope of th", "site-address": "91 Grove Vale SE22 8EN", "deliverable": "yes", "organisation": "local-authority-eng:SWK", "site": "15-AP-5142", "start-date": "2017-12-20", "planning-permission-type": "full planning permission", "planning-permission-date": "2016-03-08", "minimum-net-dwellings": "0", "maximum-net-dwellings": "0", "hectares": "0.02", "name": "15-AP-5142", "slug": "/brownfield-land/local-authority-eng/SWK/15-AP-5142", "entry-date": "2017-12-20"}}