{"type": "Feature", "geometry": {"type": "Point", "coordinates": [-0.168705, 51.10959]}, "properties": {"resource": "c71e462d50d267b08240d3405317b68e8f844d4adb96e80457d2cca107859d2b", "site-address": "Former TSB Site, Russell Way, Three Bridges, Crawley", "deliverable": "yes", "end-date": "", "entry-date": "2017-11-29", "hazardous-substances": "", "hectares": "0.3", "maximum-net-dwellings": "40", "minimum-net-dwellings": "40", "notes": "Allocated as a deliverable key housing site in Local Plan Policy H2 (Key Housing Sites). This site formed part of a larger site that was granted permission for residential development on appeal (CR/2005/0812/FUL).. http://www.crawley.gov.uk/pw/web/pub260100", "organisation": "local-authority-eng:CRW", "ownership-status": "not owned by a public authority", "planning-permission-date": "", "planning-permission-history": "", "planning-permission-status": "not permissioned", "planning-permission-type": "", "point": "POINT(-0.168705 51.10959)", "site": "CBCBLR014", "site-plan-url": "http://www.crawley.gov.uk/pw/web/PUB327107", "start-date": "2017-11-29", "id": "c71e462d50d267b08240d3405317b68e8f844d4adb96e80457d2cca107859d2b:43028"}}