{"type": "Feature", "geometry": {"type": "Point", "coordinates": [-1.553576, 52.388546]}, "properties": {"resource": "ec1ff31625d546423b174d6e6eafca40efa4f10525199b0cbc6990ceb7d748a9", "site-address": "Cornerfield Cottage, Shultern Lane", "deliverable": "yes", "end-date": "", "entry-date": "2019-11-30", "hazardous-substances": "", "hectares": "0.095", "maximum-net-dwellings": "29", "minimum-net-dwellings": "29", "notes": "Demolition and construction of new building for student accomodation.", "organisation": "local-authority-eng:COV", "ownership-status": "", "planning-permission-date": "2016-10-06", "planning-permission-history": "http://planning.coventry.gov.uk/portal/servlets/ApplicationSearchServlet?PKID=783546", "planning-permission-status": "permissioned", "planning-permission-type": "full planning permission", "point": "POINT(-1.553576 52.388546)", "site": "FUL/2016/1302", "site-plan-url": "http://planning.coventry.gov.uk/portal/servlets/ApplicationSearchServlet", "start-date": "", "id": "FUL-2016-1302"}}