{"type": "Feature", "geometry": {"type": "Point", "coordinates": [0.521292, 51.274636]}, "properties": {"deliverable": "yes", "name": "10/2 161", "organisation": "local-authority-eng:MAI", "hectares": "0.01", "maximum-net-dwellings": "6", "site": "10/2 161", "start-date": "2017-12-01", "site-address": "Earl House,, 27 Earl Street,, Maidstone, ME14 1PF", "ownership-status": "not owned by a public authority", "planning-permission-status": "not permissioned", "point": "POINT(0.521292 51.274636)", "minimum-net-dwellings": "6", "slug": "/brownfield-land/local-authority-eng/MAI/10-2-161", "entity": 486814, "entry-date": "2017-12-01"}}