{"type": "Feature", "geometry": {"type": "Point", "coordinates": [-0.20743, 51.258316]}, "properties": {"point": "POINT(-0.20743 51.258316)", "site": "RBBCBLR006", "ownership-status": "not owned by a public authority", "site-plan-url": "http://www.reigate-banstead.gov.uk/downloads/file/3830/rbbcblr006", "planning-permission-history": "http://planning.reigate-banstead.gov.uk/online-applications/simpleSearchResults.do?action=firstPage", "minimum-net-dwellings": "7", "site-address": "Land south of Margery Lane (Kingswood Hall Estate), Lower Kingswood", "organisation": "local-authority-eng:REI", "hectares": "0.36", "start-date": "2017-12-31", "name": "RBBCBLR006", "deliverable": "yes", "planning-permission-status": "Not permissioned", "maximum-net-dwellings": "7", "slug": "/brownfield-land/local-authority-eng/REI/RBBCBLR006", "entity": 491363, "entry-date": "2017-12-31"}}