{"type": "Feature", "geometry": {"type": "Point", "coordinates": [-0.094216, 51.482735]}, "properties": {"organisation": "local-authority-eng:SWK", "planning-permission-status": "permissioned", "site": "17-AP-0408", "site-address": "Basement & Ground Floor, 79 Camberwell Road SE5 0EZ", "name": "17-AP-0408", "start-date": "2017-12-20", "deliverable": "yes", "maximum-net-dwellings": "0", "hectares": "0.01", "minimum-net-dwellings": "0", "planning-permission-date": "2017-04-06", "point": "POINT(-0.094216 51.482735)", "planning-permission-type": "full planning permission", "slug": "/brownfield-land/local-authority-eng/SWK/17-AP-0408", "entry-date": "2017-12-20", "notes": "Prior approval for change of use from Use Class A1 to a reduced size A1 unit and 1 dwelling unit (Use Class C3)."}}