{"type": "Feature", "geometry": {"type": "Point", "coordinates": [-0.6, 51.68]}, "properties": {"minimum-net-dwellings": "8", "hectares": "0.15", "site-address": "''Robendene, Grimsdells Lane''", "name": "CD0108", "point": "POINT(-0.6 51.68)", "organisation": "local-authority-eng:CHN", "deliverable": "yes", "maximum-net-dwellings": "12", "start-date": "2017-12-08", "ownership-status": "not owned by a public authority", "site-plan-url": "http://www.chiltern.gov.uk/planning/brownfieldregister", "site": "CD0108", "planning-permission-status": "pending decision", "notes": "Erection of part two, part three storey building with nine apartments, associated amenity space and parking, relocation alterations to existing site access", "slug": "/brownfield-land/local-authority-eng/CHN/CD0108", "entity": 479365, "entry-date": "2017-12-08"}}