{"type": "Feature", "geometry": {"type": "Point", "coordinates": [-1.16197, 53.771115]}, "properties": {"start-date": "2016-06-22", "minimum-net-dwellings": "5", "site": "Hambleton-8", "point": "POINT(-1.16197 53.771115)", "hectares": "0.28", "ownership-status": "not owned by a public authority", "name": "Hambleton-8", "notes": "Possible ground contamination from farm buildings on the eastern half of the site.", "maximum-net-dwellings": "5", "organisation": "local-authority-eng:SEL", "planning-permission-status": "not permissioned", "slug": "/brownfield-land/local-authority-eng/SEL/Hambleton-8", "entity": 492550, "entry-date": "2018-08-07", "site-address": "Main Road Farm, Main Road", "site-plan-url": "https://www.selby.gov.uk/sites/default/files/Brownfield_Register%20_Mapbook_reduced.pdf"}}