{"type": "Feature", "geometry": {"type": "Point", "coordinates": [-1.853587, 53.705642]}, "properties": {"site": "BLR081", "start-date": "2018-12-31", "hectares": "0.11", "site-address": "Land adjacent, 34 Crossley Hill, Halifax", "planning-permission-date": "2018-01-11", "planning-permission-status": "permissioned", "planning-permission-type": "full planning permission", "maximum-net-dwellings": "5", "site-plan-url": "https://maps.calderdale.gov.uk/map/Aurora.svc/run?script=%5CAurora%5CScripts%5CBrownfield%20Land%20Register%202020.AuroraScript%24&nocache=b3a8172e-c9", "minimum-net-dwellings": "5", "point": "POINT(-1.853587 53.705642)", "name": "BLR081", "organisation": "local-authority-eng:CLD", "deliverable": "yes", "slug": "/brownfield-land/local-authority-eng/CLD/BLR081", "entry-date": "2020-05-31", "ownership-status": "not owned by a public authority", "planning-permission-history": "https://portal.calderdale.gov.uk/online-applications/search.do?action=advanced", "notes": "17/00595/FUL - Demolition of garages to facilitate residential development of five dwellings. Granted 11.01.18."}}