{"type": "Feature", "geometry": {"type": "Point", "coordinates": [-0.18875, 51.407793]}, "properties": {"resource": "4a652bd90b96de8059186979c3068d34c1cfdeb433fa3af8233fcd1ef25c998d", "site-address": "22 Deer Park Road SW19 3TL", "deliverable": "", "end-date": "", "entry-date": "2020-01-10", "hazardous-substances": "", "hectares": "0.26", "maximum-net-dwellings": "", "minimum-net-dwellings": "", "notes": "DEMOLITION OF EXISTING SINGLE STOREY WAREHOUSE EXTENSION TO FRONT OF BUILDING. CONSTRUCTION OF A THREE STOREY WAREHOUSE (USE WITHIN CLASS B8) (GROSS FLOOR AREA 2859 SQ.M) ON SAME FOOTPRINT. 20 PARKIN", "organisation": "local-authority-eng:MRT", "ownership-status": "", "planning-permission-date": "2010-07-29", "planning-permission-history": "", "planning-permission-status": "permissioned", "planning-permission-type": "full planning permission", "point": "POINT(-0.18875 51.407793)", "site": "07/P1133", "site-plan-url": "https://maps.london.gov.uk/brownfield-site-register/", "start-date": "2020-01-10", "slug": "local-authority-eng/MRT/07-P1133"}}