{"type": "Feature", "geometry": {"type": "Point", "coordinates": [-2.587409, 53.378927]}, "properties": {"notes": "Not applicable", "site": "1736.0", "hectares": "0.15", "organisation": "local-authority-eng:WRT", "planning-permission-status": "Not Permissioned", "name": "1736.0", "minimum-net-dwellings": "20", "start-date": "2017-06-01", "site-address": "224 - 228 Wilderspool Causeway, Warrington, WA4 6QF", "maximum-net-dwellings": "20", "point": "POINT(-2.587409 53.378927)", "slug": "/brownfield-land/local-authority-eng/WRT/1736-0", "entry-date": "2017-06-01", "deliverable": "yes"}}