{"type": "Feature", "geometry": {"type": "Point", "coordinates": [-1.24144, 54.563576]}, "properties": {"resource": "3f54078d1f55cb266b7a6751ebe44695d12a136675174e3d5bcddf130ef61801", "site-address": "368-374 Linthorpe Road", "deliverable": "yes", "end-date": "", "entry-date": "2018-03-15", "hazardous-substances": "", "hectares": "0.76", "maximum-net-dwellings": "26", "minimum-net-dwellings": "26", "notes": "Identified for 26 student beds in the HLAA.", "organisation": "local-authority-eng:MDB", "ownership-status": "not owned by a public authority", "planning-permission-date": "", "planning-permission-history": "", "planning-permission-status": "not permissioned", "planning-permission-type": "", "point": "POINT(-1.24144 54.563576)", "site": "BR35", "site-plan-url": "https://www.middlesbrough.gov.uk/files/brownfields-register-br35-368-374-linthorpe-roadjpg", "start-date": "2017-12-11", "id": "BR35"}}