{"type": "Feature", "geometry": {"type": "Point", "coordinates": [-2.264192, 53.785726]}, "properties": {"resource": "c038bcf38e57e999041bd66998883f180d6c25bb70ec17880fdf7c057947b779", "site-address": "Former Gardner Site", "deliverable": "", "end-date": "", "entry-date": "2018-02-28", "hazardous-substances": "", "hectares": "1.43", "maximum-net-dwellings": "43", "minimum-net-dwellings": "43", "notes": "Proposed Housing Allocation in Submission Burnley Local Plan (HS1/17)", "organisation": "local-authority-eng:BUN", "ownership-status": "owned by a public authority", "planning-permission-date": "", "planning-permission-history": "http://www.burnley.gov.uk/custom/plnapps/results.php?ref=APP/1999/0369&reference=APP%2F1999%2F0369&search=search&recs=1&", "planning-permission-status": "not permissioned", "planning-permission-type": "", "point": "POINT(-2.264192 53.785726)", "site": "BURN014", "site-plan-url": "", "start-date": "2018-01-12", "id": "BURN014"}}