{"type": "Feature", "geometry": {"type": "Point", "coordinates": [-0.770359, 53.400078]}, "properties": {"resource": "19c1df7af1ea2ed0bc5a4e79f0d4b85753910411294441f25a71acf5cb2f226d", "site-address": "Land at Spring Gardens (Marshalls Rise), Gainsborough", "deliverable": "yes", "end-date": "", "entry-date": "2019-03-31", "hazardous-substances": "", "hectares": "0.29", "maximum-net-dwellings": "39", "minimum-net-dwellings": "39", "notes": "Allocated in CLLP", "organisation": "local-authority-eng:WLI", "ownership-status": "", "planning-permission-date": "2017-10-13", "planning-permission-history": "", "planning-permission-status": "permissioned", "planning-permission-type": "full planning permission", "point": "POINT(-0.770359 53.400078)", "site": "9", "site-plan-url": "https://www.west-lindsey.gov.uk/_resources/assets/attachment/full/0/55645.pdf", "start-date": "2018-12-21", "id": "19c1df7af1ea2ed0bc5a4e79f0d4b85753910411294441f25a71acf5cb2f226d:8845"}}