{"type": "Feature", "geometry": {"type": "Point", "coordinates": [-0.175637, 50.838665]}, "properties": {"resource": "4b2da6f47851f1d21956ad22a691dddd67406e2341d77b84629a4c674366611a", "site-address": "Shell Fuel Garage 132-134 Old Shoreham Road Hove", "deliverable": "", "end-date": "", "entry-date": "2017-10-02", "hazardous-substances": "", "hectares": "0.16", "maximum-net-dwellings": "24", "minimum-net-dwellings": "24", "notes": "", "organisation": "local-authority-eng:BNH", "ownership-status": "not owned by a public authority", "planning-permission-date": "", "planning-permission-history": "", "planning-permission-status": "not permissioned", "planning-permission-type": "", "point": "POINT(-0.175637 50.838665)", "site": "SHLAA5004", "site-plan-url": "https://www.brighton-hove.gov.uk/sites/brighton-hove.gov.uk/files/SHLAA5004%20Shell%20Fuel%20Garage%20132-134%20Old%20Shoreham%20Road%20Hove.pdf", "start-date": "2017-10-02", "id": "4b2da6f47851f1d21956ad22a691dddd67406e2341d77b84629a4c674366611a:15348"}}