{"type": "Feature", "geometry": {"type": "Point", "coordinates": [-0.228186, 51.547386]}, "properties": {"resource": "74c7b0f00404598a9a822077017d74ac25cbbfdbce2166986d805e62a8350d58", "site-address": "High Road, NW10 2PU", "deliverable": "yes", "end-date": "", "entry-date": "2018-12-14", "hazardous-substances": "", "hectares": "0.02", "maximum-net-dwellings": "4", "minimum-net-dwellings": "4", "notes": "14/1811", "organisation": "local-authority-eng:BEN", "ownership-status": "not owned by a public authority", "planning-permission-date": "2017-02-24", "planning-permission-history": "https://pa.brent.gov.uk/online-applications/simpleSearchResults.do?action=firstPage", "planning-permission-status": "permissioned", "planning-permission-type": "full planning permission", "point": "POINT(-0.228186 51.547386)", "site": "BR00096", "site-plan-url": "https://maps.london.gov.uk/brownfield-site-register", "start-date": "2018-12-14", "id": "74c7b0f00404598a9a822077017d74ac25cbbfdbce2166986d805e62a8350d58:31199"}}