{"type": "Feature", "geometry": {"type": "Point", "coordinates": [-0.202579, 51.522193]}, "properties": {"resource": "de3918b3af88df0eebce7fbb3f8bc36f571f59fda90470f9b1e8bee3145f8ca0", "site-address": "1-31 Elkstone Road", "deliverable": "", "end-date": "", "entry-date": "2017-12-31", "hazardous-substances": "", "hectares": "0.53158467", "maximum-net-dwellings": "50", "minimum-net-dwellings": "40", "notes": "", "organisation": "local-authority-eng:KEC", "ownership-status": "mixed ownership", "planning-permission-date": "", "planning-permission-history": "", "planning-permission-status": "not permissioned", "planning-permission-type": "", "point": "POINT(-0.202579 51.522193)", "site": "17200110", "site-plan-url": "https://data.london.gov.uk/dataset/brownfield-land-register", "start-date": "2017-12-31", "id": "17200110"}}