{"type": "Feature", "geometry": {"type": "Point", "coordinates": [-1.865437, 52.426268]}, "properties": {"hectares": "0.09", "site-plan-url": "https://maps.birmingham.gov.uk/webapps/shlaa/", "site-address": "Braceby Avenue rear 81, Billesley", "notes": "Identified by City Council Officers", "maximum-net-dwellings": "4", "start-date": "2017-12-19", "name": "S42", "minimum-net-dwellings": "4", "site": "S42", "planning-permission-status": "Not Permissioned", "organisation": "local-authority-eng:BIR", "point": "POINT(-1.865437 52.426268)", "slug": "/brownfield-land/local-authority-eng/BIR/S42", "entity": 476470, "entry-date": "2019-12-31"}}