{"type": "Feature", "geometry": {"type": "Point", "coordinates": [0.263894, 51.405404]}, "properties": {"resource": "c84876116a22210cb82eb5144dea2f94913745a11a6bd0a06e6f4ecbc15f643f", "site-address": "Gills Farm, Gills Road, South Darenth", "deliverable": "yes", "end-date": "", "entry-date": "2019-12-18", "hazardous-substances": "", "hectares": "0.92", "maximum-net-dwellings": "16", "minimum-net-dwellings": "16", "notes": "Some agricultural use remains on site. Emerging Local Plan Ref ST2-63 - Retain existing tourist accommodation and commercial workshops as part of any scheme. Priority habitats to be protected. Retain or divert public footpath.", "organisation": "local-authority-eng:SEV", "ownership-status": "not owned by a public authority", "planning-permission-date": "", "planning-permission-history": "", "planning-permission-status": "not permissioned", "planning-permission-type": "", "point": "POINT(0.263894 51.405404)", "site": "BFR135", "site-plan-url": "https://maps.sevenoaks.gov.uk/brownfield_register/", "start-date": "2018-12-01", "id": "c84876116a22210cb82eb5144dea2f94913745a11a6bd0a06e6f4ecbc15f643f:52639"}}