{"type": "Feature", "geometry": {"type": "Point", "coordinates": [-2.185511, 53.003304]}, "properties": {"resource": "8ccd263e15e7f49e4acdc9e937a241392d798735ae89734665c11996cce5a41b", "site-address": "Majestic Chambers, 24 Campbell Place, Stoke-on-Trent, ST4 1LX", "deliverable": "yes", "end-date": "", "entry-date": "2017-12-31", "hazardous-substances": "", "hectares": "0.06", "maximum-net-dwellings": "26", "minimum-net-dwellings": "26", "notes": "Change of use from shop (Use Class A1) to dwelling (Use Class C3) (prior approval)", "organisation": "local-authority-eng:STE", "ownership-status": "not owned by a public authority", "planning-permission-date": "2017-02-06", "planning-permission-history": "", "planning-permission-status": "permissioned", "planning-permission-type": "other", "point": "POINT(-2.185511 53.003304)", "site": "60636", "site-plan-url": "https://webmaplayers.stoke.gov.uk/webmaplayers8/Map.aspx?MapName=SHLAA", "start-date": "2017-12-31", "id": "8ccd263e15e7f49e4acdc9e937a241392d798735ae89734665c11996cce5a41b:40264"}}