{"type": "Feature", "geometry": {"type": "Point", "coordinates": [0.058462, 51.47488]}, "properties": {"name": "RBG-39", "site-address": "\u201cKitchener House & Ellington House, Ashmore Rd Woolwich\u201c", "hectares": "0.04", "deliverable": "yes", "organisation": "local-authority-eng:GRE", "notes": "\u201c15/2686/F. Completed in 2019.", "planning-permission-status": "permissioned", "maximum-net-dwellings": "5", "planning-permission-date": "2015-10-22", "point": "POINT(0.058462 51.47488)", "planning-permission-type": "full planning permission", "site": "RBG-39", "minimum-net-dwellings": "5", "start-date": "2017-12-22", "slug": "/brownfield-land/local-authority-eng/GRE/RBG-39", "entity": 483030, "entry-date": "2019-12-17", "planning-permission-history": "https://www.royalgreenwich.gov.uk/info/200193/planning_applications_and_permissions/21/view_planning_applications_decisions_and_appeals", "ownership-status": "not owned by a public authority", "end-date": "2019-12-17"}}