{"type": "Feature", "geometry": {"type": "Point", "coordinates": [-2.558043, 53.71899]}, "properties": {"organisation": "local-authority-eng:CHO", "point": "POINT(-2.558043 53.71899)", "planning-permission-type": "outline planning permission", "name": "2502", "site-plan-url": "https://myaccount.chorley.gov.uk/MyChorley.aspx?iv=tabs", "site": "2502", "minimum-net-dwellings": "28", "start-date": "2017-10-12", "notes": "Outline permission for demolition of the existing building and erection of a 4-storey apartment building providing 28 apartments 16/00236/OUTMAJ has expired.", "ownership-status": "not owned by a public authority", "hectares": "0.18", "maximum-net-dwellings": "28", "planning-permission-date": "2016-05-26", "planning-permission-status": "not permissioned", "site-address": "Hospital Car Park, Preston Road, Chorley", "planning-permission-history": "https://planning.chorley.gov.uk/online-applications/search.do?action=simple&searchType=Application", "slug": "/brownfield-land/local-authority-eng/CHO/2502", "entity": 479415, "entry-date": "2020-12-04", "end-date": "2020-10-01"}}