{"type": "Feature", "geometry": {"type": "Point", "coordinates": [-1.892897, 52.487445]}, "properties": {"deliverable": "yes", "site-plan-url": "https://maps.birmingham.gov.uk/webapps/shlaa/", "notes": "2018/08221/PA", "point": "POINT(-1.892897 52.487445)", "start-date": "2018-09-21", "hectares": "0.17", "planning-permission-status": "permissioned", "organisation": "local-authority-eng:BIR", "maximum-net-dwellings": "199", "minimum-net-dwellings": "199", "site-address": "71 Lancaster Street, Newtown", "planning-permission-type": "full planning permission", "name": "C424", "site": "C424", "planning-permission-date": "2019-01-03", "slug": "/brownfield-land/local-authority-eng/BIR/C424", "entity": 475656, "entry-date": "2019-12-31"}}