{"type": "Feature", "geometry": {"type": "Point", "coordinates": [-2.321663, 53.609144]}, "properties": {"organisation": "local-authority-eng:BUR", "name": "HL/2312/00", "point": "POINT(-2.321663 53.609144)", "start-date": "2017-12-19", "ownership-status": "not owned by a public authority", "planning-permission-history": "https://planning.bury.gov.uk/online-applications/search.do?action=simple", "hectares": "0.33", "minimum-net-dwellings": "10", "site-address": "Garside Garage including Scrap Yard & Stables, Garside Hey Road, Tottington", "planning-permission-status": "not permissioned", "maximum-net-dwellings": "10", "site-plan-url": "http://maps.bury.gov.uk/webmaplayers8/Map.aspx?x=378815&y=412558&resolution=0.5&epsg=27700&mapname=bury_shlaa_external&baseLayer=GreyScaleBury&datalayers=Brownfield%20Land%20Register%20Now%2CBury%20Council%2CselectFeaturesControl_container", "site": "HL/2312/00", "slug": "/brownfield-land/local-authority-eng/BUR/HL-2312-00", "entity": 478573, "entry-date": "2017-12-19"}}