{"type": "Feature", "geometry": {"type": "Point", "coordinates": [1.160159, 52.054837]}, "properties": {"ownership-status": "not owned by a public authority", "site-address": "Waterworks Street", "organisation": "local-authority-eng:IPS", "name": "BLR/IP089", "point": "POINT(1.160159 52.054837)", "notes": "https://www.ipswich.gov.uk/sites/default/files/adopted_site_allocations_and_policies_dpd_and_appendix_3a_site_sheets.pdf#page=158", "minimum-net-dwellings": "23", "maximum-net-dwellings": "23", "planning-permission-status": "not permissioned", "site": "BLR/IP089", "site-plan-url": "http://maps.ipswich.gov.uk/Online_Mapping/Full.aspx?gpm=ed69b604-258d-4762-9eb0-56154e20970b", "hectares": "0.3", "start-date": "2017-12-21", "slug": "/brownfield-land/local-authority-eng/IPS/BLR-IP089", "entity": 484719, "entry-date": "2018-12-13"}}