{"type": "Feature", "geometry": {"type": "Point", "coordinates": [-2.318415, 53.700799]}, "properties": {"resource": "23c91c585f87ed0f8e78122e234a8922cf75cd4323ec51ed6764034b37ee936f", "site-address": "LAND TO SIDE AND REAR OF PETROL STATION, MANCHESTER ROAD", "deliverable": "", "end-date": "", "entry-date": "2018-12-14", "hazardous-substances": "", "hectares": "0.16", "maximum-net-dwellings": "6", "minimum-net-dwellings": "6", "notes": "2004/877. Draft Local Plan Publication version proposes to allocate for 6 dwellings", "organisation": "local-authority-eng:ROS", "ownership-status": "not owned by a public authority", "planning-permission-date": "", "planning-permission-history": "", "planning-permission-status": "not permissioned", "planning-permission-type": "", "point": "POINT(-2.318415 53.700799)", "site": "ROSBS040", "site-plan-url": "https://www.rossendale.gov.uk/downloads/download/10897/brownfield_register", "start-date": "2018-12-14", "id": "ROSBS040"}}