{"type": "Feature", "geometry": {"type": "Point", "coordinates": [-2.22499, 53.594202]}, "properties": {"resource": "34e3c37538889673a7227716ccb0faca6e1b1ffa6a0b8bc7807294d8d144577a", "site-address": "22-26 Bridge Street, Heywood", "deliverable": "", "end-date": "", "entry-date": "2018-12-05", "hazardous-substances": "", "hectares": "0.06", "maximum-net-dwellings": "6", "minimum-net-dwellings": "6", "notes": "", "organisation": "local-authority-eng:RCH", "ownership-status": "", "planning-permission-date": "", "planning-permission-history": "", "planning-permission-status": "Not Permissioned", "planning-permission-type": "", "point": "POINT(-2.22499 53.594202)", "site": "SH 1236", "site-plan-url": "https://mappinggm.org.uk/gmodin/?lyrs=brownfield_2018_gm#os_maps_light/19/53.594202/-2.22499", "start-date": "2017-11-29", "id": "SH1236"}}