{"type": "Feature", "geometry": {"type": "Point", "coordinates": [-1.464677, 52.002413]}, "properties": {"resource": "f41d0d2a21b84ba59e143ce2e5639185bc7f2b7ecc4e9fb1f1224d31e15fd01b", "site-address": "Brymbo Bungalows, Station Road, Hook Norton", "deliverable": "yes", "end-date": "", "entry-date": "2019-10-30", "hazardous-substances": "", "hectares": "0.49", "maximum-net-dwellings": "-1", "minimum-net-dwellings": "-1", "notes": "", "organisation": "local-authority-eng:CHR", "ownership-status": "not owned by a public authority", "planning-permission-date": "2018-10-26", "planning-permission-history": "https://planningregister.cherwell.gov.uk/Search", "planning-permission-status": "permissioned", "planning-permission-type": "full planning permission", "point": "POINT(-1.464677 52.002413)", "site": "BLR50", "site-plan-url": "https://www.cherwell.gov.uk/info/33/planning-policy/384/brownfield-land-register", "start-date": "2019-10-30", "id": "f41d0d2a21b84ba59e143ce2e5639185bc7f2b7ecc4e9fb1f1224d31e15fd01b:29025"}}