{"type": "Feature", "geometry": {"type": "Point", "coordinates": [-1.862297, 52.470317]}, "properties": {"name": "E114", "site": "E114", "point": "POINT(-1.862297 52.470317)", "start-date": "2017-12-19", "planning-permission-date": "2019-01-23", "hectares": "0.11", "maximum-net-dwellings": "8", "site-address": "12 - 18 Whitmore Road, Bordesley Green", "planning-permission-type": "full planning permission", "deliverable": "yes", "organisation": "local-authority-eng:BIR", "site-plan-url": "https://maps.birmingham.gov.uk/webapps/shlaa/", "notes": "2018/00997/PA", "minimum-net-dwellings": "8", "planning-permission-status": "permissioned", "slug": "/brownfield-land/local-authority-eng/BIR/E114", "entity": 475809, "entry-date": "2019-12-31"}}