{"type": "Feature", "geometry": {"type": "Point", "coordinates": [-0.299737, 51.513647]}, "properties": {"resource": "53ff7410d03797e7747d4df128ca450bbe808f4eacc79d0e2d18623ab4a99554", "site-address": "EAL1 Eastern Gateway, 51-53 The Mall, W5", "deliverable": "", "end-date": "", "entry-date": "2017-12-20", "hazardous-substances": "", "hectares": "0.20000000000000001", "maximum-net-dwellings": "5", "minimum-net-dwellings": "5", "notes": "The allocation promotes the site for a mixed use development appropriate to the town centre, including replacement office floorspace and potential residential space on the upper floors. Whilst an est. See allocation in Development Sites DPD (2013)", "organisation": "local-authority-eng:EAL", "ownership-status": "not owned by a public authority", "planning-permission-date": "", "planning-permission-history": "", "planning-permission-status": "Not permissioned", "planning-permission-type": "", "point": "POINT(-0.299737 51.513647)", "site": "EAL1", "site-plan-url": "http://maps.ealing.gov.uk/map/Aurora.svc/run?script=%5cAurora%5cBrownfield_Register_Zoom.AuroraScript%24&nocache=2087154948&resize=always&x=518080.86&y=180783.6", "start-date": "2017-12-20", "id": "53ff7410d03797e7747d4df128ca450bbe808f4eacc79d0e2d18623ab4a99554:39943"}}