{"type": "Feature", "geometry": {"type": "Point", "coordinates": [-1.934079, 53.870744]}, "properties": {"resource": "392f3e0ee0fa2c8b209c8197d34069a06e7c7dbdeadcdaecd4eb2a0d3625f63a", "site-address": "Woodville Road, Spring Gardens Lane, Keighley", "deliverable": "", "end-date": "", "entry-date": "2017-11-01", "hazardous-substances": "", "hectares": "0.77", "maximum-net-dwellings": "34", "minimum-net-dwellings": "28", "notes": "Residential nursing home with expired permission for change of use and extensions to provide 27 self contained retirement flats with shared facilities", "organisation": "local-authority-eng:BRD", "ownership-status": "", "planning-permission-date": "", "planning-permission-history": "https://planning.bradford.gov.uk/online-applications/applicationDetails.do?keyVal=0101045REG&activeTab=summary|https://planning.bradford.gov.uk/online-applications/applicationDetails.do?keyVal=0101401PN&activeTab=summary|https://planning.bradford.gov.uk/online-applications/applicationDetails.do?keyVal=O3GPG5DHIOA00&activeTab=summary|https://planning.bradford.gov.uk/online-applications/applicationDetails.do?keyVal=0001477REG&activeTab=summary|https://planning.bradford.gov.uk/online-applications/applicationDetails.do?keyVal=8702003EXT&activeTab=summary|https://planning.bradford.gov.uk/online-applications/applicationDetails.do?keyVal=9601926FUL&activeTab=summary|https://planning.bradford.gov.uk/online-applications/applicationDetails.do?keyVal=JI1AL4DHV2000&activeTab=summary|https://planning.bradford.gov.uk/online-applications/applicationDetails.do?keyVal=K0WPKIDH0CB00&activeTab=summary|https://planning.bradford.gov.uk/online-applications/applicationDetails.do?keyVal=IF8ZCMDHJ2000&activeTab=summary|https://planning.bradford.gov.uk/online-applications/applicationDetails.do?keyVal=NP2DPFDH02F00&activeTab=summary|https://planning.bradford.gov.uk/online-applications/applicationDetails.do?keyVal=LPYUYJDH0B200&activeTab=summary|https://planning.bradford.gov.uk/online-applications/applicationDetails.do?keyVal=OXLUXADHGIP00&activeTab=summary|https://planning.bradford.gov.uk/online-applications/applicationDetails.do?keyVal=LOVUS2DH0B300&activeTab=summary", "planning-permission-status": "not permissioned", "planning-permission-type": "", "point": "POINT(-1.934079 53.870744)", "site": "KY/095", "site-plan-url": "http://cbmdc.maps.arcgis.com/apps/webappviewer/index.html?id=2134938ccf5843649ef0e555c0926dae&extent=404315.9,441565.65,404541.65,441670.0,27700", "start-date": "2017-11-01", "slug": "local-authority-eng/BRD/KY-095"}}