{"type": "Feature", "geometry": {"type": "Point", "coordinates": [-2.296727, 53.474031]}, "properties": {"site-plan-url": "https://map.salford.gov.uk/maps/?lyrs=brownfield_land_register_2017#17/53.474031/-2.296727", "planning-permission-type": "reserved matters approval", "planning-permission-status": "permissioned", "minimum-net-dwellings": "1395", "site-address": "Land At Quay Point, off Broadway, Salford Quays (MediaCityUk)", "start-date": "2017-12-01", "hectares": "5.67", "site": "S/ORD/012a", "planning-permission-date": "2015-09-01", "organisation": "local-authority-eng:SLF", "ownership-status": "not owned by a public authority", "notes": "Planning permission 16/68301/REM Construction status not started as of 31 March 2017. Planning permission details as of 27 October 2017.. Gross addition of 1,395 apartments.", "name": "S/ORD/012a", "deliverable": "yes", "maximum-net-dwellings": "1395", "point": "POINT(-2.296727 53.474031)", "slug": "/brownfield-land/local-authority-eng/SLF/S-ORD-012a", "entry-date": "2017-12-01"}}