{"type": "Feature", "geometry": {"type": "Point", "coordinates": [-0.741532, 52.759838]}, "properties": {"name": "20/00444/FUL", "point": "POINT(-0.741532 52.759838)", "site": "20/00444/FUL", "start-date": "2018-12-31", "site-address": "The Gollings; Main Street; Wymondham", "planning-permission-status": "pending decision", "notes": "20/00444/FUL received 17.04.2020 residential conversion of two disused chapel buildings; and the erection of five new build dwellings. Demolition of existing storage shed and outbuilding to allow redevelopment of site.", "ownership-status": "not owned by a public authority", "minimum-net-dwellings": "7", "planning-permission-type": "full planning permission", "site-plan-url": "https://meltonborough.maps.arcgis.com/apps/webappviewer/index.html?id=2bbd49fe0a4648fdbde775beefc46392", "organisation": "local-authority-eng:MEL", "hectares": "0.3", "maximum-net-dwellings": "7", "planning-permission-history": "https://pa.melton.gov.uk/online-applications/applicationDetails.do?activeTab=summary&keyVal=Q93FRFKO0GY00", "slug": "/brownfield-land/local-authority-eng/MEL/20-00444-FUL", "entity": 508578, "entry-date": "2020-12-31"}}