{"type": "Feature", "geometry": {"type": "Point", "coordinates": [-0.191756, 51.880974]}, "properties": {"resource": "ec43eb7f3d03d759e70506e9922d48f5bdabeda982f6fa7976bda9e963f8248b", "site-address": "Oddysey Health Club, Knebworth", "deliverable": "yes", "end-date": "", "entry-date": "2019-12-31", "hazardous-substances": "", "hectares": "4.01", "maximum-net-dwellings": "86", "minimum-net-dwellings": "86", "notes": "Redevelopment of the site to provide 86 dwellings (12 x 2 bedroom houses, 12 x 3 bedroom houses, 18 x 4 bedroom houses, 25 x one bedroom apartments, and 19 x 2 bedroom apartments), associated landscaping, car-parking, the provision of a large new public open space and the creation of a new vehicular access off the B197 Stevenage Road following demolition of the former indoor bowling building and several ancillary buildings. Rearrangement of the existing car parking provision for existing Odyssey Health and Racquet Club to provide 141 car parking spaces and alterations to existing vehicular access to Odyssey Health Club from Old Knebworth Lane.", "organisation": "local-authority-eng:NHE", "ownership-status": "not owned by a public authority", "planning-permission-date": "2019-05-22", "planning-permission-history": "https://pa2.north-herts.gov.uk/online-applications/simpleSearchResults.do?action=firstPage", "planning-permission-status": "permissioned", "planning-permission-type": "full planning permission", "point": "POINT(-0.191756 51.880974)", "site": "BR32", "site-plan-url": "", "start-date": "2019-11-28", "id": "ec43eb7f3d03d759e70506e9922d48f5bdabeda982f6fa7976bda9e963f8248b:54400"}}