{"type": "Feature", "geometry": {"type": "Point", "coordinates": [-1.785567, 53.792858]}, "properties": {"resource": "45943bab01aef31a1c8c60cb8eb9a9385275b491a3dc6d4f2d0572902c54d0e9", "site-address": "Northside Road, Girlington", "deliverable": "yes", "end-date": "", "entry-date": "2018-11-01", "hazardous-substances": "", "hectares": "5.3", "maximum-net-dwellings": "0", "minimum-net-dwellings": "0", "notes": "The site has permission for 220 units in outline", "organisation": "local-authority-eng:BRD", "ownership-status": "not owned by a public authority", "planning-permission-date": "2016-03-07", "planning-permission-history": "https://planning.bradford.gov.uk/online-applications/applicationDetails.do?keyVal=7704795REM&activeTab=summary|https://planning.bradford.gov.uk/online-applications/applicationDetails.do?keyVal=8702311NEW&activeTab=summary|https://planning.bradford.gov.uk", "planning-permission-status": "permissioned", "planning-permission-type": "outline planning permission", "point": "POINT(-1.785567 53.792858)", "site": "SW/061A", "site-plan-url": "http://cbmdc.maps.arcgis.com/apps/webappviewer/index.html?id=2134938ccf5843649ef0e555c0926dae&extent=414058.7303,432864.3937,414399.5,433076.75,27700", "start-date": "2017-11-01", "id": "SW-061A"}}