{"type": "Feature", "geometry": {"type": "Point", "coordinates": [-1.16713, 52.256301]}, "properties": {"planning-permission-type": "full planning permission", "planning-permission-status": "permissioned", "name": "DA/2016/0689", "notes": "Conversion and extension to form flats and mews houses", "point": "POINT(-1.16713 52.256301)", "hectares": "0.09", "start-date": "2018-12-07", "deliverable": "yes", "ownership-status": "not owned by a public authority", "organisation": "local-authority-eng:DAV", "planning-permission-date": "2017-11-03", "site-plan-url": "http://selfservice.daventrydc.gov.uk/swiftlg/apas/run/WPHAPPDETAIL.DisplayUrl?theApnID=DA/2016/0689&backURL=<ahref=wphappcriteria.display?paSearchKey=1063076>SearchCriteria</a>><ahref='wphappsearchres.displayResultsURL?ResultID=1423005%26StartIndex=1%26SortOrder=APNID:desc%26DispResultsAs=WPHAPPSEARCHRES%26BackURL=<ahref=wphappcriteria.display?paSearchKey=1063076>SearchCriteria</a>'>SearchResults</a>", "maximum-net-dwellings": "10", "site-address": "Coach And Horses, Warwick Street, Daventry", "site": "DA/2016/0689", "minimum-net-dwellings": "10", "slug": "/brownfield-land/local-authority-eng/DAV/DA-2016-0689", "entry-date": "2020-03-17"}}