{"type": "Feature", "geometry": {"type": "Point", "coordinates": [-0.113745, 51.390441]}, "properties": {"resource": "c9efead8107b7fdb58be9dd4117badd72df58f56a9137ea12110b570fd200003", "site-address": "3 Dunheved Road North", "deliverable": "yes", "end-date": "", "entry-date": "2018-11-30", "hazardous-substances": "", "hectares": "0.18", "maximum-net-dwellings": "9", "minimum-net-dwellings": "9", "notes": "Construction of lower ground floor and third floors and first and second floor side extensions to provide an additional 4 one bedroom, 3 two bedroom and 2 three bedroom flats : recladding of building, relocation of bin store plus the creation of 15no. car parking spaces, 35no. cycle parking spaces and hard and soft landscaping measures. https://publicaccess3.croydon.gov.uk/online-applications/simpleSearchResults.do?action=firstPage", "organisation": "local-authority-eng:CRY", "ownership-status": "not owned by a public authority", "planning-permission-date": "2017-10-31", "planning-permission-history": "https://publicaccess3.croydon.gov.uk/online-applications/simpleSearchResults.do?action=firstPage", "planning-permission-status": "permissioned", "planning-permission-type": "full planning permission", "point": "POINT(-0.113745 51.390441)", "site": "17/03574/FUL", "site-plan-url": "https://publicaccess3.croydon.gov.uk/online-applications/simpleSearchResults.do?action=firstPage", "start-date": "2018-11-30", "id": "17-03574-FUL"}}