{"type": "Feature", "geometry": {"type": "Point", "coordinates": [-0.095499, 51.446314]}, "properties": {"planning-permission-date": "2018-04-09", "site-address": "142,Croxted Road,,SE21 8NR", "notes": "Redevelopment of existing dwelling house including extension and_x000D_ associated work to create 1 x 3 bedroom flat, 1 x 2 bedroom flat and 1 x 1_x000D_ bedroom maisonette; erection of detached single family dwellinghouse", "minimum-net-dwellings": "4", "site": "17-AP-4533", "hectares": "0.05", "organisation": "local-authority-eng:SWK", "start-date": "2020-03-24", "point": "POINT(-0.095499 51.446314)", "maximum-net-dwellings": "4", "name": "17-AP-4533", "slug": "/brownfield-land/local-authority-eng/SWK/17-AP-4533", "entity": 495864, "entry-date": "2020-03-24"}}