{"type": "Feature", "geometry": {"type": "Point", "coordinates": [-1.523369, 55.13333]}, "properties": {"resource": "51fd36daf72b8b22fcaff19185e18c31456457ac8116b866c28959be3c69eb1a", "site-address": "Former Bates Colliery Site (Phase/Area 1), Blyth", "deliverable": "yes", "end-date": "", "entry-date": "2017-12-17", "hazardous-substances": "", "hectares": "13.80", "maximum-net-dwellings": "257", "minimum-net-dwellings": "257", "notes": "Application for 'phase 1' of wider development permitted October 2017 (post latest SHLAA updated), being for 145 two-, three- and four-bed semi and detached dwellings - 16/04622/FUL. This follow a reserved matters application for overall site involving remediation of former colliery land followed by construction of 257 dwellings - 12/03370/REM. Further The latter overall consent has been implemented and therefore the consent will remain live", "organisation": "local-authority-eng:NBL", "ownership-status": "not owned by a public authority", "planning-permission-date": "2013-02-01", "planning-permission-history": "https://publicaccess.northumberland.gov.uk/online-applications/propertyDetails.do?activeTab=relatedCases&keyVal=MDJ9Z5QS04P00", "planning-permission-status": "permissioned", "planning-permission-type": "full planning permission", "point": "POINT(-1.523369 55.13333)", "site": "4573", "site-plan-url": "http://northumberland.maps.arcgis.com/apps/webappviewer/index.html?id=c1b801d50f8040efbf8c9bc9f916cfae", "start-date": "2016-06-30", "id": "local-authority-eng/NBL/4573"}}