{"type": "Feature", "geometry": {"type": "Point", "coordinates": [-1.941366, 52.091668]}, "properties": {"ownership-status": "not owned by a public authority", "point": "POINT(-1.941366 52.091668)", "start-date": "2017-12-28", "planning-permission-date": "2017-07-18", "planning-permission-history": "https://plan.wychavon.gov.uk/plandisp.aspx?recno=54134", "deliverable": "yes", "organisation": "local-authority-eng:WYC", "maximum-net-dwellings": "9", "planning-permission-type": "full planning permission", "site": "WDCBLR/0018", "name": "WDCBLR/0018", "minimum-net-dwellings": "9", "hectares": "0.04", "site-address": "Land adjoining and including, 1 Castle Street, Evesham", "site-plan-url": "https://www.wychavon.gov.uk/documents/10586/8906182/WDCBLR0018+Land+adjoining+and+including%2C+1+Castle+Street%2C+Evesham.pdf/1a5570d2-329c-ecda-bd0f-a056038e0b80", "notes": "Proposed residential accommodation consisting 9 flats with undercroft. In lieu of application W/13/01952/PN and extant consent 98/0496.. https://plan.wychavon.gov.uk/plandisp.aspx?recno=54134", "planning-permission-status": "permissioned", "slug": "/brownfield-land/local-authority-eng/WYC/WDCBLR-0018", "entry-date": "2019-01-07"}}