{"type": "Feature", "geometry": {"type": "Point", "coordinates": [-0.071641, 51.415222]}, "properties": {"resource": "68e1c58d69de37d3f39b10191eb44733289ad38618d1bb0f51967776e5c9d776", "site-address": "122 Anerley Road SE20 8DL", "deliverable": "yes", "end-date": "", "entry-date": "2018-05-22", "hazardous-substances": "", "hectares": "0.036", "maximum-net-dwellings": "7", "minimum-net-dwellings": "7", "notes": "", "organisation": "local-authority-eng:BRY", "ownership-status": "", "planning-permission-date": "2016-04-21", "planning-permission-history": "https://searchapplications.bromley.gov.uk/online-applications/applicationDetails.do?activeTab=summary&keyVal=OS6XYSBTG1D00", "planning-permission-status": "permissioned", "planning-permission-type": "full planning permission", "point": "POINT(-0.071641 51.415222)", "site": "BLR43", "site-plan-url": "https://searchapplications.bromley.gov.uk/online-applications/applicationDetails.do?activeTab=map&keyVal=OS6XYSBTG1D00", "start-date": "", "id": "68e1c58d69de37d3f39b10191eb44733289ad38618d1bb0f51967776e5c9d776:41455"}}