{"type": "Feature", "geometry": {"type": "Point", "coordinates": [-3.057271, 53.785987]}, "properties": {"site-address": "585 - 593 Promenade & 1 Wimbourne Place, Blackpool, FY4 1NQ", "notes": "Assumed density range 40 to 50 dph reflecting outer area location & assuming 100% developable area due to site size. NetDwellingsRangeFrom calculated from SHLAA Density Calculator and NetDwellingsRangeTo taken from expired planning permission 17/0193 which proposes 88 dwellings.", "point": "POINT(-3.057271 53.785987)", "planning-permission-status": "not permissioned", "start-date": "2017-12-15", "minimum-net-dwellings": "15", "ownership-status": "not owned by a public authority", "site": "BR011", "planning-permission-history": "http://idoxpa.blackpool.gov.uk/online-applications/applicationDetails.do?activeTab=summary&keyVal=_BLCKP_DCAPR_61323", "planning-permission-date": "2017-05-10", "planning-permission-type": "outline planning permission", "hectares": "0.37", "site-plan-url": "https://maps.blackpool.gov.uk/brownfield/", "deliverable": "yes", "maximum-net-dwellings": "88", "name": "BR011", "organisation": "local-authority-eng:BPL", "slug": "/brownfield-land/local-authority-eng/BPL/BR011", "entity": 501349, "entry-date": "2021-01-18"}}