{"type": "Feature", "geometry": {"type": "Point", "coordinates": [-1.531487, 52.406998]}, "properties": {"resource": "ec1ff31625d546423b174d6e6eafca40efa4f10525199b0cbc6990ceb7d748a9", "site-address": "Pub car park and garden, Craven Street (adjacent to public house rear of 45 Craven Street)", "deliverable": "yes", "end-date": "", "entry-date": "2019-11-30", "hazardous-substances": "", "hectares": "0.06", "maximum-net-dwellings": "5", "minimum-net-dwellings": "5", "notes": "Area of scrub land considered to be a viable redevelopment option that is available. Development will need to be mindful of the conservation area.", "organisation": "local-authority-eng:COV", "ownership-status": "", "planning-permission-date": "", "planning-permission-history": "", "planning-permission-status": "not permissioned", "planning-permission-type": "", "point": "POINT(-1.531487 52.406998)", "site": "Who6", "site-plan-url": "http://www.coventry.gov.uk/downloads/file/19663/lp53_shlaa_2016_report_and_appendices", "start-date": "", "id": "ec1ff31625d546423b174d6e6eafca40efa4f10525199b0cbc6990ceb7d748a9:44164"}}