{"type": "Feature", "geometry": {"type": "Point", "coordinates": [-2.605626, 53.412152]}, "properties": {"organisation": "local-authority-eng:WRT", "point": "POINT(-2.605626 53.412152)", "site-address": "Longshaw Street Garage Plots (north east), Dallam", "maximum-net-dwellings": "6", "deliverable": "yes", "notes": "See most recent planning history at warrington.gov.uk", "hectares": "0.13", "name": "1580.0", "start-date": "2018-12-01", "minimum-net-dwellings": "6", "planning-permission-status": "pending decision", "planning-permission-type": "full planning permission", "site": "1580.0", "slug": "/brownfield-land/local-authority-eng/WRT/1580-0", "entity": 499666, "entry-date": "2018-12-01"}}