{"type": "Feature", "geometry": {"type": "Point", "coordinates": [-1.187072, 54.696092]}, "properties": {"deliverable": "yes", "hectares": "0.01", "ownership-status": "not owned by a public authority", "planning-permission-date": "2008-12-02", "notes": "Brownfield conversion.. Change of use to 3 apartments, erection of 4 townhouses and demoltion of modern existing dwelling.", "minimum-net-dwellings": "6", "maximum-net-dwellings": "6", "planning-permission-type": "full planning permission", "planning-permission-status": "permissioned", "site-address": "Union House, Southgate", "site": "BR29 - Union House", "name": "BR29 - Union House", "start-date": "2020-11-26", "point": "POINT(-1.187072 54.696092)", "planning-permission-history": "http://eforms.hartlepool.gov.uk/portal/servlets/ApplicationSearchServlet?PKID=72789", "organisation": "local-authority-eng:HPL", "slug": "/brownfield-land/local-authority-eng/HPL/BR29---Union-House", "entry-date": "2020-12-14"}}