{"type": "Feature", "geometry": {"type": "Point", "coordinates": [-2.237636, 53.473444]}, "properties": {"resource": "61f369d249a477d4abb66c5f93c4ae6c6f7c4e43bdc568ec240cc46d46ec96df", "site-address": "Vita Circle Square Phase 1a", "deliverable": "yes", "end-date": "", "entry-date": "2017-12-31", "hazardous-substances": "", "hectares": "0.30", "maximum-net-dwellings": "604", "minimum-net-dwellings": "604", "notes": "Erection of 1no. 12 floor serviced apartment building (Sui Generis) (Building 10) (384 units) and 1no. part 14 floor part 18 floor serviced apartment building (Sui Generis) (Building 11) (220 units)", "organisation": "local-authority-eng:MAN", "ownership-status": "", "planning-permission-date": "2016-01-08", "planning-permission-history": "http://pa.manchester.gov.uk/online-applications/", "planning-permission-status": "permissioned", "planning-permission-type": "full planning permission", "point": "POINT(-2.237636 53.473444)", "site": "110055/FO/2015/C1", "site-plan-url": "https://mappinggm.org.uk/gmodin/", "start-date": "2017-12-31", "id": "110055-FO-2015-C1"}}