{"type": "Feature", "geometry": {"type": "Point", "coordinates": [-2.192522, 53.491798]}, "properties": {"resource": "b28889d5aebc18ccbd31a11b6acbe1e49392f27d6207cceda85946c3d577970a", "site-address": "Riverpark Trading Estate (Abattoir site)", "deliverable": "", "end-date": "", "entry-date": "2019-12-31", "hazardous-substances": "", "hectares": "8.242775", "maximum-net-dwellings": "340", "minimum-net-dwellings": "340", "notes": "Approx 'MinNetDwellings' expected however proposals for a higher number of dwellings will be considered. No maximum has been set but all proposals must be in line with the Council's design quality requirements and any relevant Council-endorsed planning framework or masterplan", "organisation": "local-authority-eng:MAN", "ownership-status": "", "planning-permission-date": "", "planning-permission-history": "", "planning-permission-status": "", "planning-permission-type": "", "point": "POINT(-2.192522 53.491798)", "site": "Anco_Cap_708", "site-plan-url": "https://mappinggm.org.uk/gmodin/?lyrs=brownfield_2019_gm#os_maps_light/18/53.491798/-2.192522", "start-date": "2017-12-31", "id": "Anco_Cap_708"}}