{"type": "Feature", "geometry": {"type": "Point", "coordinates": [-2.428535, 53.551406]}, "properties": {"point": "POINT(-2.428535 53.551406)", "planning-permission-status": "not permissioned", "maximum-net-dwellings": "79", "minimum-net-dwellings": "79", "site": "1227-BOL", "start-date": "2017-12-31", "hectares": "1.47", "name": "1227-BOL", "organisation": "local-authority-eng:BOL", "ownership-status": "owned by a public authority", "notes": "Allocated site for 79 dwellings. http://mappinggm.org.uk/gmodin/", "site-plan-url": "http://mappinggm.org.uk/gmodin/", "planning-permission-history": "https://www.planningpa.bolton.gov.uk/online-applications-17/search.do?action=simple&searchType=Application", "site-address": "Clare Court", "slug": "/brownfield-land/local-authority-eng/BOL/1227-BOL", "entity": 477175, "entry-date": "2017-12-31"}}