{"type": "Feature", "geometry": {"type": "Point", "coordinates": [-0.065548, 53.790762]}, "properties": {"minimum-net-dwellings": "5", "hectares": "0.6", "planning-permission-type": "full planning permission", "planning-permission-history": "https://newplanningaccess.eastriding.gov.uk/newplanningaccess/PLAN/14/02013/PLF", "start-date": "2016-07-12", "planning-permission-date": "2015-01-30", "maximum-net-dwellings": "5", "planning-permission-status": "permissioned", "ownership-status": "not owned by a public authority", "notes": "14/02013/PLF", "site-plan-url": "https://newplanningaccess.eastriding.gov.uk/newplanningaccess/PLAN/14/02013/PLF", "organisation": "local-authority-eng:ERY", "site": "151", "name": "151", "site-address": "Land and outbuildings North of Tumar Farm", "point": "POINT(-0.065548 53.790762)", "deliverable": "yes", "slug": "/brownfield-land/local-authority-eng/ERY/151", "entry-date": "2018-03-31"}}