{"type": "Feature", "geometry": {"type": "Point", "coordinates": [-2.158687, 53.435802]}, "properties": {"name": "SKB0058", "planning-permission-status": "Not permissioned", "site": "SKB0058", "site-plan-url": "https://www.stockport.gov.uk/brownfield/brownfield-land-register", "maximum-net-dwellings": "35", "start-date": "2017-12-21", "organisation": "local-authority-eng:SKP", "ownership-status": "not owned by a public authority", "minimum-net-dwellings": "35", "site-address": "Roland Road, Reddish, Stockport, SK5 6TJ", "point": "POINT(-2.158687 53.435802)", "hectares": "1.25", "deliverable": "yes", "slug": "/brownfield-land/local-authority-eng/SKP/SKB0058", "entry-date": "2018-12-11"}}