{"type": "Feature", "geometry": {"type": "Point", "coordinates": [-1.568716, 53.800159]}, "properties": {"resource": "0718b0fcb6c27713952a624965815f05a214a9c1861a8271367502f60ac44e82", "site-address": "Kirkstall Road, Leeds", "deliverable": "yes", "end-date": "", "entry-date": "2017-12-19", "hazardous-substances": "", "hectares": "5.16", "maximum-net-dwellings": "553", "minimum-net-dwellings": "553", "notes": "", "organisation": "local-authority-eng:LDS", "ownership-status": "not owned by a public authority", "planning-permission-date": "", "planning-permission-history": "", "planning-permission-status": "not permissioned", "planning-permission-type": "", "point": "POINT(-1.568716 53.800159)", "site": "SHL01852", "site-plan-url": "https://leedscc.maps.arcgis.com/apps/webappviewer/index.html?id=612532561dc547fa93e683a5fca73079&find=SHL01852", "start-date": "2017-12-19", "id": "0718b0fcb6c27713952a624965815f05a214a9c1861a8271367502f60ac44e82:57159"}}