{"type": "Feature", "geometry": {"type": "Point", "coordinates": [-0.419427, 51.880344]}, "properties": {"planning-permission-status": "permissioned", "minimum-net-dwellings": "6", "point": "POINT(-0.419427 51.880344)", "maximum-net-dwellings": "6", "planning-permission-history": "https://planning.luton.gov.uk/online-applications/propertyDetails.do?activeTab=relatedCases&keyVal=001N4OKGLI000", "start-date": "2018-12-28", "hectares": "0.02", "planning-permission-date": "2018-01-12", "site": "SHLAA594", "notes": "The site also benefits from another extant permission (17/01190/COM). Erection of additional floor to provide two additional one bedroom flat units", "name": "SHLAA594", "planning-permission-type": "full planning permission", "site-plan-url": "https://www.luton.gov.uk/Environment/Lists/LutonDocuments/PDF/SHLAA-2017/Maps/593-and-594.pdf", "site-address": "Crown Life House, 41 - 43 Alma Street", "deliverable": "yes", "organisation": "local-authority-eng:LUT", "slug": "/brownfield-land/local-authority-eng/LUT/SHLAA594", "entity": 486787, "entry-date": "2018-12-28"}}