{"type": "Feature", "geometry": {"type": "Point", "coordinates": [-0.928337, 52.248077]}, "properties": {"resource": "259a7b27606500229f294264d97d21b1467a30b1a43effbd3fad9499ac62ec78", "site-address": "135 Harlestone Road", "deliverable": "yes", "end-date": "", "entry-date": "2018-12-21", "hazardous-substances": "", "hectares": "0.70949049", "maximum-net-dwellings": "12", "minimum-net-dwellings": "12", "notes": "N/2016/0083 outline. Demolish house and erect up to 12 dwellings. Reserved matters application approved 2018", "organisation": "local-authority-eng:NOR", "ownership-status": "not owned by a public authority", "planning-permission-date": "", "planning-permission-history": "", "planning-permission-status": "permissioned", "planning-permission-type": "outline planning permission", "point": "POINT(-0.928337 52.248077)", "site": "BFR1118", "site-plan-url": "https://www.northampton.gov.uk/download/downloads/id/10092/bfr1118", "start-date": "2016-06-29", "id": "BFR1118"}}