{"type": "Feature", "geometry": {"type": "Point", "coordinates": [-0.15319, 51.5438]}, "properties": {"resource": "53ff7410d03797e7747d4df128ca450bbe808f4eacc79d0e2d18623ab4a99554", "site-address": "1st and 2nd Floors 155 Regent's Park Road London NW1 8BB", "deliverable": "yes", "end-date": "", "entry-date": "2018-10-12", "hazardous-substances": "", "hectares": "0.040000000000000001", "maximum-net-dwellings": "10", "minimum-net-dwellings": "10", "notes": "Change of use of 1st and 2nd floors from office use (Class B1) to provide 10 studio flats (Class C3)", "organisation": "local-authority-eng:CMD", "ownership-status": "", "planning-permission-date": "2017-04-07", "planning-permission-history": "http://planningrecords.camden.gov.uk/Northgate/PlanningExplorer17/Generic/StdResults.aspx?PT=Planning%20Applications%20On-Line&SC=Application%20Number%20is%202015/2926/P%20and%20Date%20Validated%20is%", "planning-permission-status": "permissioned", "planning-permission-type": "other", "point": "POINT(-0.15319 51.5438)", "site": "LBCBLR085", "site-plan-url": "https://opendata.camden.gov.uk/Environment/Camden-Brownfield-Register-Polygons/wi65-z696/data", "start-date": "2018-10-12", "id": "53ff7410d03797e7747d4df128ca450bbe808f4eacc79d0e2d18623ab4a99554:39309"}}