{"type": "Feature", "geometry": {"type": "Point", "coordinates": [-0.00074, 51.43528]}, "properties": {"resource": "86dee119f806d0c7f62295e6aae502851827e848202c4e43e833126ed62773db", "site-address": "Excalibur Estate, Baudwin Road", "deliverable": "yes", "end-date": "", "entry-date": "2018-10-22", "hazardous-substances": "", "hectares": "6.12", "maximum-net-dwellings": "184", "minimum-net-dwellings": "184", "notes": "10/75973 for residential development including 371 residential units", "organisation": "local-authority-eng:LEW", "ownership-status": "mixed ownership", "planning-permission-date": "2012-03-30", "planning-permission-history": "", "planning-permission-status": "permissioned", "planning-permission-type": "full planning permission", "point": "POINT(-0.00074 51.43528)", "site": "WF001", "site-plan-url": "http://www.lewisham.gov.uk/brownfieldregister", "start-date": "2017-11-30", "id": "86dee119f806d0c7f62295e6aae502851827e848202c4e43e833126ed62773db:38688"}}