{"type": "Feature", "geometry": {"type": "Point", "coordinates": [-0.896106, 52.239284]}, "properties": {"resource": "259a7b27606500229f294264d97d21b1467a30b1a43effbd3fad9499ac62ec78", "site-address": "Belgrave House, Grosvenor Shopping Centre", "deliverable": "yes", "end-date": "", "entry-date": "2018-12-21", "hazardous-substances": "", "hectares": "0.209344432", "maximum-net-dwellings": "31", "minimum-net-dwellings": "31", "notes": "N/2017/1144 Change of Use of Belgrave House from offices to student accommodation", "organisation": "local-authority-eng:NOR", "ownership-status": "owned by a public authority", "planning-permission-date": "", "planning-permission-history": "", "planning-permission-status": "permissioned", "planning-permission-type": "full planning permission", "point": "POINT(-0.896106 52.239284)", "site": "BFR1022", "site-plan-url": "https://www.northampton.gov.uk/download/downloads/id/10078/bfr1022", "start-date": "2017-12-13", "id": "BFR1022"}}