{"type": "Feature", "geometry": {"type": "Point", "coordinates": [-2.195259, 53.924582]}, "properties": {"planning-permission-history": "https://publicaccess.pendle.gov.uk/online-applications/", "minimum-net-dwellings": "9", "organisation": "local-authority-eng:PEN", "notes": "Full: Demolition of ambulance station and erection of nine dwelling houses, four semi-detached with access off Brogden View and five detached accessed off Brogden Lane. A brownfield site in Barnoldswick.", "name": "BK129", "site": "BK129", "point": "POINT(-2.195259 53.924582)", "ownership-status": "not owned by a public authority", "site-plan-url": "https://www.pendle.gov.uk/downloads/download/3052/brownfield_register_site_plans", "maximum-net-dwellings": "9", "deliverable": "yes", "hectares": "0.25", "site-address": "Ambulance Station, Brogden View", "planning-permission-date": "2017-09-28", "start-date": "2019-12-17", "planning-permission-type": "full planning permission", "planning-permission-status": "permissioned", "slug": "/brownfield-land/local-authority-eng/PEN/BK129", "entity": 490211, "entry-date": "2019-12-17"}}