{"type": "Feature", "geometry": {"type": "Point", "coordinates": [-0.366723, 50.815856]}, "properties": {"site": "WBCBR5", "hectares": "0.12", "organisation": "local-authority-eng:WOT", "planning-permission-date": "2016-08-17", "planning-permission-status": "permissioned", "planning-permission-history": "https://planning.adur-worthing.gov.uk/online-applications/", "point": "POINT(-0.366723 50.815856)", "site-address": "Providence Works 27-33 Lyndhurst Road", "planning-permission-type": "full planning permission", "ownership-status": "not owned by a public authority", "site-plan-url": "https://www.adur-worthing.gov.uk/media/media,146485,en.pdf", "deliverable": "yes", "name": "WBCBR5", "maximum-net-dwellings": "9", "minimum-net-dwellings": "9", "start-date": "2017-10-16", "notes": "Redevelopment of the existing tyre centre, car sales and MOT yard to accommodate 9 new residential dwellings (4no. 2 bed houses, 5 no. 3 bed houses ) with private external amenity spaces and associated works including parking provision for 9 cars, access and landscaping.. Planning Ref: AWDM/1861/15", "slug": "/brownfield-land/local-authority-eng/WOT/WBCBR5", "entry-date": "2017-10-16"}}