{"type": "Feature", "geometry": {"type": "Point", "coordinates": [-0.204647, 50.829231]}, "properties": {"resource": "4b2da6f47851f1d21956ad22a691dddd67406e2341d77b84629a4c674366611a", "site-address": "BP Petrol Station 373 Kingsway Hove (St Leohards Filling Station)", "deliverable": "", "end-date": "", "entry-date": "2017-10-02", "hazardous-substances": "", "hectares": "0.17", "maximum-net-dwellings": "17", "minimum-net-dwellings": "17", "notes": "", "organisation": "local-authority-eng:BNH", "ownership-status": "not owned by a public authority", "planning-permission-date": "", "planning-permission-history": "", "planning-permission-status": "not permissioned", "planning-permission-type": "", "point": "POINT(-0.204647 50.829231)", "site": "SHLAA5002", "site-plan-url": "https://www.brighton-hove.gov.uk/sites/brighton-hove.gov.uk/files/SHLAA5002%20BP%20Petrol%20Station%20373%20Kingsway%20Hove.pdf", "start-date": "2017-10-02", "id": "4b2da6f47851f1d21956ad22a691dddd67406e2341d77b84629a4c674366611a:15347"}}