{"type": "Feature", "geometry": {"type": "Point", "coordinates": [-2.167182, 53.394473]}, "properties": {"hectares": "2.03", "start-date": "2017-12-21", "ownership-status": "not owned by a public authority", "point": "POINT(-2.167182 53.394473)", "minimum-net-dwellings": "70", "name": "SKB0059", "site": "SKB0059", "deliverable": "yes", "organisation": "local-authority-eng:SKP", "maximum-net-dwellings": "70", "planning-permission-status": "Not permissioned", "site-address": "Adswood Road/Siddington Avenue, Adswood", "site-plan-url": "https://www.stockport.gov.uk/brownfield/brownfield-land-register", "slug": "/brownfield-land/local-authority-eng/SKP/SKB0059", "entry-date": "2018-12-11"}}