{"type": "Feature", "geometry": {"type": "Point", "coordinates": [-0.196659, 50.854469]}, "properties": {"resource": "705ceb15dcf386c1df3b529f229bea20a994c75e1b8ddc1a76c171a15520586b", "site-address": "Buckley Close garage site Hangleton", "deliverable": "yes", "end-date": "", "entry-date": "2017-12-18", "hazardous-substances": "", "hectares": "0.08", "maximum-net-dwellings": "12", "minimum-net-dwellings": "12", "notes": "New Homes for Neighbourhoods site", "organisation": "local-authority-eng:BNH", "ownership-status": "owned by a public authority", "planning-permission-date": "", "planning-permission-history": "", "planning-permission-status": "not permissioned", "planning-permission-type": "", "point": "POINT(-0.196659 50.854469)", "site": "SHLAA6057", "site-plan-url": "https://www.brighton-hove.gov.uk/sites/brighton-hove.gov.uk/files/SHLAA6057%20Buckley%20Close%20garage%20site%20Hangleton.pdf", "start-date": "2017-09-20", "id": "705ceb15dcf386c1df3b529f229bea20a994c75e1b8ddc1a76c171a15520586b:54894"}}