{"type": "Feature", "geometry": {"type": "Point", "coordinates": [-2.513979, 51.710268]}, "properties": {"hectares": "4.82", "start-date": "2017-10-31", "name": "24", "point": "POINT(-2.513979 51.710268)", "deliverable": "yes", "site-address": "Pine End Works Harbour Road Lydney", "maximum-net-dwellings": "30", "ownership-status": "not owned by a public authority", "minimum-net-dwellings": "20", "site-plan-url": "https://maps.fdean.gov.uk/map/Aurora.svc/run?script=%5cAurora%5cFoDDC+-+SHLAA.AuroraScript%24&nocache=1347652503&resize=always&inspect_query=Brownfield_Land_Registery&inspect_value=Aurora23&scale=2048", "notes": "part of large mixed allocation, which can include an element of housing as part of the mix. Likely to support up to 30 units but this is neither a fixed requirement nor an absolute limit. Currently vacant but subject to planning application, awaiting decision. Application is in conformity with the allocation for mixed uses and includes residential accommodation tied to the proposed employment on the site.", "planning-permission-status": "pending decision", "site": "24", "organisation": "local-authority-eng:FOE", "slug": "/brownfield-land/local-authority-eng/FOE/24", "entity": 500876, "entry-date": "2020-02-05", "planning-permission-history": "https://publicaccess.fdean.gov.uk/online-applications/applicationDetails.do?keyVal=PQTT0GHI01000&activeTab=summary"}}