{"type": "Feature", "geometry": {"type": "Point", "coordinates": [-1.818886, 52.563297]}, "properties": {"hectares": "1.35", "maximum-net-dwellings": "100", "planning-permission-status": "Not Permissioned", "organisation": "local-authority-eng:BIR", "point": "POINT(-1.818886 52.563297)", "start-date": "2017-12-19", "minimum-net-dwellings": "100", "site": "N26", "site-address": "Royal Works Sutton Coldfield, Sutton Trinity", "site-plan-url": "https://maps.birmingham.gov.uk/webapps/shlaa/", "name": "N26", "slug": "/brownfield-land/local-authority-eng/BIR/N26", "entry-date": "2019-12-31", "notes": "Call for Sites 2019"}}