{"type": "Feature", "geometry": {"type": "Point", "coordinates": [0.56578, 52.743415]}, "properties": {"resource": "fde09388a71ca5cac45a73d86e108565aa8fba070227ce07e655ead4e347e6a6", "site-address": "Site at Gayton Mill, Gayton", "deliverable": "yes", "end-date": "", "entry-date": "2017-12-18", "hazardous-substances": "", "hectares": "1.15", "maximum-net-dwellings": "39", "minimum-net-dwellings": "39", "notes": "14/00325/OM - Redevelopment of former industrial site for housing", "organisation": "local-authority-eng:KIN", "ownership-status": "not owned by a public authority", "planning-permission-date": "2014-12-03", "planning-permission-history": "https://online.west-norfolk.gov.uk/online-applications/applicationDetails.do?activeTab=documents&keyVal=N1WS40IV09K00", "planning-permission-status": "permissioned", "planning-permission-type": "outline planning permission", "point": "POINT(0.56578 52.743415)", "site": "10", "site-plan-url": "https://www.west-norfolk.gov.uk/downloads/download/582/brownfield_site_maps", "start-date": "2017-11-14", "id": "fde09388a71ca5cac45a73d86e108565aa8fba070227ce07e655ead4e347e6a6:27804"}}