{"type": "Feature", "geometry": {"type": "Point", "coordinates": [-2.462359, 52.707643]}, "properties": {"ownership-status": "not owned by a public authority", "planning-permission-history": "https://secure.telford.gov.uk/planning/pa-applicationsummarybackground-public.aspx?Applicationnumber=TWC/2015/0949", "name": "BR47", "point": "POINT(-2.462359 52.707643)", "site-address": "Land east of The Blue Pig, Capewell Road, Trench, Telford, Shropshire", "planning-permission-status": "permissioned", "start-date": "2017-12-01", "maximum-net-dwellings": "21", "deliverable": "yes", "hectares": "0.564", "planning-permission-type": "full planning permission", "minimum-net-dwellings": "21", "planning-permission-date": "2016-07-29", "notes": "Erection of 16no. semi detached, 2no. detached and 3no. terraced dwellings and widening of off-site localised road to create passing places and improvements. https://secure.telford.gov.uk/planning/pa-applicationsummary.aspx?applicationnumber=TWC/2015/0949", "site-plan-url": "http://www.telford.gov.uk/downloads/file/6614/br47_-_land_east_of_the_blue_pig", "site": "BR47", "organisation": "local-authority-eng:TFW", "slug": "/brownfield-land/local-authority-eng/TFW/BR47", "entry-date": "2017-12-01"}}