{"type": "Feature", "geometry": {"type": "Point", "coordinates": [-0.56, 51.61]}, "properties": {"site-plan-url": "http://www.chiltern.gov.uk/planning/brownfieldregister", "planning-permission-status": "permissioned", "maximum-net-dwellings": "6", "minimum-net-dwellings": "6", "organisation": "local-authority-eng:CHN", "point": "POINT(-0.56 51.61)", "deliverable": "yes", "start-date": "2017-12-08", "planning-permission-type": "other", "notes": "Prior Notification Under i) Class O and ii) Class P of Part 3, Schedule 2 of the Town and Country Planning (General Permitted Development) (England) Order 2015 - Change of Use from i) part office (Use Class B1(a)) and from ii) part storage and distribution (use class B8) to a total of six residential units (Use Class C3)", "ownership-status": "not owned by a public authority", "hectares": "0.04", "site": "CD0391", "site-address": "''Churchfield House, Churchfield Road, Chalfont St Peter''", "planning-permission-date": "2015-11-30", "name": "CD0391", "slug": "/brownfield-land/local-authority-eng/CHN/CD0391", "entity": 479390, "entry-date": "2017-12-08"}}