{"type": "Feature", "geometry": {"type": "Point", "coordinates": [-0.7625, 51.3352]}, "properties": {"resource": "84fa1cddc55bfcc78ea57e9695adef175ed9ddd8013e2be98a473eb5b990b0aa", "site-address": "407 & 409 London Road and 9,11,13,13a Victoria Avenue, Camberley", "deliverable": "", "end-date": "20/12/2019", "entry-date": "2017-12-18", "hazardous-substances": "", "hectares": "0.34", "maximum-net-dwellings": "38", "minimum-net-dwellings": "38", "notes": "http://www.surreyheath.gov.uk/sites/default/files/documents/residents/planning/planning-policy/SLAA2017/8SLAA2017Ap2CamberleySiteAssmts.pdf. http://www.surreyheath.gov.uk/sites/default/files/documents/residents/planning/planning-policy/SLAA2017/8SLAA2017Ap2CamberleySiteAssmts.pdf", "organisation": "local-authority-eng:SUR", "ownership-status": "", "planning-permission-date": "", "planning-permission-history": "", "planning-permission-status": "", "planning-permission-type": "", "point": "POINT(-0.7625 51.3352)", "site": "SHBR39", "site-plan-url": "http://www.surreyheath.gov.uk/sites/default/files/documents/residents/planning/planning-policy/SLAA2017/8SLAA2017Ap2CamberleySiteAssmts.pdf", "start-date": "2017-12-18", "id": "84fa1cddc55bfcc78ea57e9695adef175ed9ddd8013e2be98a473eb5b990b0aa:35650"}}