{"type": "Feature", "geometry": {"type": "Point", "coordinates": [-2.377644, 51.357721]}, "properties": {"deliverable": "yes", "site-address": "478 Wellsway, Bath, Bath And North East Somerset, BA2 2UB", "name": "17/05737/FUL", "point": "POINT(-2.377644 51.357721)", "planning-permission-type": "full planning permission", "start-date": "2018-12-21", "site": "17/05737/FUL", "hectares": "0.59", "planning-permission-status": "permissioned", "ownership-status": "not owned by a public authority", "planning-permission-date": "0218-05-25", "site-plan-url": "https://isharemaps.bathnes.gov.uk/atMyCouncil.aspx", "organisation": "local-authority-eng:BAS", "slug": "/brownfield-land/local-authority-eng/BAS/17-05737-FUL", "entry-date": "2018-12-21"}}