{"type": "Feature", "geometry": {"type": "Point", "coordinates": [0.089416, 51.534832]}, "properties": {"organisation": "local-authority-eng:BDG", "point": "POINT(0.089416 51.534832)", "name": "LBBD09", "site": "LBBD09", "ownership-status": "not owned by a public authority", "start-date": "2017-12-31", "site-address": "Land Adjacent To 25-27 Eldred Road", "maximum-net-dwellings": "6", "planning-permission-status": "permissioned", "site-plan-url": "https://maps.london.gov.uk/brownfield-site-register", "hectares": "0.04", "minimum-net-dwellings": "6", "slug": "/brownfield-land/local-authority-eng/BDG/LBBD09", "entry-date": "2017-12-31"}}