{"type": "Feature", "geometry": {"type": "Point", "coordinates": [-0.188097, 51.447701]}, "properties": {"site-address": "Atheldene", "start-date": "2017-12-13", "minimum-net-dwellings": "117", "site": "WBR/17/0161", "site-plan-url": "https://maps.wandsworth.gov.uk/map/Aurora.svc/run?script=%5cAurora%5cpublic_Brownfield_Sites.AuroraScript%24&nocache=614915663&resize=always", "planning-permission-status": "not permissioned", "hectares": "2.51", "notes": "The minimum and maximum number of dwellings that the land is capable of supporting are estimates. The estimates are derived from the residential capacity estimates in the London Strategic Housing Land Availability Assessment 2017. The number of dwellings that the land can support can only be determined through the planning permission process.", "deliverable": "yes", "point": "POINT(-0.188097 51.447701)", "name": "WBR/17/0161", "organisation": "local-authority-eng:WND", "maximum-net-dwellings": "134", "slug": "/brownfield-land/local-authority-eng/WND/WBR-17-0161", "entity": 499093, "entry-date": "2019-03-31", "planning-permission-history": "https://www.wandsworth.gov.uk/media/1423/local_plan_site_specific_allocations_document_adopted_march_2016.pdf", "end-date": "2019-03-31"}}