{"type": "Feature", "geometry": {"type": "Point", "coordinates": [-1.230706, 50.589938]}, "properties": {"resource": "cc84216fa3981dc8b3ae5a193e2a4db169922496ef969aba1d46f3870e3cc6e8", "site-address": "Steephill Residential Home, 2 Steephill Court Road, Ventnor", "deliverable": "yes", "end-date": "", "entry-date": "2018-12-21", "hazardous-substances": "", "hectares": "0.44", "maximum-net-dwellings": "10", "minimum-net-dwellings": "10", "notes": "P/00505/18. Conversion and extension of existing private house (former residential care home) to form 10 apartments. (9 additional units) New car parking and turning area (revised plans)", "organisation": "local-authority-eng:IOW", "ownership-status": "not owned by a public authority", "planning-permission-date": "2018-09-14", "planning-permission-history": "", "planning-permission-status": "permissioned", "planning-permission-type": "full planning permission", "point": "POINT(-1.230706 50.589938)", "site": "BFR112", "site-plan-url": "https://www.iwight.com/brownfieldlandregister", "start-date": "2018-12-21", "id": "cc84216fa3981dc8b3ae5a193e2a4db169922496ef969aba1d46f3870e3cc6e8:49899"}}