{"type": "Feature", "geometry": {"type": "Point", "coordinates": [-2.21188, 52.19451]}, "properties": {"resource": "dae00a2f84301c3729f72e7f035ae4de2d518b28264d1a890f2430040512027f", "site-address": "The Great Western Hotel", "deliverable": "yes", "end-date": "", "entry-date": "2019-12-17", "hazardous-substances": "", "hectares": "0.09", "maximum-net-dwellings": "7", "minimum-net-dwellings": "5", "notes": "", "organisation": "local-authority-eng:WOC", "ownership-status": "not owned by a public authority", "planning-permission-date": "2016-09-30", "planning-permission-history": "https://www.worcester.gov.uk/planning-application-search", "planning-permission-status": "permissioned", "planning-permission-type": "full planning permission", "point": "POINT(-2.21188 52.19451)", "site": "P16D0146", "site-plan-url": "https://www.worcester.gov.uk/?option=com_fileman&view=file&routed=1&name=P16D0146%20Great%20Western%20Hotel.pdf&folder=PDF%20Documents%2FPlanning%2Fplanning_policy%2Fbrownfieldsites&container=fileman-files", "start-date": "2019-12-17", "id": "P16D0146"}}