{"type": "Feature", "geometry": {"type": "Point", "coordinates": [-5.739, 54.347]}, "properties": {"resource": "522d1668b78b6dfa64d64fc689c6e2d3fc9c90e0ac857755e1949e33294ffae9", "site-address": "Sherpa House, Kingfield Road, Kingfield, Woking GU22 9EH", "deliverable": "", "end-date": "", "entry-date": "2017-12-20", "hazardous-substances": "", "hectares": "0.06", "maximum-net-dwellings": "10", "minimum-net-dwellings": "10", "notes": "Current permission (ref PLAN/2017/0343) to change use from retail to a veterinary practice, but this is not considered to preclude residential development in the longer term.. Change of use from retail to veterinary, with small window and ramp alterations.", "organisation": "local-authority-eng:WOI", "ownership-status": "not owned by a public authority", "planning-permission-date": "2017-07-03", "planning-permission-history": "https://www.woking.gov.uk/planning/publicaccess", "planning-permission-status": "permissioned", "planning-permission-type": "full planning permission", "point": "POINT(-5.739 54.347)", "site": "SHLAAHOE019", "site-plan-url": "http://www.woking2027.info/ldfregisters", "start-date": "2017-12-20", "id": "522d1668b78b6dfa64d64fc689c6e2d3fc9c90e0ac857755e1949e33294ffae9:61864"}}