{"type": "Feature", "geometry": {"type": "Point", "coordinates": [-2.228943, 51.742057]}, "properties": {"resource": "7384d83065376a4fcccb0b25c840704e1012b3467420e0a609816540bda3ad17", "site-address": "Land adjacent to Fromehall, Bath Road Rodborough", "deliverable": "", "end-date": "", "entry-date": "2017-12-18", "hazardous-substances": "", "hectares": "0.47", "maximum-net-dwellings": "5", "minimum-net-dwellings": "5", "notes": "Main constraints: Industrial Heritage Conservation Area, topography, land stability and access. Site investigation required. Summary: The site is considered suitable for housing or community development. However care will be needed as it contributes to the setting of historic buildings as well as the character of the conservation area. There will be a need to retain mature trees and secure safe access improvements to the local road and cycle network. There is no evidence that any of this area is available currently but there is a reasonable prospect that any suitable land will be available at a point in the future for development and that development as envisaged will be delivered on the site within 15 years.. This site could be developed for low density development typically comprising detached, semi -detached dwellings at an average low density of about 20 dph, and the suggested yield is 5 units taking account of levels and the need to retain tree cover.", "organisation": "local-authority-eng:STO", "ownership-status": "", "planning-permission-date": "", "planning-permission-history": "https://www.stroud.gov.uk/media/355587/appendix-2.pdf#search=\"STR005\"", "planning-permission-status": "not permissioned", "planning-permission-type": "", "point": "POINT(-2.228943 51.742057)", "site": "BR021", "site-plan-url": "https://stroud.maps.arcgis.com/apps/webappviewer/index.html?id=8d2cd204b79c4852b8d4365e24d16013&center=-2.2289435,51.742057&level=17", "start-date": "2017-12-18", "id": "7384d83065376a4fcccb0b25c840704e1012b3467420e0a609816540bda3ad17:46310"}}