{"type": "Feature", "geometry": {"type": "Point", "coordinates": [-1.458476, 52.518307]}, "properties": {"resource": "2d9d472866c26d995c8055c528f427deeff3123e82cab23b8df1976487386a65", "site-address": "12-18 Lister Street, Nuneaton", "deliverable": "yes", "end-date": "", "entry-date": "2017-12-31", "hazardous-substances": "", "hectares": "0.1", "maximum-net-dwellings": "12", "minimum-net-dwellings": "12", "notes": "Outline planning permission 033203 for a residential development of 12 dwellings. The site currently accommodates a series of buildings.. Erection of 12 apartments in a two-storey block (with rooms in the roof space) (Outline application to include access and scale all other matters are reserved) (Existing buildings to be demolished)", "organisation": "local-authority-eng:NUN", "ownership-status": "not owned by a public authority", "planning-permission-date": "2015-11-05", "planning-permission-history": "http://apps.nuneatonandbedworth.gov.uk/BT_NBBC_Planning/BT_NBBC_Planning_application.asp?strApplicationReference=033203&strRecordType=P", "planning-permission-status": "permissioned", "planning-permission-type": "outline planning permission", "point": "POINT(-1.458476 52.518307)", "site": "BF042", "site-plan-url": "https://www.nuneatonandbedworth.gov.uk/downloads/file/2200/brownfield_register_-_individual_site_maps_2017", "start-date": "2017-12-31", "id": "local-authority-eng/NUN/BF042"}}