{"type": "Feature", "geometry": {"type": "Point", "coordinates": [-0.094885, 51.482481]}, "properties": {"planning-permission-date": "2018-06-16", "organisation": "local-authority-eng:SWK", "start-date": "2020-03-24", "maximum-net-dwellings": "1", "hectares": "0.023", "site": "18-AP-1490", "point": "POINT(-0.094885 51.482481)", "notes": "Change of use from Office (B1a) to a 6 bedroom House in Multiple Occupation (HMO Sui Generis)", "site-address": "62,Camberwell Road,,SE5 0EN", "name": "18-AP-1490", "minimum-net-dwellings": "1", "slug": "/brownfield-land/local-authority-eng/SWK/18-AP-1490", "entry-date": "2020-03-24"}}