{"type": "Feature", "geometry": {"type": "Point", "coordinates": [-0.892156, 52.255619]}, "properties": {"resource": "d1106e190c91bf0a5c6e2b6d873b7519fa0f136f277b05d44afc5b5687acdb8d", "site-address": "83-103 Trinity Avenue", "deliverable": "yes", "end-date": "", "entry-date": "2017-12-13", "hazardous-substances": "", "hectares": "0.19", "maximum-net-dwellings": "9", "minimum-net-dwellings": "9", "notes": "N/2015/0637. Site has full planning permission for alterations and extensions to existing buildings to provide 9 additional flats.", "organisation": "local-authority-eng:NOR", "ownership-status": "not owned by a public authority", "planning-permission-date": "", "planning-permission-history": "", "planning-permission-status": "permissioned", "planning-permission-type": "full planning permission", "point": "POINT(-0.892156 52.255619)", "site": "BFR1123", "site-plan-url": "https://www.northampton.gov.uk/downloads/file/10108/bfr1123", "start-date": "2017-12-13", "id": "d1106e190c91bf0a5c6e2b6d873b7519fa0f136f277b05d44afc5b5687acdb8d:55759"}}