{"type": "Feature", "geometry": {"type": "Point", "coordinates": [-1.991198, 49.900223]}, "properties": {"organisation": "local-authority-eng:POL", "site-plan-url": "https://boppa.poole.gov.uk/online-applications/applicationDetails.do?activeTab=documents&keyVal=_POOLE_DCAPR_245676", "site": "P/BLR/0034", "deliverable": "yes", "planning-permission-date": "2016-07-29", "minimum-net-dwellings": "4", "start-date": "2017-12-01", "maximum-net-dwellings": "4", "planning-permission-type": "full planning permission", "point": "POINT(-1.991198 49.900223)", "hectares": "0.28", "site-address": "19a-21 Gorse Hill Road, Poole, BH15 3QH", "planning-permission-history": "https://boppa.poole.gov.uk/online-applications/applicationDetails.do?activeTab=documents&keyVal=_POOLE_DCAPR_245676", "planning-permission-status": "permissioned", "notes": "Demolition of existing dwelling and creation of 4 new dwellings.", "name": "P/BLR/0034", "slug": "/brownfield-land/local-authority-eng/POL/P-BLR-0034", "entity": 490410, "entry-date": "2017-12-01"}}