{"type": "Feature", "geometry": {"type": "Point", "coordinates": [-1.305978, 51.803684]}, "properties": {"start-date": "2017-12-04", "planning-permission-history": "https://www.publicaccess.cherwell.gov.uk/online-applications/", "deliverable": "yes", "notes": "The application was withdrawn. Commercial uses implemented.", "ownership-status": "not owned by a public authority", "name": "BLR32", "minimum-net-dwellings": "0", "maximum-net-dwellings": "0", "hectares": "0.9", "site-plan-url": "https://www.cherwell.gov.uk/info/33/planning-policy/384/brownfield-land-register", "site": "BLR32", "point": "POINT(-1.305978 51.803684)", "organisation": "local-authority-eng:CHR", "planning-permission-status": "Not permissioned", "site-address": "Tyre Depot, South of Cassington Road, Yarnton", "slug": "/brownfield-land/local-authority-eng/CHR/BLR32", "entry-date": "2019-10-30"}}