{"type": "Feature", "geometry": {"type": "Point", "coordinates": [0.171689, 51.408239]}, "properties": {"resource": "4ed9e9f2ede3ebeef0275629e257fbe0d9b5efae93cce82f70db31c573e81ea7", "site-address": "College Road Nurseries, College Road, Hextable", "deliverable": "yes", "end-date": "", "entry-date": "2018-12-01", "hazardous-substances": "", "hectares": "0.26804312", "maximum-net-dwellings": "9", "minimum-net-dwellings": "9", "notes": "ST2-58 It is important to retain the gap between Hextable and Swanley and to avoid encroachment here. Overall the southern portion of the site containing permanent buildings and glasshouses is considered able to accommodate development. Site reduced to previously developed land only.", "organisation": "local-authority-eng:SEV", "ownership-status": "not owned by a public authority", "planning-permission-date": "", "planning-permission-history": "", "planning-permission-status": "Not Permissioned", "planning-permission-type": "", "point": "POINT(0.171689 51.408239)", "site": "BFR133", "site-plan-url": "https://maps.sevenoaks.gov.uk/brownfield_register/", "start-date": "2018-12-01", "id": "4ed9e9f2ede3ebeef0275629e257fbe0d9b5efae93cce82f70db31c573e81ea7:17286"}}