{"type": "Feature", "geometry": {"type": "Point", "coordinates": [-1.485424, 50.916033]}, "properties": {"minimum-net-dwellings": "6", "name": "BLR_Tott_011", "organisation": "local-authority-eng:NEW", "point": "POINT(-1.485424 50.916033)", "planning-permission-status": "permissioned", "site-plan-url": "https://newforest.gov.uk/media/148/Brownfield-Land-Register-Site-Location-Maps/pdf/brownfield-land-register-site-location-maps.pdf?m=637219426352370000", "planning-permission-type": "outline planning permission", "ownership-status": "not owned by a public authority", "start-date": "2020-12-31", "deliverable": "yes", "hectares": "0.015", "maximum-net-dwellings": "6", "site": "BLR_Tott_011", "site-address": "4-6 Rumbridge Street, Totton", "planning-permission-history": "https://planning.newforest.gov.uk/online-applications/", "notes": "Permission reference: 20/10695. Demolition of the existing building and construction of 7 one-bedroom apartments and a commercial unit", "planning-permission-date": "2020-11-11", "slug": "/brownfield-land/local-authority-eng/NEW/BLR-Tott-011", "entity": 506339, "entry-date": "2020-12-18"}}