{"type": "Feature", "geometry": {"type": "Point", "coordinates": [-1.45031, 55.0112]}, "properties": {"resource": "33df9ace674c23689ecfd37907e4d9bc1e456185b73a1bb73008249d2c1fc5ee", "site-address": "Tynemouth Motor Company, Albion Road, North Shields", "deliverable": "yes", "end-date": "", "entry-date": "2019-12-31", "hazardous-substances": "", "hectares": "0.1", "maximum-net-dwellings": "6", "minimum-net-dwellings": "6", "notes": "", "organisation": "local-authority-eng:NTY", "ownership-status": "", "planning-permission-date": "2012-05-10", "planning-permission-history": "https://idoxpublicaccess.northtyneside.gov.uk/online-applications/applicationDetails.do?activeTab=summary&keyVal=LWI8J4BH0GZ00", "planning-permission-status": "permissioned", "planning-permission-type": "outline planning permission", "point": "POINT(-1.45031 55.0112)", "site": "445", "site-plan-url": "http://my.northtyneside.gov.uk/category/1134/housing-and-employment", "start-date": "2017-12-22", "id": "33df9ace674c23689ecfd37907e4d9bc1e456185b73a1bb73008249d2c1fc5ee:11714"}}