{"type": "Feature", "geometry": {"type": "Point", "coordinates": [-1.267359, 53.434412]}, "properties": {"planning-permission-type": "full planning permission", "hectares": "0.17", "site-plan-url": "http://communitymapping.rotherham.gov.uk/Communitymapfindit/findit/", "minimum-net-dwellings": "0", "planning-permission-date": "2019-02-14", "maximum-net-dwellings": "8", "site": "BR0082", "planning-permission-status": "permissioned", "organisation": "local-authority-eng:ROT", "deliverable": "yes", "notes": "RDF2203 - Under Construction, , near completion", "ownership-status": "not owned by a public authority", "name": "BR0082", "planning-permission-history": "http://rotherham.planportal.co.uk/?id=RB2018/1629", "start-date": "2019-12-02", "site-address": "76 Moor Lane South, Ravenfield", "slug": "/brownfield-land/local-authority-eng/ROT/BR0082", "entry-date": "2020-12-15", "point": "POINT(-1.267359 53.434412)"}}