{"type": "Feature", "geometry": {"type": "Point", "coordinates": [-0.125902, 50.832885]}, "properties": {"resource": "6cd0ed46a9a905307ff30d8b99fc5ca8b6e1dceb4f3b4f3c30a2b2949d9ddbc3", "site-address": "Former St Gabriel's Home 18 Wellington Road Brighton", "deliverable": "yes", "end-date": "", "entry-date": "2018-11-08", "hazardous-substances": "", "hectares": "0.19", "maximum-net-dwellings": "9", "minimum-net-dwellings": "9", "notes": "Commenced 17/18. Conversion and alterations to existing building to provide 9no self-contained flats", "organisation": "local-authority-eng:BNH", "ownership-status": "not owned by a public authority", "planning-permission-date": "2009-01-29", "planning-permission-history": "https://planningapps.brighton-hove.gov.uk/online-applications/applicationDetails.do?activeTab=summary&keyVal=ZZZR60DMXE725|https://planningapps.brighton-hove.gov.uk/online-applications/applicationDetails.do?activeTab=summary&keyVal=ZZZR67DMXE101|https://planningapps.brighton-hove.gov.uk/online-applications/applicationDetails.do?activeTab=summary&keyVal=ZZZR6DDMXE268|https://planningapps.brighton-hove.gov.uk/online-applications/applicationDetails.do?activeTab=summary&keyVal=ZZZR6IDMXE536|https://planningapps.brighton-hove.gov.uk/online-applications/applicationDetails.do?activeTab=summary&keyVal=ZZZR6KDMXE096|https://planningapps.brighton-hove.gov.uk/online-applications/applicationDetails.do?activeTab=summary&keyVal=ZZZR6LDMXE231|https://planningapps.brighton-hove.gov.uk/online-applications/applicationDetails.do?activeTab=summary&keyVal=ZZZR6TDMXE702|https://planningapps.brighton-hove.gov.uk/online-applications/applicationDetails.do?activeTab=summary&keyVal=ZZZR74DMXE554", "planning-permission-status": "permissioned", "planning-permission-type": "full planning permission", "point": "POINT(-0.125902 50.832885)", "site": "SHLAA6162", "site-plan-url": "https://www.brighton-hove.gov.uk/sites/brighton-hove.gov.uk/files/SHLAA6162%20Former%20St%20Gabriel%27s%20Home%2018%20Wellington%20Road%20Brighton.pdf", "start-date": "2018-11-08", "id": "6cd0ed46a9a905307ff30d8b99fc5ca8b6e1dceb4f3b4f3c30a2b2949d9ddbc3:29700"}}