{"type": "Feature", "geometry": {"type": "Point", "coordinates": [-1.748103, 50.739511]}, "properties": {"minimum-net-dwellings": "12", "site-plan-url": "https://maps.christchurchandeastdorset.gov.uk/map/Aurora.svc/run?script=%5cAurora%5cBrownfield+Register.AuroraScript%24&nocache=1302903983&resize=always", "point": "POINT(-1.748103 50.739511)", "hectares": "0.08", "name": "BR8/02/0200", "organisation": "local-authority-eng:CHC", "site": "BR8/02/0200", "planning-permission-status": "not permissioned", "notes": "Isolated commercial use suitable for housing. Redevelop to form 2.5 storey block of 12 flats with parking. Somerford Road, outside site, is in flood zone 2, so there is an issue re safe access to the site.", "maximum-net-dwellings": "12", "start-date": "2017-12-04", "site-address": "129 Somerford Road", "ownership-status": "not owned by a public authority", "slug": "/brownfield-land/local-authority-eng/CHC/BR8-02-0200", "entry-date": "2017-12-04"}}