{"type": "Feature", "geometry": {"type": "Point", "coordinates": [-2.115399, 52.611095]}, "properties": {"resource": "3938ddedb2fedca20fa409e23118564ff80bfd283b05852eb5d968affc13697d", "site-address": "Fmr Bushbury Arms PH, Showell Circus, Low Hill", "deliverable": "", "end-date": "", "entry-date": "", "hazardous-substances": "", "hectares": "0.7", "maximum-net-dwellings": "", "minimum-net-dwellings": "", "notes": "", "organisation": "local-authority-eng:WLV", "ownership-status": "", "planning-permission-date": "", "planning-permission-history": "", "planning-permission-status": "Completed During 2016/17", "planning-permission-type": "", "point": "POINT(-2.115399 52.611095)", "site": "28920", "site-plan-url": "", "start-date": "", "slug": "local-authority-eng/WLV/28920"}}