{"type": "Feature", "geometry": {"type": "Point", "coordinates": [0.089483, 51.562689]}, "properties": {"minimum-net-dwellings": "180", "organisation": "local-authority-eng:RDB", "planning-permission-history": "http://planning.redbridge.gov.uk/swiftlg/apas/run/wphappcriteria.display", "site-address": "Recorder House 531-549 High Road and 501 High Road, Ilford", "deliverable": "yes", "planning-permission-type": "full planning permission", "site-plan-url": "https://my.redbridge.gov.uk/map/brownfield-land-register/BRLBR0042", "planning-permission-date": "2013-05-12", "planning-permission-status": "permissioned", "name": "BRLBR0042", "maximum-net-dwellings": "180", "ownership-status": "not owned by a public authority", "point": "POINT(0.089483 51.562689)", "site": "BRLBR0042", "notes": "Approved Planning Application - 2483/10 - Local Plan allocation site number: 51. Employment/ Housing. https://www.redbridge.gov.uk/media/3988/lbr-2061-revised-appendix-1-development-opportunity-sites-august-2017.pdf", "start-date": "2019-07-12", "hectares": "1", "slug": "/brownfield-land/local-authority-eng/RDB/BRLBR0042", "entry-date": "2019-07-12"}}