{"type": "Feature", "geometry": {"type": "Point", "coordinates": [-1.907397, 52.444912]}, "properties": {"resource": "586fd8bf0779012ac7c4b8681341b640e538deeaaf5529b2363862253b528703", "site-address": "11 Holders Lane, Moseley", "deliverable": "yes", "end-date": "", "entry-date": "2018-09-21", "hazardous-substances": "", "hectares": "0.14", "maximum-net-dwellings": "8", "minimum-net-dwellings": "8", "notes": "2016/10554/PA. Demolition of existing dwelling and erection of new three storey building containing nine apartments with associated new parking and landscaping", "organisation": "local-authority-eng:BIR", "ownership-status": "", "planning-permission-date": "2017-02-16", "planning-permission-history": "", "planning-permission-status": "permissioned", "planning-permission-type": "full planning permission", "point": "POINT(-1.907397 52.444912)", "site": "S908", "site-plan-url": "https://localview.birmingham.gov.uk/Planning/Sites/SHLAA/", "start-date": "2017-12-19", "id": "S908"}}