{"type": "Feature", "geometry": {"type": "Point", "coordinates": [-1.860226, 53.772387]}, "properties": {"resource": "d1cbdbdcf1535ff2514f1eca606873e4672de07cd46f08e9bbc8401ad29b1b93", "site-address": "Former reservoir, Mountain", "deliverable": "yes", "end-date": "", "entry-date": "2017-11-01", "hazardous-substances": "", "hectares": "0.47", "maximum-net-dwellings": "0", "minimum-net-dwellings": "0", "notes": "Former reservoir containing equipment on the edge of Mountain. The site has permission for 5 units", "organisation": "local-authority-eng:BRD", "ownership-status": "not owned by a public authority", "planning-permission-date": "2016-07-21", "planning-permission-history": "https://planning.bradford.gov.uk/online-applications/applicationDetails.do?keyVal=MVL8ZYDH0B200&activeTab=summary|https://planning.bradford.gov.uk/online-applications/applicationDetails.do?keyVal=O451W7DHJ2D00&activeTab=summary|https://planning.bradford.gov.uk/online-applications/applicationDetails.do?keyVal=8302818FUL&activeTab=summary|https://planning.bradford.gov.uk/online-applications/applicationDetails.do?keyVal=N9ISBTDH0IO00&activeTab=summary|https://planning.bradford.gov.uk/online-applications/applicationDetails.do?keyVal=0101621PN&activeTab=summary|https://planning.bradford.gov.uk/online-applications/applicationDetails.do?keyVal=O5M6EUDH0GF00&activeTab=summary|https://planning.bradford.gov.uk/online-applications/applicationDetails.do?keyVal=8501019FUL&activeTab=summary|https://planning.bradford.gov.uk/online-applications/applicationDetails.do?keyVal=NT2WG5DHLT000&activeTab=summary|https://planning.bradford.gov.uk/online-applications/applicationDetails.do?keyVal=OPFG48DHJ3S00&activeTab=summary", "planning-permission-status": "permissioned", "planning-permission-type": "full planning permission", "point": "POINT(-1.860226 53.772387)", "site": "QB/031", "site-plan-url": "http://cbmdc.maps.arcgis.com/apps/webappviewer/index.html?id=2134938ccf5843649ef0e555c0926dae&extent=409271.55,430643.109,409352.711,430723.55,27700", "start-date": "2017-11-01", "id": "QB-031"}}