{"type": "Feature", "geometry": {"type": "Point", "coordinates": [-2.982637, 53.397154]}, "properties": {"resource": "9eda46521c6188e0f32023eced61244627e72ba988f669e15478f90d5203780c", "name": "5292", "site-address": "FORMER WAREHOUSE SITE, BLUNDELL STREET / KITCHEN STREET L1", "deliverable": "", "end-date": "", "entry-date": "2019-11-30", "hazardous-substances": "", "hectares": "0.271168", "maximum-net-dwellings": "", "minimum-net-dwellings": "", "notes": "", "organisation": "local-authority-eng:LIV", "ownership-status": "", "planning-permission-date": "", "planning-permission-history": "", "planning-permission-status": "permissioned", "planning-permission-type": "", "point": "POINT(-2.982637 53.397154)", "site": "5292", "site-plan-url": "", "start-date": "", "slug": "/brownfield-land/local-authority-eng/LIV/5292", "href": "local-authority-eng/LIV/5292"}}