{"type": "Feature", "geometry": {"type": "Point", "coordinates": [-2.1214, 53.8626]}, "properties": {"resource": "35bde384fa555a48e4c3007d2b9ad93aeb98bb9bbc43fabe7166c90976e1f442", "site-address": "Land to North West of Laneshawbridge", "deliverable": "yes", "end-date": "", "entry-date": "2019-10-14", "hazardous-substances": "", "hectares": "0.25", "maximum-net-dwellings": "5", "minimum-net-dwellings": "5", "notes": "No work has been started been started on this site as yet.. Outline: Major: Residential development of land 0.25ha for ten dwellinghouses (Access only).", "organisation": "local-authority-eng:PEN", "ownership-status": "not owned by a public authority", "planning-permission-date": "2018-06-26", "planning-permission-history": "https://publicaccess.pendle.gov.uk/online-applications/", "planning-permission-status": "permissioned", "planning-permission-type": "outline planning permission", "point": "POINT(-2.1214 53.8626)", "site": "LE023", "site-plan-url": "http://www.pendle.gov.uk/downloads/file/10031/site_plan_sh013_-_salterforth_mill_earby_road_salterforth", "start-date": "2019-10-14", "id": "LE023"}}