{"type": "Feature", "geometry": {"type": "Point", "coordinates": [-1.881014, 52.53823]}, "properties": {"resource": "586fd8bf0779012ac7c4b8681341b640e538deeaaf5529b2363862253b528703", "site-address": "Site adjacent to 118 Hawthorn Road, Kingstanding", "deliverable": "", "end-date": "", "entry-date": "2018-09-21", "hazardous-substances": "", "hectares": "0.27", "maximum-net-dwellings": "10", "minimum-net-dwellings": "10", "notes": "", "organisation": "local-authority-eng:BIR", "ownership-status": "", "planning-permission-date": "", "planning-permission-history": "", "planning-permission-status": "Not Permissioned", "planning-permission-type": "", "point": "POINT(-1.881014 52.53823)", "site": "N170", "site-plan-url": "https://localview.birmingham.gov.uk/Planning/Sites/SHLAA/", "start-date": "2017-12-19", "id": "N170"}}