{"type": "Feature", "geometry": {"type": "Point", "coordinates": [-0.304671, 51.315961]}, "properties": {"minimum-net-dwellings": "8", "site-plan-url": "https://molevalley.cloudmappin.com/mmv/", "notes": "Under Construction", "start-date": "2018-12-18", "deliverable": "yes", "name": "BLR28", "planning-permission-type": "full planning permission", "planning-permission-date": "2018-04-20", "maximum-net-dwellings": "8", "hectares": "0.04", "planning-permission-history": "http://www.molevalley.gov.uk/swiftlg/apas/run/WPHAPPDETAIL.DisplayUrl?theApnID=MO/2016/1934", "site": "BLR28", "point": "POINT(-0.304671 51.315961)", "planning-permission-status": "permissioned", "organisation": "local-authority-eng:MOL", "site-address": "80a, 86 and 88 Woodfield Lane, Ashtead, KT21 2BS", "ownership-status": "not owned by a public authority", "slug": "/brownfield-land/local-authority-eng/MOL/BLR28", "entry-date": "2020-01-14", "end-date": "2020-01-14"}}