{"type": "Feature", "geometry": {"type": "Point", "coordinates": [-1.133885, 52.93642]}, "properties": {"organisation": "local-authority-eng:RUS", "deliverable": "yes", "ownership-status": "not owned by a public authority", "site": "SHLAA331", "planning-permission-status": "not permissioned", "site-address": "1-27 Loughborough Road & 2-6 Bridgford Road, West Bridgford", "minimum-net-dwellings": "215", "planning-permission-history": "https://planningon-line.rushcliffe.gov.uk/online-applications/propertyDetails.do?activeTab=relatedCases&keyVal=I8I0DWNL04000", "maximum-net-dwellings": "230", "start-date": "2017-12-11", "point": "POINT(-1.133885 52.93642)", "name": "SHLAA331", "notes": "Extended planning permission expired however still potential for brownfield development. 215 residential apartments. https://planningon-line.rushcliffe.gov.uk/online-applications/propertyDetails.do?activeTab=relatedCases&keyVal=I8I0DWNL04000", "site-plan-url": "http://www.rushcliffe.gov.uk/media/1rushcliffe/media/documents/pdf/planningandbuilding/planningpolicy/brownfieldregister/331.pdf", "hectares": "0.7", "slug": "/brownfield-land/local-authority-eng/RUS/SHLAA331", "entry-date": "2018-08-28"}}