{"type": "Feature", "geometry": {"type": "Point", "coordinates": [0.012427, 51.455638]}, "properties": {"resource": "e8c12cbc42527869db0fe79f50c2b7b55bf71306a89420900c649664de95cc6d", "site-address": "Leegate Shopping Centre", "deliverable": "yes", "end-date": "", "entry-date": "2017-11-30", "hazardous-substances": "", "hectares": "1.68", "maximum-net-dwellings": "193", "minimum-net-dwellings": "193", "notes": "14/90032 for mixed use development including 229 residential units", "organisation": "local-authority-eng:LEW", "ownership-status": "not owned by a public authority", "planning-permission-date": "2016-05-17", "planning-permission-history": "", "planning-permission-status": "pending decision", "planning-permission-type": "full planning permission", "point": "POINT(0.012427 51.455638)", "site": "LG005", "site-plan-url": "", "start-date": "2017-11-30", "id": "e8c12cbc42527869db0fe79f50c2b7b55bf71306a89420900c649664de95cc6d:61974"}}