{"type": "Feature", "geometry": {"type": "Point", "coordinates": [-1.557184, 53.800944]}, "properties": {"hectares": "0.06", "ownership-status": "not owned by a public authority", "site": "SHL01908", "start-date": "2019-02-01", "planning-permission-date": "2017-12-19", "name": "SHL01908", "deliverable": "yes", "site-address": "Kimberley House , 11 Woodhouse Square, Woodhouse", "planning-permission-status": "permissioned", "notes": "Change of use of offices (B1a) to 45 flats (C3)", "site-plan-url": "https://leedscc.maps.arcgis.com/apps/webappviewer/index.html?id=612532561dc547fa93e683a5fca73079&find=SHL01908", "planning-permission-type": "other", "organisation": "local-authority-eng:LDS", "maximum-net-dwellings": "45", "minimum-net-dwellings": "45", "point": "POINT(-1.557184 53.800944)", "slug": "/brownfield-land/local-authority-eng/LDS/SHL01908", "entity": 485914, "entry-date": "2019-02-01"}}