{"type": "Feature", "geometry": {"type": "Point", "coordinates": [0.470556, 51.729728]}, "properties": {"name": "17/00207/FUL", "deliverable": "yes", "organisation": "local-authority-eng:CHL", "notes": "Demolition and clearance of existing car mechanic site and redevelopment with 5 no. dwellings. New crossover.", "maximum-net-dwellings": "5", "site-address": "Roadstar Tyre and Exhaust Centre New Writtle Street Chelmsford", "site-plan-url": "https://publicaccess.chelmsford.gov.uk/online-applications/search.do", "planning-permission-status": "permissioned", "hectares": "0.06", "ownership-status": "mixed ownership", "minimum-net-dwellings": "5", "site": "17/00207/FUL", "start-date": "2017-10-30", "point": "POINT(0.470556 51.729728)", "planning-permission-type": "full planning permission", "planning-permission-date": "2017-06-16", "slug": "/brownfield-land/local-authority-eng/CHL/17-00207-FUL", "entity": 479196, "entry-date": "2020-06-16", "end-date": "2020-06-16"}}