{"type": "Feature", "geometry": {"type": "Point", "coordinates": [-0.238176, 51.296822]}, "properties": {"minimum-net-dwellings": "10", "planning-permission-history": "https://planning.reigate-banstead.gov.uk/online-applications/applicationDetails.do?activeTab=relatedCases&keyVal=OSQ78UMVM6400", "organisation": "local-authority-eng:REI", "name": "RBBCBLR076", "ownership-status": "not owned by a public authority", "deliverable": "yes", "hectares": "0.1", "planning-permission-date": "2017-11-30", "maximum-net-dwellings": "10", "start-date": "2018-12-31", "planning-permission-status": "permissioned", "point": "POINT(-0.238176 51.296822)", "site-plan-url": "http://www.reigate-banstead.gov.uk/downloads/file/5158/rbbcblr076", "planning-permission-type": "full planning permission", "notes": "Planning permission *17/01584/F) granted 2017-11-30 for the erection of 10 flats. s.73 approved 2019-01-21 for variation of condition 1.", "site": "RBBCBLR076", "site-address": "105-125 Ashurst Road, Tadworth", "slug": "/brownfield-land/local-authority-eng/REI/RBBCBLR076", "entity": 491427, "entry-date": "2020-12-31", "end-date": "2020-12-31"}}