{"type": "Feature", "geometry": {"type": "Point", "coordinates": [-0.132665, 50.82427]}, "properties": {"resource": "705ceb15dcf386c1df3b529f229bea20a994c75e1b8ddc1a76c171a15520586b", "name": "SHLAA0073", "site-address": "Site adjacent West Carlton Hill Primary School Kingswood Street Brighton", "deliverable": "", "end-date": "", "entry-date": "2017-12-18", "hazardous-substances": "", "hectares": "0.07", "maximum-net-dwellings": "14", "minimum-net-dwellings": "14", "notes": "Site is used by school as staff car park.", "organisation": "local-authority-eng:BNH", "ownership-status": "not owned by a public authority", "planning-permission-date": "", "planning-permission-history": "", "planning-permission-status": "not permissioned", "planning-permission-type": "", "point": "POINT(-0.132665 50.82427)", "site": "SHLAA0073", "site-plan-url": "https://www.brighton-hove.gov.uk/sites/brighton-hove.gov.uk/files/SHLAA0073%20Site%20adjacent%20West%20Carlton%20Hill%20Primary%20School%20Kingswood%20Street.pdf", "start-date": "2017-09-26", "slug": "/brownfield-land/local-authority-eng/BNH/SHLAA0073"}}