{"type": "Feature", "geometry": {"type": "Point", "coordinates": [-1.429039, 53.236491]}, "properties": {"organisation": "local-authority-eng:CHS", "planning-permission-status": "permissioned", "planning-permission-date": "2017-10-13", "site-address": "1 - 3 Knifesmithgate Chesterfield", "site-plan-url": "https://www.chesterfield.gov.uk/media/824264/425-1-3-knifesmithgate-chesterfield.pdf", "name": "425", "start-date": "2018-12-11", "notes": "Full planning permission received.. Conversion of the existing D2 Leisure Unit at 1-3 Knifesmithgate, Chesterfield, to create 10 residential dwellings at first and second floor.", "maximum-net-dwellings": "10", "planning-permission-history": "https://publicaccess.chesterfield.gov.uk/online-applications/propertyDetails.do?activeTab=relatedCases&keyVal=K5XWFBEP00200", "ownership-status": "not owned by a public authority", "deliverable": "yes", "hectares": "0.03", "planning-permission-type": "full planning permission", "minimum-net-dwellings": "10", "site": "425", "point": "POINT(-1.429039 53.236491)", "slug": "/brownfield-land/local-authority-eng/CHS/425", "entity": 479575, "entry-date": "2018-12-11"}}