{"type": "Feature", "geometry": {"type": "Point", "coordinates": [-1.257039, 53.128969]}, "properties": {"hectares": "0.11", "site-plan-url": "https://www.ashfield.gov.uk/planning-building-control/land-environment/brownfield-land-register/", "ownership-status": "not owned by a public authority", "start-date": "2017-07-28", "site-address": "Between 39-59 Russell Street, Sutton in Ashfield", "maximum-net-dwellings": "6", "point": "POINT(-1.257039 53.128969)", "name": "BFR17", "end-date": "2020-01-01", "minimum-net-dwellings": "6", "notes": "The site has planning permission subject to a number of condition (v/2018/0185).", "organisation": "local-authority-eng:ASH", "site": "BFR17", "planning-permission-status": "permissioned", "slug": "/brownfield-land/local-authority-eng/ASH/BFR17", "entity": 474883, "entry-date": "2020-12-31", "deliverable": "yes", "planning-permission-date": "2018-05-16", "planning-permission-type": "full planning permission"}}