{"type": "Feature", "geometry": {"type": "Point", "coordinates": [-1.900563, 52.479754]}, "properties": {"planning-permission-type": "full planning permission", "minimum-net-dwellings": "2", "hectares": "0.04", "deliverable": "yes", "organisation": "local-authority-eng:BIR", "start-date": "2019-12-31", "site-address": "Burne Jones House 11-12 Bennetts Hill, Ladywood", "site": "C447", "site-plan-url": "https://maps.birmingham.gov.uk/webapps/shlaa/", "planning-permission-date": "2019-02-26", "maximum-net-dwellings": "2", "notes": "2018/09611/PA", "planning-permission-status": "permissioned", "name": "C447", "point": "POINT(-1.900563 52.479754)", "slug": "/brownfield-land/local-authority-eng/BIR/C447", "entry-date": "2019-12-31"}}