{"type": "Feature", "geometry": {"type": "Point", "coordinates": [-2.084729, 52.488777]}, "properties": {"resource": "7592a555d0d50bf7844d07f0f1c346b6062819cb47863c2f3af9c46c6fe3968b", "site-address": "DENTAL SURGERY, 1, MARRIOTT ROAD, NETHERTON, DUDLEY, DY2 0LN", "deliverable": "", "end-date": "", "entry-date": "2017-12-19", "hazardous-substances": "", "hectares": "0.13", "maximum-net-dwellings": "7", "minimum-net-dwellings": "7", "notes": "5 apartments and 2 bungalows", "organisation": "local-authority-eng:DUD", "ownership-status": "not owned by a public authority", "planning-permission-date": "2015-12-18", "planning-permission-history": "http://mapping.dudley.gov.uk/atMyDudley.aspx", "planning-permission-status": "permissioned", "planning-permission-type": "full planning permission", "point": "POINT(-2.084729 52.488777)", "site": "DEVOPP0015", "site-plan-url": "http://mapping.dudley.gov.uk/atMyDudley.aspx?MapSource=DMBC/AllMaps&SearchLayer=brownfield_register&SearchField=br_reference&SearchValue=DEVOPP0015", "start-date": "2016-06-30", "id": "7592a555d0d50bf7844d07f0f1c346b6062819cb47863c2f3af9c46c6fe3968b:31465"}}