{"type": "Feature", "geometry": {"type": "Point", "coordinates": [-0.232787, 51.547392]}, "properties": {"resource": "86dee119f806d0c7f62295e6aae502851827e848202c4e43e833126ed62773db", "site-address": "126, High Road, NW10 2PJ", "deliverable": "yes", "end-date": "", "entry-date": "2018-12-14", "hazardous-substances": "", "hectares": "0.023", "maximum-net-dwellings": "2", "minimum-net-dwellings": "2", "notes": "Erection of a first and second floor rear extension including internal alterations to facilitate the conversion of the existing 4 flats into a total of 6 flats (2 x 1bed and 4 x studio)", "organisation": "local-authority-eng:BEN", "ownership-status": "not owned by a public authority", "planning-permission-date": "2017-10-30", "planning-permission-history": "https://pa.brent.gov.uk/online-applications/simpleSearchResults.do?action=firstPage", "planning-permission-status": "permissioned", "planning-permission-type": "full planning permission", "point": "POINT(-0.232787 51.547392)", "site": "BR00114", "site-plan-url": "", "start-date": "2018-12-14", "id": "86dee119f806d0c7f62295e6aae502851827e848202c4e43e833126ed62773db:38243"}}