{"type": "Feature", "geometry": {"type": "Point", "coordinates": [-1.889178, 50.825602]}, "properties": {"ownership-status": "owned by a public authority", "planning-permission-status": "not permissioned", "organisation": "local-authority-eng:EDO", "notes": "The Library site could be redeveloped for library/community uses on the ground floor with flats above. However, this is unlikely to happen until towards the end of the Plan period.", "site-plan-url": "https://maps.christchurchandeastdorset.gov.uk/map/Aurora.svc/run?script=%5cAurora%5cBrownfield+Register.AuroraScript%24&nocache=1302903983&resize=always", "maximum-net-dwellings": "8", "name": "BR3/23/0694", "hectares": "0.08", "minimum-net-dwellings": "8", "site-address": "West Moors Library, Station Road, West Moors", "start-date": "2017-12-05", "point": "POINT(-1.889178 50.825602)", "site": "BR3/23/0694", "slug": "/brownfield-land/local-authority-eng/EDO/BR3-23-0694", "entity": 482032, "entry-date": "2017-12-05"}}