{"type": "Feature", "geometry": {"type": "Point", "coordinates": [-0.017574, 51.477135]}, "properties": {"resource": "86dee119f806d0c7f62295e6aae502851827e848202c4e43e833126ed62773db", "site-address": "\u201cNorman House, 110-114 Norman Rd Greenwich\u201c", "deliverable": "yes", "end-date": "", "entry-date": "2017-12-22", "hazardous-substances": "", "hectares": "0.16", "maximum-net-dwellings": "63", "minimum-net-dwellings": "63", "notes": "\u201cResolution to approve.. 16/2783/F. Demolition of existing building and construction of a part 5-/part 12-storey building comprising 63 residential units, 395 m\u00b2 commercial floorspace (Class A2/B1) including car parking, cyc", "organisation": "local-authority-eng:GRE", "ownership-status": "", "planning-permission-date": "", "planning-permission-history": "", "planning-permission-status": "pending decision", "planning-permission-type": "", "point": "POINT(-0.017574 51.477135)", "site": "RBG-92", "site-plan-url": "", "start-date": "2017-12-22", "id": "RBG-92"}}