{"type": "Feature", "geometry": {"type": "Point", "coordinates": [1.155108, 52.054163]}, "properties": {"ownership-status": "not owned by a public authority", "minimum-net-dwellings": "62", "point": "POINT(1.155108 52.054163)", "planning-permission-history": "https://ppc.ipswich.gov.uk/appndetails.asp?iAppID=16/01037/FUL&sType=APP&search_params=pageNumber%3D1%26txtAppNum%3D15%252F00145%26pnlAdvancedOpen%3D1%26&prev_search_params=&det_search_params=", "planning-permission-date": "2018-03-02", "planning-permission-type": "full planning permission", "deliverable": "yes", "site-address": "30 Lower Brook Street", "planning-permission-status": "permissioned", "site": "BLR/IP054a", "start-date": "2019-12-17", "name": "BLR/IP054a", "maximum-net-dwellings": "62", "organisation": "local-authority-eng:IPS", "notes": "Allocated in adopted Local Plan as part of larger (1.72ha) site IP054 for mixed use including 28 dwellings. Planning permission 16/01037/FUL granted for 62 dwellings. Demolition complete. This site is sensitive and therefore may be unsuitable for future consideration for inclusion in Part 2 of the Register. The site is within an area of archaeological importance, partly within the Central Conservation Area, contains a scheduled monument and two listed buildings. The site is flanked by the rest of Central Conservation Area and several listed buildings with two grade II* churches to the south. The site contains a scheduled monument relating to the Anglo-Saxon and medieval town (ListEntry No: 1005987). Scheduled Monument Consent is a legal requirement. Historic England should be consulted at the earliest opportunity. there is potential for nationally inportant archaeological remains outside the scheduled areas. Detailed pre-application discussions required with Suffolk County Council and Historic England.", "hectares": "0.56", "site-plan-url": "https://maps.ipswich.gov.uk/Online_Mapping/Full.aspx?gpm=3cb6dc33-5b8b-4c0a-a46c-cbed0e2390b7", "slug": "/brownfield-land/local-authority-eng/IPS/BLR-IP054a", "entity": 507462, "entry-date": "2019-12-19"}}