{"type": "Feature", "geometry": {"type": "Point", "coordinates": [-0.6946, 51.3599]}, "properties": {"planning-permission-date": "2019-10-15", "ownership-status": "not owned by a public authority", "site-plan-url": "https://publicaccess.surreyheath.gov.uk/online-applications/applicationDetails.do?keyVal=ZZZYIPPRTV928&activeTab=summary", "site-address": "The Cedars 2 High Street Bagshot Surrey GU19 5AE", "hectares": "0.15", "notes": "https://publicaccess.surreyheath.gov.uk/online-applications/applicationDetails.do?keyVal=ZZZYIPPRTV928&activeTab=summary. https://publicaccess.surreyheath.gov.uk/online-applications/applicationDetails.do?keyVal=ZZZYIPPRTV928&activeTab=summary", "deliverable": "yes", "planning-permission-status": "permissioned", "name": "SHBR140", "site": "SHBR140", "organisation": "local-authority-eng:SUR", "start-date": "2020-12-19", "maximum-net-dwellings": "10", "minimum-net-dwellings": "10", "planning-permission-history": "https://publicaccess.surreyheath.gov.uk/online-applications/applicationDetails.do?keyVal=ZZZYIPPRTV928&activeTab=summary", "point": "POINT(-0.6946 51.3599)", "slug": "/brownfield-land/local-authority-eng/SUR/SHBR140", "entry-date": "2020-12-19"}}