{"type": "Feature", "geometry": {"type": "Point", "coordinates": [-2.126861, 52.586361]}, "properties": {"site": "38360", "hectares": "0.0148", "site-address": "22 Lichfield Street City Centre Wolverhampton WV1 1DG", "start-date": "2016-01-01", "point": "POINT(-2.126861 52.586361)", "planning-permission-status": "Completed During 2016/17", "organisation": "local-authority-eng:WLV", "name": "38360", "slug": "/brownfield-land/local-authority-eng/WLV/38360", "entity": 498694, "entry-date": "2018-05-22"}}