{"type": "Feature", "geometry": {"type": "Point", "coordinates": [-0.144117, 51.586594]}, "properties": {"resource": "fc4dab4a7e5c751e408b55fa04c9cd8e5b14e74751e4571bd348780af99846dc", "site-address": "Cornerways Ellington Road,,N10 3DD", "deliverable": "yes", "end-date": "", "entry-date": "2019-12-31", "hazardous-substances": "", "hectares": "0.022", "maximum-net-dwellings": "1", "minimum-net-dwellings": "1", "notes": "Construction of a two storey dwellinghouse at ground and lower ground floor. http://www.planningservices.haringey.gov.uk/portal/servlets/ApplicationSearchServlet?", "organisation": "local-authority-eng:HRY", "ownership-status": "not owned by a public authority", "planning-permission-date": "2018-10-19", "planning-permission-history": "", "planning-permission-status": "permissioned", "planning-permission-type": "full planning permission", "point": "POINT(-0.144117 51.586594)", "site": "HGY/2018/2596", "site-plan-url": "http://www.planningservices.haringey.gov.uk/portal/servlets/ApplicationSearchServlet", "start-date": "2019-12-31", "id": "HGY-2018-2596"}}