{"type": "Feature", "geometry": {"type": "Point", "coordinates": [1.756093, 52.478388]}, "properties": {"resource": "bedb897fb5dcb787c0307cc21b9e3a56c1f4630f328ab4ec60bf04999dcf3104", "site-address": "Former Lowestoft Magistrates Court Old Nelson Street Lowestoft Suffolk NR32 1EG", "deliverable": "yes", "end-date": "", "entry-date": "2017-12-01", "hazardous-substances": "", "hectares": "0.3", "maximum-net-dwellings": "15", "minimum-net-dwellings": "9", "notes": "Vacant building - to be added to Strategic Housing and Employment Land Availability Assessment", "organisation": "local-authority-eng:WAV", "ownership-status": "owned by a public authority", "planning-permission-date": "", "planning-permission-history": "", "planning-permission-status": "not permissioned", "planning-permission-type": "", "point": "POINT(1.756093 52.478388)", "site": "WDC016", "site-plan-url": "http://waveney.maps.arcgis.com/apps/MapJournal/index.html?appid=1a787ff0d2604387987c86ac1ae56188", "start-date": "2017-12-01", "id": "bedb897fb5dcb787c0307cc21b9e3a56c1f4630f328ab4ec60bf04999dcf3104:51539"}}