{"type": "Feature", "geometry": {"type": "Point", "coordinates": [-2.261491, 51.083137]}, "properties": {"planning-permission-type": "outline planning permission", "site": "S14.6780", "name": "S14.6780", "point": "POINT(-2.261491 51.083137)", "site-address": "Hill Brush Co Ltd, Woodlands Road, Mere", "organisation": "local-authority-eng:WIL", "maximum-net-dwellings": "75", "site-plan-url": "https://wiltscouncil.maps.arcgis.com/apps/webappviewer/index.html?id=74a353612a934bd48fee1f2bc564cdd8", "notes": "Dem existing factory & dwg known as Maltot. Erection of 134 dwellings - hybrid full (59dwgs) and outline application (75dwgs)", "planning-permission-history": "http://planning.wiltshire.gov.uk/Northgate/PlanningExplorer/ApplicationSearch.aspx", "minimum-net-dwellings": "75", "ownership-status": "not owned by a public authority", "hectares": "2.22", "planning-permission-status": "permissioned", "start-date": "2017-12-01", "deliverable": "yes", "planning-permission-date": "2015-03-19", "slug": "/brownfield-land/local-authority-eng/WIL/S14-6780", "entity": 497929, "entry-date": "2017-12-01"}}