{"type": "Feature", "geometry": {"type": "Point", "coordinates": [-0.731545, 51.994238]}, "properties": {"resource": "9990c3f46b50c3f193e4e174fc0825cca1e81d54ac366c76bcd88b0735391dd0", "site-address": "86-96 Queensway, Bletchley, Milton Keynes", "deliverable": "", "end-date": "", "entry-date": "2018-09-30", "hazardous-substances": "", "hectares": "0.03", "maximum-net-dwellings": "10", "minimum-net-dwellings": "10", "notes": "Notification for prior approval for a proposed change of use from office (use class B1a) to 10 x flats (use class C3)", "organisation": "local-authority-eng:MIK", "ownership-status": "not owned by a public authority", "planning-permission-date": "2016-12-22", "planning-permission-history": "https://publicaccess2.milton-keynes.gov.uk/online-applications/propertyDetails.do?activeTab=relatedCases&keyVal=OFS7CRKW0000", "planning-permission-status": "permissioned", "planning-permission-type": "full planning permission", "point": "POINT(-0.731545 51.994238)", "site": "BR61", "site-plan-url": "https://mapping.milton-keynes.gov.uk/mymiltonkeynes.aspx", "start-date": "2017-12-31", "id": "9990c3f46b50c3f193e4e174fc0825cca1e81d54ac366c76bcd88b0735391dd0:64755"}}