{"type": "Feature", "geometry": {"type": "Point", "coordinates": [-1.0822, 53.9576]}, "properties": {"site-plan-url": "https://www.york.gov.uk/downloads/download/4172/brownfield_register", "site": "BR-028", "ownership-status": "not owned by a public authority", "planning-permission-type": "other", "site-address": "Bank of Scotland 6 Nessgate", "point": "POINT(-1.0822 53.9576)", "name": "BR-028", "start-date": "2018-12-20", "organisation": "local-authority-eng:YOR", "maximum-net-dwellings": "16", "hectares": "0.041", "minimum-net-dwellings": "16", "deliverable": "yes", "planning-permission-history": "https://www.york.gov.uk/SearchPlanningApplications", "notes": "See planning application: 19/00520/ORC (supersedes previous application 17/02451/ORC). Proposed change of use of first, second and third floor offices (use class B1) to 18no. residential units (use class C3), with single access from the ground floor of Ousegate House (Nos 2, 4 and 6 Nessgate), under Class O Part 3 Schedule 2 of Article 3 o", "planning-permission-date": "2017-12-11", "slug": "/brownfield-land/local-authority-eng/YOR/BR-028", "entity": 500296, "entry-date": "2020-12-18"}}