{"type": "Feature", "geometry": {"type": "Point", "coordinates": [-0.116891, 51.543368]}, "properties": {"site": "P2016/2865/FUL", "minimum-net-dwellings": "8", "name": "P2016/2865/FUL", "start-date": "2017-11-24", "site-address": "Car Park Area, Caledonian Road", "maximum-net-dwellings": "8", "planning-permission-date": "2016-10-07", "planning-permission-type": "full planning permission", "site-plan-url": "http://mapapp.islington.gov.uk/mapthatol/Login.aspx?user=public&utm_content=stcms2.islington.gov.uk", "hectares": "0.07", "organisation": "local-authority-eng:ISL", "planning-permission-status": "permissioned", "notes": "completed", "deliverable": "yes", "planning-permission-history": "http://planning.islington.gov.uk/Northgate/PlanningExplorer/Generic/StdDetails.aspx?PT=PlanningApplicationsOn-Line&TYPE=PL/PlanningPK.xml&PARAM0=444116&XSLT=/Northgate/PlanningExplorer/SiteFiles/Skins/Islington/xslt/PL/PLDetailsSiteHistory.xslt&FT=Pla", "slug": "/brownfield-land/local-authority-eng/ISL/P2016-2865-FUL", "entry-date": "2018-12-19", "ownership-status": "owned by a public authority", "point": "POINT(-0.116891 51.543368)", "end-date": "2019-11-24"}}