{"type": "Feature", "geometry": {"type": "Point", "coordinates": [0.012612, 51.169655]}, "properties": {"point": "POINT(0.012612 51.169655)", "site-address": "Wayfares Rest, Moor Lane, Dormansland RH7 6NX", "site": "2016/1789", "deliverable": "yes", "planning-permission-type": "full planning permission", "start-date": "2018-12-04", "maximum-net-dwellings": "1", "hectares": "0.4", "planning-permission-status": "permissioned", "site-plan-url": "https://www.tandridge.gov.uk/Planning-and-building/Planning-strategies-and-policies/Local-Plan-2033-emerging-planning-policies/Local-Plan-2033/Housing-and-Economic-Land-Availability-Assessment-HELAA-and-Brownfield-Register", "ownership-status": "not owned by a public authority", "planning-permission-date": "2017-01-26", "minimum-net-dwellings": "1", "name": "2016/1789", "organisation": "local-authority-eng:TAN", "notes": "Erection of detached dwelling with associated driveway and access.. http://www.cartogold.co.uk/tandridgelocalplan/", "slug": "/brownfield-land/local-authority-eng/TAN/2016-1789", "entry-date": "2019-11-21"}}