{"type": "Feature", "geometry": {"type": "Point", "coordinates": [-0.174053, 51.543387]}, "properties": {"resource": "9bbac8efccd720ba3b0258d7aacba507c2513873facbdf9559b2a794873618d9", "site-address": "100 Avenue Road, Swiss Cottage", "deliverable": "yes", "end-date": "", "entry-date": "2020-08-30", "hazardous-substances": "", "hectares": "0.42", "maximum-net-dwellings": "184", "minimum-net-dwellings": "184", "notes": "Demolition of existing building and redevelopment for a 24 storey building and a part 7 part 5 storey building comprising a total of 184 residential units (Class C3) and up to 1,041sqm of flexible retail/financial or professional or caf\u00e9/restaurant floorspace (Classes A1/A2/A3) inclusive of part sui generis floorspace for potential new London Underground station access fronting Avenue Road and up to 1,350sqm for community use (class D1) with associated works including enlargement of existing basement level to contain disabled car parking spaces and cycle parking, landscaping and access improvements.", "organisation": "local-authority-eng:CMD", "ownership-status": "not owned by a public authority", "planning-permission-date": "2016-02-19", "planning-permission-history": "http://planningrecords.camden.gov.uk/Northgate/PlanningExplorer17/Generic/StdDetails.aspx?PT=Planning%20Applications%20On-Line&TYPE=PL/PlanningPK.xml&PARAM0=379867&XSLT=/Northgate/PlanningExplorer17/SiteFiles/Skins/Camden/xslt/PL/PLDetails.xslt&FT=Planning%20Application%20Details&PUBLIC=Y&XMLSIDE=/Northgate/PlanningExplorer17/SiteFiles/Skins/Camden/Menus/PL.xml&DAURI=PLANNING", "planning-permission-status": "permissioned", "planning-permission-type": "full planning permission", "point": "POINT(-0.174053 51.543387)", "site": "LBCBLR005", "site-plan-url": "https://opendata.camden.gov.uk/Environment/Brownfield-Land-Register-Map/g8xk-ktap", "start-date": "2017-12-22", "id": "9bbac8efccd720ba3b0258d7aacba507c2513873facbdf9559b2a794873618d9:43223"}}