{"type": "Feature", "geometry": {"type": "Point", "coordinates": [0.185603, 51.313573]}, "properties": {"resource": "93da33cb203fda2a6f2866049b6a239c50804cba68446d538fcbcf8f23bc93d2", "site-address": "Otford Builders Merchants, High Street, Otford", "deliverable": "yes", "end-date": "1970/01/01 00:00:00+00", "entry-date": "2020-05-20", "hazardous-substances": "", "hectares": "0.46223312", "maximum-net-dwellings": "7", "minimum-net-dwellings": "7", "notes": "Emerging Local Plan Ref ST2-41 - Careful design and layout to conserve the character of the AONB. Redevelopment of the modern office and industrial building will provide an opportunity for enhancement and improve the setting of the conservation area. The review of the existing use is to be considered as part of any planning application. Retain existing trees and hedges.", "organisation": "local-authority-eng:SEV", "ownership-status": "not owned by a public authority", "planning-permission-date": "", "planning-permission-history": "", "planning-permission-status": "not permissioned", "planning-permission-type": "", "point": "POINT(0.185603 51.313573)", "site": "BFR08", "site-plan-url": "https://maps.sevenoaks.gov.uk/brownfield_register/", "start-date": "", "id": "93da33cb203fda2a6f2866049b6a239c50804cba68446d538fcbcf8f23bc93d2:41231"}}