{"type": "Feature", "geometry": {"type": "Point", "coordinates": [-2.203305, 52.190268]}, "properties": {"resource": "dae00a2f84301c3729f72e7f035ae4de2d518b28264d1a890f2430040512027f", "site-address": "Ribble Close & Gas Holder Site", "deliverable": "yes", "end-date": "", "entry-date": "2019-12-17", "hazardous-substances": "", "hectares": "1.2", "maximum-net-dwellings": "50", "minimum-net-dwellings": "40", "notes": "", "organisation": "local-authority-eng:WOC", "ownership-status": "not owned by a public authority", "planning-permission-date": "", "planning-permission-history": "https://www.worcester.gov.uk/planning-application-search", "planning-permission-status": "not permissioned", "planning-permission-type": "other", "point": "POINT(-2.203305 52.190268)", "site": "SWDP43/3", "site-plan-url": "https://www.worcester.gov.uk/?option=com_fileman&view=file&routed=1&name=Ribble%20Close%20-%20Site%20Plan.pdf&folder=PDF%20Documents%2FPlanning%2Fplanning_policy%2Fbrownfieldsites&container=fileman-files", "start-date": "2017-08-04", "id": "SWDP43-3"}}