{"type": "Feature", "geometry": {"type": "Point", "coordinates": [-2.23722, 53.482658]}, "properties": {"hectares": "0.28", "site-plan-url": "https://mappinggm.org.uk/gmodin/", "planning-permission-date": "2017-02-20", "planning-permission-type": "full planning permission", "name": "114146/FO/2016", "maximum-net-dwellings": "183", "point": "POINT(-2.23722 53.482658)", "minimum-net-dwellings": "183", "site-address": "Tib Street/Church Street Car Park", "planning-permission-status": "permissioned", "organisation": "local-authority-eng:MAN", "notes": "Redevelopment of the site for a residential building (Class C3) with ground floor commercial uses (Class A1, A2, A3, A4, B1,D2 (Gym and Cinema) varying in height from 7 to 10 storeys to provide 183 apartments", "deliverable": "yes", "site": "114146/FO/2016", "planning-permission-history": "http://pa.manchester.gov.uk/online-applications/", "start-date": "2017-12-31", "slug": "/brownfield-land/local-authority-eng/MAN/114146-FO-2016", "entry-date": "2017-12-31"}}