{"type": "Feature", "geometry": {"type": "Point", "coordinates": [-2.458198, 51.547354]}, "properties": {"maximum-net-dwellings": "5", "planning-permission-history": "https://developments.southglos.gov.uk/online-applications/applicationDetails.do?activeTab=details&keyVal=NGZG9FOK7T000", "name": "34", "notes": "Demolition of existing dwellings and garages to facilitate erection of 13 dwellings Figure shows remaining homes (Net) to be completed", "planning-permission-type": "full planning permission", "planning-permission-date": "2015-03-10", "planning-permission-status": "permissioned", "deliverable": "yes", "site-address": "38 Nibley Lane Iron Acton BS37 9UP", "point": "POINT(-2.458198 51.547354)", "start-date": "2016-06-30", "organisation": "local-authority-eng:SGC", "minimum-net-dwellings": "5", "hectares": "0.3", "ownership-status": "not owned by a public authority", "site": "34", "site-plan-url": "https://developments.southglos.gov.uk/online-applications/applicationDetails.do?activeTab=map&keyVal=NGZG9FOK7T000", "slug": "/brownfield-land/local-authority-eng/SGC/34", "entity": 492892, "entry-date": "2018-12-31", "end-date": "2019-04-01"}}