{"type": "Feature", "geometry": {"type": "Point", "coordinates": [-1.817754, 52.39575]}, "properties": {"start-date": "2019-12-09", "ownership-status": "mixed ownership", "point": "POINT(-1.817754 52.39575)", "name": "PR64", "organisation": "local-authority-eng:SOL", "site": "PR64", "site-plan-url": "http://www.solihull.gov.uk/Portals/0/Planning/BLR/CfS-124.pdf", "planning-permission-history": "https://publicaccess.solihull.gov.uk/online-applications/propertyDetails.do?activeTab=relatedCases&keyVal=J1VP3TOE30000", "maximum-net-dwellings": "330", "planning-permission-type": "outline planning permission", "hectares": "19.84", "planning-permission-status": "permissioned", "site-address": "The Green, Stratford Road, Shirley B90 4LA", "deliverable": "yes", "planning-permission-date": "2019-03-28", "minimum-net-dwellings": "330", "slug": "/brownfield-land/local-authority-eng/SOL/PR64", "entry-date": "2019-12-09"}}