{"type": "Feature", "geometry": {"type": "Point", "coordinates": [-2.776909, 53.455452]}, "properties": {"resource": "8b55573bf8b7e8977921bdfe77fadeb45f50c3a62bc8b6cdee8a6847449ced2c", "site-address": "Christ Church Parish Hall, Chapel Lane, Eccleston, WA10 5DA", "deliverable": "yes", "end-date": "", "entry-date": "2017-12-19", "hazardous-substances": "", "hectares": "0.36", "maximum-net-dwellings": "10", "minimum-net-dwellings": "10", "notes": "The site is in active use as a medical centre in portacabins within the grounds of the disused parish buildings, cessation of existing use required prior to potential redevelopment for housing.", "organisation": "local-authority-eng:SHN", "ownership-status": "mixed ownership", "planning-permission-date": "", "planning-permission-history": "http://publicaccess.sthelens.gov.uk/online-applications/propertyDetails.do?activeTab=relatedCases&keyVal=NNOI5Y00DT016", "planning-permission-status": "not permissioned", "planning-permission-type": "", "point": "POINT(-2.776909 53.455452)", "site": "BR022", "site-plan-url": "https://www.sthelens.gov.uk/media/7259/br022.pdf", "start-date": "2017-12-19", "id": "8b55573bf8b7e8977921bdfe77fadeb45f50c3a62bc8b6cdee8a6847449ced2c:39722"}}