{"type": "Feature", "geometry": {"type": "Point", "coordinates": [-0.204053, 51.419026]}, "properties": {"planning-permission-status": "allocation", "hectares": "0.420268", "notes": "Allocated use - Any of the following or an appropriate mix of town centre type uses such as retail (A1 Use Class), caf\ufffd and restaurants (A3 Use Class), community (D1 Use Class), cultural, leisure and", "minimum-net-dwellings": "5", "organisation": "local-authority-eng:MRT", "site-plan-url": "https://maps.london.gov.uk/brownfield-site-register/", "maximum-net-dwellings": "5", "site-address": "Hartfield Road Car Park, Wimbledon, SW19 3TB", "point": "POINT(-0.204053 51.419026)", "ownership-status": "owned by a public authority", "name": "17240016", "start-date": "2017-12-31", "site": "17240016", "slug": "/brownfield-land/local-authority-eng/MRT/17240016", "entry-date": "2020-01-10"}}