{"type": "Feature", "geometry": {"type": "Point", "coordinates": [-0.235825, 51.567229]}, "properties": {"resource": "a2751587f6c9df3a75ff4058b9460d616a0e533640684659662057a89217d8b2", "site-address": "39 Waterloo Road, NW2 7TT", "deliverable": "yes", "end-date": "", "entry-date": "2017-12-15", "hazardous-substances": "", "hectares": "0.08", "maximum-net-dwellings": "11", "minimum-net-dwellings": "11", "notes": "Prior approval for change of use of the building from offices (Use class B1a) into residential units (Use class C3) involving the creation of 11 self-contained flats (11 x 2bed flats)", "organisation": "local-authority-eng:BEN", "ownership-status": "", "planning-permission-date": "2017-11-06", "planning-permission-history": "https://pa.brent.gov.uk/online-applications/propertyDetails.do?activeTab=relatedCases&keyVal=PROPLPI_202033137_1", "planning-permission-status": "permissioned", "planning-permission-type": "full planning permission", "point": "POINT(-0.235825 51.567229)", "site": "BR00115", "site-plan-url": "https://maps.london.gov.uk/brownfield-site-register", "start-date": "2017-12-15", "id": "a2751587f6c9df3a75ff4058b9460d616a0e533640684659662057a89217d8b2:45173"}}