{"type": "Feature", "geometry": {"type": "Point", "coordinates": [1.38652, 52.71805]}, "properties": {"deliverable": "yes", "start-date": "2020-12-17", "maximum-net-dwellings": "1", "planning-permission-type": "full planning permission", "organisation": "national-park-authority:Q4972284", "planning-permission-status": "permissioned", "site-plan-url": "https://planning.broads-authority.gov.uk/online-applications/applicationDetails.do?activeTab=map&keyVal=PNMFB3TBHF900", "site": "BF000043", "point": "POINT(1.38652 52.71805)", "ownership-status": "not owned by a public authority", "hectares": "0.04", "site-address": "Barn House, Annexe 6 The Street Belaugh Norwich NR12 8XA", "name": "BF000043", "planning-permission-history": "https://planning.broads-authority.gov.uk/online-applications/applicationDetails.do?activeTab=relatedCases&keyVal=PNMFB3TBHF900", "minimum-net-dwellings": "1", "slug": "/brownfield-land/national-park-authority/Q4972284/BF000043", "entry-date": "2020-12-17"}}