{"type": "Feature", "geometry": {"type": "Point", "coordinates": [-1.447768, 53.407436]}, "properties": {"name": "S00182", "planning-permission-status": "not permissioned", "site-plan-url": "https://www.sheffield.gov.uk/content/sheffield/home/planning-development/housing-land-sites.html", "site": "S00182", "planning-permission-history": "https://planningapps.sheffield.gov.uk/online-applications/applicationDetails.do?activeTab=summary&keyVal=0403825FUL", "site-address": "Land Adjacent to 130 Owler Lane", "maximum-net-dwellings": "6", "notes": "Estimated to comprise of 1 Apartments and 5 Houses", "deliverable": "yes", "organisation": "local-authority-eng:SHF", "hectares": "0.14", "point": "POINT(-1.447768 53.407436)", "minimum-net-dwellings": "6", "start-date": "2017-12-05", "ownership-status": "not owned by a public authority", "slug": "/brownfield-land/local-authority-eng/SHF/S00182", "entity": 492979, "entry-date": "2018-12-18"}}