{"type": "Feature", "geometry": {"type": "Point", "coordinates": [-1.607772, 54.971111]}, "properties": {"planning-permission-date": "2018-05-11", "ownership-status": "not owned by a public authority", "minimum-net-dwellings": "274", "maximum-net-dwellings": "274", "site": "1674", "site-address": "Cuthbert House, Pilgrim Street", "planning-permission-status": "permissioned", "hectares": "0.13", "point": "POINT(-1.607772 54.971111)", "organisation": "local-authority-eng:NET", "site-plan-url": "https://www.newcastle.gov.uk/sites/default/files/wwwfileroot/planning-and-buildings/planning-policy/housing_combined_web.pdf", "notes": "Notification of Prior Approval: Change of use of offices (Class B1a) to 274 residential units (Class C3)", "name": "1674", "slug": "/brownfield-land/local-authority-eng/NET/1674", "entry-date": "2019-01-16", "start-date": "2018-12-17", "planning-permission-type": "Other"}}