{"type": "Feature", "geometry": {"type": "Point", "coordinates": [-1.277323, 51.817142]}, "properties": {"resource": "c94e35967405344dd2fd4116f2705be22d222407eb82d5ef0b04b7aafa835f63", "site-address": "Gosford Hill Court, Bicester Road, Kidlington", "deliverable": "yes", "end-date": "", "entry-date": "2018-12-03", "hazardous-substances": "", "hectares": "0.26", "maximum-net-dwellings": "2", "minimum-net-dwellings": "2", "notes": "", "organisation": "local-authority-eng:CHR", "ownership-status": "not owned by a public authority", "planning-permission-date": "2017-12-28", "planning-permission-history": "https://www.publicaccess.cherwell.gov.uk/online-applications/", "planning-permission-status": "permissioned", "planning-permission-type": "full planning permission", "point": "POINT(-1.277323 51.817142)", "site": "BLR33", "site-plan-url": "https://www.cherwell.gov.uk/info/33/planning-policy/384/brownfield-land-register", "start-date": "2018-12-03", "id": "c94e35967405344dd2fd4116f2705be22d222407eb82d5ef0b04b7aafa835f63:60426"}}