{"type": "Feature", "geometry": {"type": "Point", "coordinates": [-1.357058, 53.427691]}, "properties": {"planning-permission-status": "permissioned", "site": "BR0060", "site-address": "Millfold House, 70 Westgate, Rotherham, S60 1BD", "organisation": "local-authority-eng:ROT", "name": "BR0060", "minimum-net-dwellings": "15", "site-plan-url": "http://communitymapping.rotherham.gov.uk/Communitymapfindit/findit/", "maximum-net-dwellings": "45", "hectares": "0.37", "ownership-status": "owned by a public authority", "start-date": "2017-09-29", "slug": "/brownfield-land/local-authority-eng/ROT/BR0060", "entry-date": "2020-12-15", "planning-permission-history": "http://planning.rotherham.gov.uk/fastweblive/detail.asp?AltRef=RB2020/0088", "deliverable": "yes", "planning-permission-type": "full planning permission", "planning-permission-date": "2019-11-29", "notes": "Permission granted for 45 dwellings", "point": "POINT(-1.357058 53.427691)"}}