{"type": "Feature", "geometry": {"type": "Point", "coordinates": [0.506001, 51.280585]}, "properties": {"deliverable": "yes", "planning-permission-type": "full planning permission", "hectares": "0.07", "organisation": "local-authority-eng:MAI", "minimum-net-dwellings": "7", "ownership-status": "not owned by a public authority", "name": "16/506224", "planning-permission-status": "completed", "maximum-net-dwellings": "7", "start-date": "2017-12-01", "site": "16/506224", "site-address": "80A London Road, Maidstone, Kent, ME16 0DR", "point": "POINT(0.506001 51.280585)", "slug": "/brownfield-land/local-authority-eng/MAI/16-506224", "entry-date": "2019-05-01"}}