{"type": "Feature", "geometry": {"type": "Point", "coordinates": [-2.722729, 52.048881]}, "properties": {"planning-permission-status": "permissioned", "name": "123177", "site": "123177", "organisation": "local-authority-eng:HEF", "planning-permission-type": "full planning permission", "ownership-status": "mixed ownership", "planning-permission-date": "2015-01-21", "deliverable": "yes", "site-plan-url": "https://www.herefordshire.gov.uk/info/200142/planning_services/planning_application_search/details?id=123177", "hectares": "0.29", "site-address": "Land East of 20 Belmont Avenue, Hereford, Herefordshire, HR2 7JQ", "start-date": "2017-12-07", "slug": "/brownfield-land/local-authority-eng/HEF/123177", "entry-date": "2020-01-07", "point": "POINT(-2.722729 52.048881)"}}