{"type": "Feature", "geometry": {"type": "Point", "coordinates": [-0.136089, 51.566948]}, "properties": {"deliverable": "yes", "site-plan-url": "http://mapapp.islington.gov.uk/mapthatol/Login.aspx?user=public&utm_content=stcms2.islington.gov.uk", "notes": "Site plan is available on Islington interactive mapping website. Specific site is identifiable via SiteReference and SiteNameAddress attribute data.", "name": "ARCH3", "planning-permission-status": "not permissioned", "site-address": "The Archway Campus, Highgate Hill", "maximum-net-dwellings": "260", "start-date": "2017-11-24", "planning-permission-history": "http://planning.islington.gov.uk/Northgate/PlanningExplorer/Generic/StdDetails.aspx?PT=Planning%20Applications%20On-Line&TYPE=PL/PlanningPK.xml&PARAM0=455841&XSLT=/Northgate/PlanningExplorer/SiteFiles/Skins/Islington/xslt/PL/PLDetailsSiteHistory.xslt&FT=Planning%20Application%20Details&PUBLIC=Y&XMLSIDE=&DAURI=PLANNING", "organisation": "local-authority-eng:ISL", "hectares": "1.47", "site": "ARCH3", "minimum-net-dwellings": "260", "slug": "/brownfield-land/local-authority-eng/ISL/ARCH3", "entity": 484764, "entry-date": "2018-12-19", "point": "POINT(-0.136089 51.566948)", "ownership-status": "not owned by a public authority"}}