{"type": "Feature", "geometry": {"type": "Point", "coordinates": [-1.284917, 53.491724]}, "properties": {"resource": "e7c94b30fcb6bfb39843957061e50f57effc88eb5632fbaa0dce9933e1671ee2", "name": "687", "site-address": "The Embankment, Leach Lane Industrial Estate, Leach Lane, Mexborough", "deliverable": "", "end-date": "", "entry-date": "2017-12-31", "hazardous-substances": "", "hectares": "0.55", "maximum-net-dwellings": "24", "minimum-net-dwellings": "24", "notes": "14/02813/FULM - Evidence provided from landowner/developer that site not currently viable as part of evidence submitted to Public Inquiry May 2017 hence excluded from 5YHLS. More recent evidence that the scheme will now go ahead however: http://wearedoncaster.co.uk/news/multimillion-pound-doncaster-waterfront-scheme-set-to-move-ahead/?utm_source=newsletter&amp;utm_medium=email&amp;utm_campaign=Mexborough&amp;utm_content=November%20(2). Erection of 17 houses & 7 apartments", "organisation": "local-authority-eng:DNC", "ownership-status": "not owned by a public authority", "planning-permission-date": "2016-01-18", "planning-permission-history": "http://www.doncaster.gov.uk/services/planning/planning-applications-online-public-access", "planning-permission-status": "permissioned", "planning-permission-type": "full planning permission", "point": "POINT(-1.284917 53.491724)", "site": "687", "site-plan-url": "http://doncaster.opus3.co.uk/ldf/maps/BrownfieldLand", "start-date": "2017-12-31", "slug": "/brownfield-land/local-authority-eng/DNC/687"}}