{"type": "Feature", "geometry": {"type": "Point", "coordinates": [-3.605561, 50.549609]}, "properties": {"planning-permission-status": "permissioned", "ownership-status": "not owned by a public authority", "start-date": "2019-12-17", "site-plan-url": "https://www.teignbridge.gov.uk/planning/forms/planning-application-details/?Type=Application&Refval=18/01494/PIP", "site": "BFR038", "point": "POINT(-3.605561 50.549609)", "deliverable": "yes", "maximum-net-dwellings": "9", "planning-permission-date": "2018-08-29", "notes": "unimplemented", "organisation": "local-authority-eng:TEI", "name": "BFR038", "site-address": "Broadway Road", "planning-permission-type": "full planning permission", "minimum-net-dwellings": "6", "hectares": "0.29", "slug": "/brownfield-land/local-authority-eng/TEI/BFR038", "entity": 496462, "entry-date": "2019-12-17"}}