{"type": "Feature", "geometry": {"type": "Point", "coordinates": [-0.591334, 51.513292]}, "properties": {"resource": "4e5b879d2fb8cacf3627f69521251fde5a81cffa6ee1350b7978587a70fb4e1c", "site-address": "Lion House, Petersfield Avenue, Slough, SL2 5DN", "deliverable": "", "end-date": "", "entry-date": "2017-12-01", "hazardous-substances": "", "hectares": "3.43", "maximum-net-dwellings": "155", "minimum-net-dwellings": "155", "notes": "P/06348/011. Demolition of existing buildings and erection of a part four, part seven storey building and a part five, part seven storey building comprising residential accommodation, basement car parking, landscaping and associated works.. http://webarchive.nationalarchives.gov.uk/20140328084622/http://publications.environment-agency.gov.uk/pdf/SCHO0195BJKT-e-e.pdf|http://webarchive.nationalarchives.gov.uk/20140328084622/http://publications.environment-agency.gov.uk/pdf/SCHO0195BJKO-e-e.pdf|http://webarchive.nationalarchives.gov.uk/20140328084622/http://publications.environment-agency.gov.uk/pdf/SCHO0195BJJX-e-e.pdf|http://webarchive.nationalarchives.gov.uk/20140328084622/http://publications.environment-agency.gov.uk/pdf/SCHO0195BJKQ-e-e.pdf", "organisation": "local-authority-eng:SLG", "ownership-status": "", "planning-permission-date": "2016-09-28", "planning-permission-history": "", "planning-permission-status": "permissioned", "planning-permission-type": "full planning permission", "point": "POINT(-0.591334 51.513292)", "site": "br7", "site-plan-url": "http://www.slough.gov.uk/downloads/slough_brownfield_land_register_site_br7.pdf", "start-date": "2017-12-01", "id": "br7"}}