{"type": "Feature", "geometry": {"type": "Point", "coordinates": [-0.151291, 50.846987]}, "properties": {"resource": "163a15518ad8e5437a2471adf78aabf61a16c49b79a0c9f7c425730829b95349", "site-address": "Blocks E & F Kingsmere London Road", "deliverable": "yes", "end-date": "", "entry-date": "2017-09-19", "hazardous-substances": "", "hectares": "0.09", "maximum-net-dwellings": "8", "minimum-net-dwellings": "8", "notes": "Extension not started. Roof extension to Blocks E & F to provide 8no flats each with own private roof garden.", "organisation": "local-authority-eng:BNH", "ownership-status": "not owned by a public authority", "planning-permission-date": "2015-11-26", "planning-permission-history": "http://ww3.brighton-hove.gov.uk/index.cfm?request=c1199915&action=showDetail&APPLICATION_NUMBER=BH2016%2F00254|http://ww3.brighton-hove.gov.uk/index.cfm?request=c1199915&action=showDetail&APPLICATION_NUMBER=BH2015%2F04074|http://ww3.brighton-hove.gov.uk/index.cfm?request=c1199915&action=showDetail&APPLICATION_NUMBER=BH2015%2F02713|http://ww3.brighton-hove.gov.uk/index.cfm?request=c1199915&action=showDetail&APPLICATION_NUMBER=BH2011%2F03432|http://ww3.brighton-hove.gov.uk/index.cfm?request=c1199915&action=showDetail&APPLICATION_NUMBER=BH2010%2F02056|http://ww3.brighton-hove.gov.uk/index.cfm?request=c1199915&action=showDetail&APPLICATION_NUMBER=BH2007%2F02691|http://ww3.brighton-hove.gov.uk/index.cfm?request=c1199915&action=showDetail&APPLICATION_NUMBER=BH2007%2F00709", "planning-permission-status": "permissioned", "planning-permission-type": "full planning permission", "point": "POINT(-0.151291 50.846987)", "site": "SHLAA6009", "site-plan-url": "https://www.brighton-hove.gov.uk/sites/brighton-hove.gov.uk/files/SHLAA6009%20Blocks%20E%20%26%20F%20Kingsmere%20London%20Road.pdf", "start-date": "2017-09-19", "id": "163a15518ad8e5437a2471adf78aabf61a16c49b79a0c9f7c425730829b95349:65275"}}