{"type": "Feature", "geometry": {"type": "Point", "coordinates": [-1.854221, 54.959389]}, "properties": {"resource": "aed5c6f79471ef3168d5210dbf8f7da13619f4238de52f4629dce0b92dafcda6", "name": "9031", "site-address": "The Drill Hall, Swallwell Close, Prudhoe", "deliverable": "yes", "end-date": "", "entry-date": "2020-12-17", "hazardous-substances": "", "hectares": "0.07", "maximum-net-dwellings": "6", "minimum-net-dwellings": "6", "notes": "Former community hall within Prudhoe that was originally a drill hall but last utilised as a gym. The building is now vacant and available once cleared. Scheme for demolition and redevelopment 6 terraced houses has been permitted (16/02306/FUL). The hall has been part demolished but it is understood that there are complications with the project and work has now halted. As a result, Northumberland Council has submitted two applications for erection of security fencing to make the site safe (19/04685/FUL, 20/00373/FUL). Despite there being no substantive progress to date on the residential aspect of the development, the permission has been implemented through initial site works, so it will not lapse. However, given the context the scheme is not considered deliverable and completion is forecast for the 6-10 year period.", "organisation": "local-authority-eng:NBL", "ownership-status": "not owned by a public authority", "planning-permission-date": "2016-10-20", "planning-permission-history": "https://publicaccess.northumberland.gov.uk/online-applications/propertyDetails.do?activeTab=relatedCases&keyVal=00DUX5TGLI000", "planning-permission-status": "permissioned", "planning-permission-type": "full planning permission", "point": "POINT(-1.854221 54.959389)", "site": "9031", "site-plan-url": "http://northumberland.maps.arcgis.com/apps/webappviewer/index.html?id=c1b801d50f8040efbf8c9bc9f916cfae", "start-date": "2017-12-17", "slug": "/brownfield-land/local-authority-eng/NBL/9031"}}