{"type": "Feature", "geometry": {"type": "Point", "coordinates": [-0.735027, 51.330863]}, "properties": {"minimum-net-dwellings": "18", "site": "SHBR111", "organisation": "local-authority-eng:SUR", "site-plan-url": "https://www.surreyheath.gov.uk/sites/default/files/documents/residents/planning/planning-policy/SLAA2019/8.%20SLAA%202019%20Appendix%202%20-%20Camberley%20Site%20Assessments.pdf", "maximum-net-dwellings": "18", "name": "SHBR111", "start-date": "2019-12-19", "site-address": "Tekels Park, Camberley, GU15 2LE", "ownership-status": "not owned by a public authority", "notes": "https://www.surreyheath.gov.uk/sites/default/files/documents/residents/planning/planning-policy/SLAA2019/8.%20SLAA%202019%20Appendix%202%20-%20Camberley%20Site%20Assessments.pdf. https://www.surreyheath.gov.uk/sites/default/files/documents/residents/planning/planning-policy/SLAA2019/8.%20SLAA%202019%20Appendix%202%20-%20Camberley%20Site%20Assessments.pdf", "planning-permission-status": "Not permissioned", "hectares": "12.8", "point": "POINT(-0.735027 51.330863)", "slug": "/brownfield-land/local-authority-eng/SUR/SHBR111", "entry-date": "2019-12-19"}}