{"type": "Feature", "geometry": {"type": "Point", "coordinates": [-2.675194, 53.465742]}, "properties": {"resource": "da94c0b0e66d63c593b411964a7e1e3bebf0ab2f95ea1dce2a298d6eda704e22", "site-address": "Haydock cricket and bowling club, Ireland Road, Haydock, WA11 0JH", "deliverable": "yes", "end-date": "", "entry-date": "2017-12-19", "hazardous-substances": "", "hectares": "0.67", "maximum-net-dwellings": "17", "minimum-net-dwellings": "17", "notes": "Under construction but historically stalled site.. Partial demolition and refurbishment of existing bowling club including the creation of a new car park to serve the bowling club. Reduction in size of the bowling green and the erection of 1no. detached house and 16no. semi-detached houses with associated parking and landscaping.", "organisation": "local-authority-eng:SHN", "ownership-status": "not owned by a public authority", "planning-permission-date": "2009-11-16", "planning-permission-history": "http://publicaccess.sthelens.gov.uk/online-applications/propertyDetails.do?activeTab=relatedCases&keyVal=NXWP4QPE00500", "planning-permission-status": "permissioned", "planning-permission-type": "full planning permission", "point": "POINT(-2.675194 53.465742)", "site": "BR068", "site-plan-url": "https://www.sthelens.gov.uk/media/7305/br068.pdf", "start-date": "2017-12-19", "id": "da94c0b0e66d63c593b411964a7e1e3bebf0ab2f95ea1dce2a298d6eda704e22:58116"}}