{"type": "Feature", "geometry": {"type": "Point", "coordinates": [0.943756, 51.18779]}, "properties": {"resource": "755daa0a07ddac21d25cfa08fb0a0bfd2cb9a539ddd4658888d662d30c9549a4", "site-address": "Land at Olantigh Road and Oppupation Road", "deliverable": "yes", "end-date": "", "entry-date": "2018-02-26", "hazardous-substances": "", "hectares": "1.5", "maximum-net-dwellings": "52", "minimum-net-dwellings": "52", "notes": "Conversion of former College buildings to provide 39 dwellings with internal and external alterations to include new openings, new partitions, closure of existing openings, removal of doors and partitions, new staircases and opening up of intermediate floor. Demolition of existing extensions", "organisation": "local-authority-eng:ASF", "ownership-status": "not owned by a public authority", "planning-permission-date": "", "planning-permission-history": "http://planning.ashford.gov.uk/Planning/details.aspx?systemkey=106196&pageindex=0", "planning-permission-status": "pending decision", "planning-permission-type": "full planning permission", "point": "POINT(0.943756 51.18779)", "site": "WY3", "site-plan-url": "https://www.ashford.gov.uk/media/5777/wy3.pdf", "start-date": "2018-02-26", "id": "755daa0a07ddac21d25cfa08fb0a0bfd2cb9a539ddd4658888d662d30c9549a4:30543"}}