{"type": "Feature", "geometry": {"type": "Point", "coordinates": [-1.700855, 53.772222]}, "properties": {"resource": "45943bab01aef31a1c8c60cb8eb9a9385275b491a3dc6d4f2d0572902c54d0e9", "site-address": "Landscove Avenue, Holmewood", "deliverable": "", "end-date": "", "entry-date": "2018-11-01", "hazardous-substances": "", "hectares": "0.62", "maximum-net-dwellings": "28", "minimum-net-dwellings": "23", "notes": "Cleared site. The site is available for redevelopment", "organisation": "local-authority-eng:BRD", "ownership-status": "not owned by a public authority", "planning-permission-date": "", "planning-permission-history": "https://planning.bradford.gov.uk/online-applications/applicationDetails.do?keyVal=IJVAYODHM9000&activeTab=summary|https://planning.bradford.gov.uk/online-applications/applicationDetails.do?keyVal=9302015REG&activeTab=summary", "planning-permission-status": "not permissioned", "planning-permission-type": "", "point": "POINT(-1.700855 53.772222)", "site": "SE/030", "site-plan-url": "http://cbmdc.maps.arcgis.com/apps/webappviewer/index.html?id=2134938ccf5843649ef0e555c0926dae&extent=419754.83,430634.6,419864.2,430744.8,27700", "start-date": "2017-11-01", "id": "SE-030"}}