{"type": "Feature", "geometry": {"type": "Point", "coordinates": [-1.904103, 52.487169]}, "properties": {"hectares": "0.23", "deliverable": "yes", "organisation": "local-authority-eng:BIR", "minimum-net-dwellings": "109", "site": "CC77", "planning-permission-type": "full planning permission", "planning-permission-status": "permissioned", "maximum-net-dwellings": "109", "planning-permission-date": "2013-04-30", "start-date": "2017-12-19", "site-address": "70 Constitution Hill, Soho & Jewellery Quarter", "notes": "2013/00361/PA", "point": "POINT(-1.904103 52.487169)", "name": "CC77", "site-plan-url": "https://maps.birmingham.gov.uk/webapps/shlaa/", "slug": "/brownfield-land/local-authority-eng/BIR/CC77", "entry-date": "2019-12-31"}}