{"type": "Feature", "geometry": {"type": "Point", "coordinates": [-0.781668, 53.401183]}, "properties": {"resource": "a67b1d41bcfeedf77d7beec23336c732f88376938b03526736d40035abd0f82a", "site-address": "Sinclairs, Ropery Road, Gainsborough", "deliverable": "", "end-date": "", "entry-date": "2018-03-31", "hazardous-substances": "", "hectares": "3.03", "maximum-net-dwellings": "114", "minimum-net-dwellings": "114", "notes": "Allocated in the Central Lincolnshire Local Plan", "organisation": "local-authority-eng:WLI", "ownership-status": "", "planning-permission-date": "", "planning-permission-history": "", "planning-permission-status": "not permissioned", "planning-permission-type": "", "point": "POINT(-0.781668 53.401183)", "site": "6", "site-plan-url": "https://www.west-lindsey.gov.uk/_resources/assets/attachment/full/0/55645.pdf", "start-date": "2017-12-17", "id": "a67b1d41bcfeedf77d7beec23336c732f88376938b03526736d40035abd0f82a:46646"}}