{"type": "Feature", "geometry": {"type": "Point", "coordinates": [-1.019697, 51.441813]}, "properties": {"minimum-net-dwellings": "18", "notes": "Allocation WR3p in Local Plan.. Development for residential and/or residential care.. https://images.reading.gov.uk/2019/12/Local_Plan_Adopted_November_2019.pdf", "organisation": "local-authority-eng:RDG", "site-address": "Alice Burrows Home, Dwyer Road, Reading", "planning-permission-status": "not permissioned", "maximum-net-dwellings": "27", "ownership-status": "owned by a public authority", "site": "BL4005", "name": "BL4005", "hectares": "0.48", "site-plan-url": "https://images.reading.gov.uk/2020/12/Brownfield-Land-Register-Maps-2020-BL4001-to-BL4027.pdf", "deliverable": "yes", "start-date": "2017-12-15", "slug": "/brownfield-land/local-authority-eng/RDG/BL4005", "entity": 491308, "entry-date": "2020-12-11", "point": "POINT(-1.019697 51.441813)"}}