{"type": "Feature", "geometry": {"type": "Point", "coordinates": [-5.731, 54.347]}, "properties": {"start-date": "2017-12-20", "site-address": "Land behind 27-61 Elmbridge Lane, Woking, GU22 9AN", "notes": "PLAN/2014/0927 application withdrawn", "hectares": "0.67", "site": "SHLAAHOE17", "point": "POINT(-5.731 54.347)", "site-plan-url": "http://www.woking2027.info/ldfregisters", "organisation": "local-authority-eng:WOI", "ownership-status": "not owned by a public authority", "minimum-net-dwellings": "20", "maximum-net-dwellings": "20", "name": "SHLAAHOE17", "planning-permission-status": "not permissioned", "slug": "/brownfield-land/local-authority-eng/WOI/SHLAAHOE17", "entry-date": "2017-12-20"}}