{"type": "Feature", "geometry": {"type": "Point", "coordinates": [-2.542686, 53.493834]}, "properties": {"point": "POINT(-2.542686 53.493834)", "planning-permission-history": "https://wigan.maps.arcgis.com/apps/webappviewer/index.html?id=ce2e56afe2ad411bacfa8cb6706f8f84&extent=363793.565182,399968.165148,364393.565182,399668.165148,27700", "minimum-net-dwellings": "470", "site-address": "Westleigh Waterfront, Plank Lane, Leigh", "organisation": "local-authority-eng:WGN", "site-plan-url": "https://www.arcgis.com/apps/webappviewer/index.html?id=4c4af404cd73491b8cf8dba6fc465395&query=Wigan_Brownfield_2017_Rev_A_9008_0,SITEREF,SHLAA0045", "ownership-status": "owned by a public authority", "notes": "A/16/82492 refers", "start-date": "2017-07-01", "planning-permission-status": "pending decision", "hectares": "20.809976", "maximum-net-dwellings": "470", "name": "SHLAA0045", "site": "SHLAA0045", "deliverable": "yes", "slug": "/brownfield-land/local-authority-eng/WGN/SHLAA0045", "entity": 497660, "entry-date": "2018-11-01"}}