{"type": "Feature", "geometry": {"type": "Point", "coordinates": [0.561304, 51.877889]}, "properties": {"point": "POINT(0.561304 51.877889)", "site": "17/01894/FUL", "deliverable": "yes", "maximum-net-dwellings": "5", "hectares": "0.07", "minimum-net-dwellings": "5", "organisation": "local-authority-eng:BRA", "planning-permission-date": "2018-02-26", "notes": "Completed", "start-date": "2018-12-22", "site-address": "Baverstocks Manor Place, Albert Road, Braintree", "name": "17/01894/FUL", "planning-permission-status": "permissioned", "site-plan-url": "https://braintree.maps.arcgis.com/apps/webappviewer/index.html?id=2cb158cfa90841e5be176e0ddbea3865", "ownership-status": "not owned by a public authority", "planning-permission-type": "full planning permission", "slug": "/brownfield-land/local-authority-eng/BRA/17-01894-FUL", "entry-date": "2019-12-18", "end-date": "2019-12-18"}}