{"type": "Feature", "geometry": {"type": "Point", "coordinates": [-1.486332, 51.784973]}, "properties": {"point": "POINT(-1.486332 51.784973)", "notes": "Planning permission to demolish existing structures and erect six apartments", "site": "BR20", "organisation": "local-authority-eng:WOX", "site-plan-url": "https://publicaccess.westoxon.gov.uk/online-applications/applicationDetails.do?activeTab=map&keyVal=P99VGURKJIM00", "planning-permission-history": "https://publicaccess.westoxon.gov.uk/online-applications/applicationDetails.do?activeTab=summary&keyVal=P99VGURKJIM00", "planning-permission-date": "2018-09-11", "minimum-net-dwellings": "6", "start-date": "2019-12-19", "maximum-net-dwellings": "6", "site-address": "Store to rear, 8 - 10 Market Square, Witney", "deliverable": "yes", "planning-permission-status": "permissioned", "name": "BR20", "hectares": "0.06", "planning-permission-type": "full planning permission", "ownership-status": "not owned by a public authority", "slug": "/brownfield-land/local-authority-eng/WOX/BR20", "entry-date": "2019-12-19"}}