{"type": "Feature", "geometry": {"type": "Point", "coordinates": [-0.235797, 51.541179]}, "properties": {"minimum-net-dwellings": "9", "planning-permission-date": "2018-07-20", "site": "BR00077", "organisation": "local-authority-eng:BEN", "planning-permission-history": "https://pa.brent.gov.uk/online-applications/simpleSearchResults.do?action=firstPage", "notes": "Development has commenced", "start-date": "2018-12-14", "point": "POINT(-0.235797 51.541179)", "site-address": "341, Harlesden Road, NW10 3RX", "deliverable": "yes", "maximum-net-dwellings": "9", "hectares": "0.08", "site-plan-url": "https://maps.london.gov.uk/brownfield-site-register", "name": "BR00077", "planning-permission-status": "permissioned", "planning-permission-type": "full planning permission", "slug": "/brownfield-land/local-authority-eng/BEN/BR00077", "entry-date": "2018-12-14", "end-date": "2019-10-18", "ownership-status": "not owned by a public authority"}}