{"type": "Feature", "geometry": {"type": "Point", "coordinates": [0.10887, 51.563245]}, "properties": {"planning-permission-date": "2017-05-08", "point": "POINT(0.10887 51.563245)", "hectares": "0.09", "site-plan-url": "https://my.redbridge.gov.uk/map/brownfield-land-register/BRLBR0045", "notes": "Approved Planning Application - 2537/15 - Local Plan allocation site number: 54. Housing. https://www.redbridge.gov.uk/media/3988/lbr-2061-revised-appendix-1-development-opportunity-sites-august-2017.pdf", "planning-permission-history": "http://planning.redbridge.gov.uk/swiftlg/apas/run/wphappcriteria.display", "start-date": "2019-07-12", "planning-permission-status": "permissioned", "ownership-status": "not owned by a public authority", "name": "BRLBR0045", "minimum-net-dwellings": "31", "maximum-net-dwellings": "31", "planning-permission-type": "full planning permission", "site": "BRLBR0045", "site-address": "Former Lord Napier Pub, 521 Green Lane", "deliverable": "yes", "organisation": "local-authority-eng:RDB", "slug": "/brownfield-land/local-authority-eng/RDB/BRLBR0045", "entry-date": "2019-07-12"}}