{"type": "Feature", "geometry": {"type": "Point", "coordinates": [-1.503443, 52.410633]}, "properties": {"minimum-net-dwellings": "37", "planning-permission-date": "2016-04-22", "site": "FUL/2015/3022", "site-plan-url": "http://planning.coventry.gov.uk/portal/servlets/ApplicationSearchServlet", "organisation": "local-authority-eng:COV", "notes": "Student scheme- Erection of student accomodation.", "name": "FUL/2015/3022", "planning-permission-status": "permissioned", "maximum-net-dwellings": "37", "planning-permission-type": "full planning permission", "deliverable": "yes", "planning-permission-history": "http://planning.coventry.gov.uk/portal/servlets/ApplicationSearchServlet?PKID=777245", "point": "POINT(-1.503443 52.410633)", "hectares": "0.0462", "site-address": "Corner of Cox Street and Ford Street", "slug": "/brownfield-land/local-authority-eng/COV/FUL-2015-3022", "entry-date": "2019-11-30"}}