{"type": "Feature", "geometry": {"type": "Point", "coordinates": [0.051153, 51.531483]}, "properties": {"resource": "de3918b3af88df0eebce7fbb3f8bc36f571f59fda90470f9b1e8bee3145f8ca0", "site-address": "236-242 Barking Road, East Ham, London, E6 3BB", "deliverable": "yes", "end-date": "", "entry-date": "2017-11-30", "hazardous-substances": "", "hectares": "0.07", "maximum-net-dwellings": "9", "minimum-net-dwellings": "7", "notes": "Proposed alterations to ground floor, erection of first floor side extension, new additional second and third floors over existing building to create 7 flats comprising of 3 x 3 bed, 2 x 2 bed and 2 x. https://www.newham.gov.uk/Pages/ServiceChild/Planning-policy-documents.aspx#DetailedSitesandPoliciesDevelopmentPlanDocumentDSPDPD", "organisation": "local-authority-eng:NWM", "ownership-status": "not owned by a public authority", "planning-permission-date": "2016-06-30", "planning-permission-history": "https://pa.newham.gov.uk/online-applications/propertyDetails.do?previousCaseType=Application&previousKeyVal=O6N23MJYLD200&activeTab=summary&previousCaseNumber=16%2F01343%2FFUL&keyVal=002MIQJYLI000", "planning-permission-status": "permissioned", "planning-permission-type": "full planning permission", "point": "POINT(0.051153 51.531483)", "site": "HSG12", "site-plan-url": "https://data.london.gov.uk/dataset/brownfield-land-register", "start-date": "2017-11-30", "id": "HSG12"}}