{"type": "Feature", "geometry": {"type": "Point", "coordinates": [0.063898, 52.281724]}, "properties": {"resource": "4f28c52f4c6a67348c1f2dcf8fa2666da4a3a7471153da6078f514b4cdc475cb", "site-address": "Land to the East of B1050 and Longstanton, West of the Cambridgeshire Guided Busway (CGB) and North of Oakington", "deliverable": "yes", "end-date": "", "entry-date": "2017-12-31", "hazardous-substances": "", "hectares": "63.3", "maximum-net-dwellings": "3500", "minimum-net-dwellings": "3500", "notes": "Phase 2 of Northstowe Major Development Site, Brownfield element.. Development of Phase 2 of Northstowe with details of appearance, landscaping, layout, scale and access reserved (save for the matters submitted in respect of the Southern Access Road (West)) comprising: 1), construction haul route, engineering and infrastructure works; and 2) construction of a highway link (Southern Access Road (West)) between the proposed new town of Northstowe and the B1050, improvements to the B1050, and associated landscaping and drainage", "organisation": "local-authority-eng:SCA", "ownership-status": "", "planning-permission-date": "2017-01-08", "planning-permission-history": "http://plan.scambs.gov.uk/swiftlg/apas/run/WPHAPPDETAIL.DisplayUrl?theApnID=S/2011/14/OL", "planning-permission-status": "permissioned", "planning-permission-type": "outline planning permission", "point": "POINT(0.063898 52.281724)", "site": "17SC0009a", "site-plan-url": "https://gismaps.scambs.gov.uk/connect/analyst/mobile/#/main?mapcfg=BrownFieldRegister_New&queryTable=/NamedTables/SCDC_Brownfieldregister&queryColumn=Site_Reference&queryValues=17SC0009a", "start-date": "2017-12-31", "id": "17SC0009a"}}