{"type": "Feature", "geometry": {"type": "Point", "coordinates": [-1.309977, 52.97006]}, "properties": {"planning-permission-date": "2020-03-16", "ownership-status": "not owned by a public authority", "maximum-net-dwellings": "69", "planning-permission-status": "permissioned", "site-address": "Ilkeston Co-Op, 12-16 South Street, Ilkeston, Derbyshire, DE7 5GS", "notes": "ERE/0916/0042 planning permission: Alterations to the first and second floors of the former Ilkeston Co-op building to create 69 residential apartments. The proposals include external alterations to the fabric of the building, extensions to the roof and additional and replacement windows. A resident\u2019s gym and car parking would be provided as part of the development. The site is recorded complete as at 31st March 2019. This site is in the SHLAA2019 Ref 390.", "name": "BLR11", "organisation": "local-authority-eng:ERE", "hectares": "0.58", "start-date": "2017-12-05", "minimum-net-dwellings": "69", "site": "BLR11", "deliverable": "yes", "planning-permission-type": "full planning permission", "planning-permission-history": "https://myservice.erewash.gov.uk/Planning/lg/GFPlanningWelcome.page", "site-plan-url": "https://map.erewash.gov.uk/isharelive.web/myerewash.aspx", "slug": "/brownfield-land/local-authority-eng/ERE/BLR11", "entry-date": "2019-12-31", "point": "POINT(-1.309977 52.97006)", "end-date": "2019-03-31"}}