{"type": "Feature", "geometry": {"type": "Point", "coordinates": [-0.246313, 51.380676]}, "properties": {"resource": "de3918b3af88df0eebce7fbb3f8bc36f571f59fda90470f9b1e8bee3145f8ca0", "site-address": "Park House, Park Terrace, Worcester Park", "deliverable": "yes", "end-date": "", "entry-date": "2017-12-12", "hazardous-substances": "", "hectares": "0.03", "maximum-net-dwellings": "21", "minimum-net-dwellings": "21", "notes": "Prior approval 16/14205/PNO for 21 net additional homes (C3) granted on 21/06/2016.. Conversion of 1st, 2nd and 3rd floors from office (B1) to residential use (C3) with a total of 21 flats.", "organisation": "local-authority-eng:KTT", "ownership-status": "", "planning-permission-date": "2016-06-21", "planning-permission-history": "https://maps.kingston.gov.uk/propertyServices/planning/Details?caseNo=16/14205/PNO", "planning-permission-status": "permissioned", "planning-permission-type": "other", "point": "POINT(-0.246313 51.380676)", "site": "RBK0022", "site-plan-url": "https://data.london.gov.uk/dataset/brownfield-land-register", "start-date": "2017-12-12", "id": "de3918b3af88df0eebce7fbb3f8bc36f571f59fda90470f9b1e8bee3145f8ca0:59381"}}