{"type": "Feature", "geometry": {"type": "Point", "coordinates": [-0.366037, 51.467302]}, "properties": {"resource": "86dee119f806d0c7f62295e6aae502851827e848202c4e43e833126ed62773db", "site-address": "Land at Bell Road,TW33NR", "deliverable": "yes", "end-date": "", "entry-date": "2017-12-31", "hazardous-substances": "", "hectares": "0.54000000000000004", "maximum-net-dwellings": "127", "minimum-net-dwellings": "127", "notes": "Erection of a part 6 part 11 storey building to include 127 mixed residential units and 1,127sqm of commercial floor space at ground floor level with associated access, highways, car and cycle parking", "organisation": "local-authority-eng:HNS", "ownership-status": "not owned by a public authority", "planning-permission-date": "", "planning-permission-history": "", "planning-permission-status": "permissioned", "planning-permission-type": "", "point": "POINT(-0.366037 51.467302)", "site": "HOLP35", "site-plan-url": "", "start-date": "2017-12-31", "id": "86dee119f806d0c7f62295e6aae502851827e848202c4e43e833126ed62773db:25129"}}