{"type": "Feature", "geometry": {"type": "Point", "coordinates": [-0.196833, 51.562552]}, "properties": {"site": "18/4674/FUL", "minimum-net-dwellings": "52", "maximum-net-dwellings": "52", "name": "18/4674/FUL", "point": "POINT(-0.196833 51.562552)", "start-date": "2020-11-16", "site-plan-url": "https://data.london.gov.uk/dataset/brownfield-land-register", "planning-permission-status": "permissioned", "site-address": "Hermitage Lane", "organisation": "local-authority-eng:BNE", "hectares": "0.25", "slug": "/brownfield-land/local-authority-eng/BNE/18-4674-FUL", "entity": 476768, "entry-date": "2020-11-16"}}