{"type": "Feature", "geometry": {"type": "Point", "coordinates": [-2.32278, 53.7024]}, "properties": {"ownership-status": "not owned by a public authority", "maximum-net-dwellings": "8", "site": "ROSBS019", "hectares": "0.13", "site-address": "FMR HASLINGDEN POLICE STATION", "organisation": "local-authority-eng:ROS", "start-date": "2017-12-15", "minimum-net-dwellings": "8", "name": "ROSBS019", "point": "POINT(-2.32278 53.7024)", "planning-permission-status": "permissioned", "slug": "/brownfield-land/local-authority-eng/ROS/ROSBS019", "entry-date": "2020-12-17", "deliverable": "yes", "notes": "2017/0221 - Section 73 application to vary conditions 4 (construction method statement) and 5 (off-site highway works) pursuant to Planning Approval 2016/0320 granted. Police station has been demolished. Local Plan submission version proposes to allocate the site (H45) for 8 dwellings.. Demolition of existing police station and erection of 8 No. dwellings, and construction of access, car parking, landscaping and associated works.", "planning-permission-type": "full planning permission", "planning-permission-history": "https://publicaccess.rossendale.gov.uk/online-applications/propertyDetails.do?activeTab=relatedCases&keyVal=MJLQFS00DT02X", "site-plan-url": "https://www.rossendale.gov.uk/downloads/download/10897/brownfield_register", "planning-permission-date": "2016-10-03"}}