{"type": "Feature", "geometry": {"type": "Point", "coordinates": [0.741302, 50.953073]}, "properties": {"resource": "78cff0703156173e855e451949b5010fc381d8b8a5f0fd72c9172d563c395eca", "site-address": "Frieda Gardham School site, Rye", "deliverable": "", "end-date": "", "entry-date": "2017-10-01", "hazardous-substances": "", "hectares": "0.72", "maximum-net-dwellings": "22", "minimum-net-dwellings": "18", "notes": "\u201cThis brownfield site is part of a larger site that includes greenfield land. The whole site, including the greenfield part, is an \u201cAmber site in the Council's 2013 SHLAA and a development of some 20 dwellings should include 30% affordable housing. The site is at high risk and is poorly defended from tidal flooding and would be subject to Sequential Test and Exception Test. The Environment Agency (EA) has also indicated the site will also be dependent on the Eastern Wall flood defence coming forward (programmed 2020/22). The site lies on Tidal Flat Deposits underlying Hastings Beds. Tidal Flats Deposits are classed as unproductive strata and the Hastings Beds are classed as a Secondary A aquifer. The EA advises a proposal would have to undertake a land contamination assessment with the planning application that demonstrated any unacceptable risks could be managed appropriately through the re-development process. The EA has also advised that how foul water is disposed to ground in the area is important due to the shallow groundwater and very limited attenuation that would occur in the unsaturated zone above the water table. See page 26 of the SHLAA (http://www.rother.gov.uk/CHttpHandler.ashx?id=20276&p=0).", "organisation": "local-authority-eng:ROH", "ownership-status": "owned by a public authority", "planning-permission-date": "", "planning-permission-history": "", "planning-permission-status": "not permissioned", "planning-permission-type": "", "point": "POINT(0.741302 50.953073)", "site": "RDCBLR0029", "site-plan-url": "https://www.rother.gov.uk/CHttpHandler.ashx?id=29527", "start-date": "2017-10-01", "id": "78cff0703156173e855e451949b5010fc381d8b8a5f0fd72c9172d563c395eca:33044"}}