{"type": "Feature", "geometry": {"type": "Point", "coordinates": [-1.560271, 55.125178]}, "properties": {"resource": "aed5c6f79471ef3168d5210dbf8f7da13619f4238de52f4629dce0b92dafcda6", "name": "8037", "site-address": "Errington Street, Bebside", "deliverable": "", "end-date": "", "entry-date": "2020-12-17", "hazardous-substances": "", "hectares": "0.4", "maximum-net-dwellings": "11", "minimum-net-dwellings": "10", "notes": "Former concrete plant that is no longer in use and has been vacant for a number of years following closure. Now comprises derelict hardstanding after the disused buildings, industrial infrastructure and apparatus have now been cleared Remediation may be required due to the past use. This site is adjacent to further employment land, much of which is occupied. However there is also recently completed residential development in close proximity. Any residential scheme would have to carefully consider the relationship with surrounding uses as well as overcoming any access limitations. It has recently been highlighted that the site is available for redevelopment, with a residential scheme the preferred proposal of the landowner. Currently considered developable later in the plan period.", "organisation": "local-authority-eng:NBL", "ownership-status": "not owned by a public authority", "planning-permission-date": "", "planning-permission-history": "", "planning-permission-status": "not permissioned", "planning-permission-type": "", "point": "POINT(-1.560271 55.125178)", "site": "8037", "site-plan-url": "http://northumberland.maps.arcgis.com/apps/webappviewer/index.html?id=c1b801d50f8040efbf8c9bc9f916cfae", "start-date": "2016-06-30", "slug": "/brownfield-land/local-authority-eng/NBL/8037"}}