{"type": "Feature", "geometry": {"type": "Point", "coordinates": [-1.788953, 53.835919]}, "properties": {"point": "POINT(-1.788953 53.835919)", "maximum-net-dwellings": "0", "hectares": "0.23", "planning-permission-history": "https://planning.bradford.gov.uk/online-applications/applicationDetails.do?keyVal=9902109PN&activeTab=summary|https://planning.bradford.gov.uk/online-applications/applicationDetails.do?keyVal=OMG6SBDH0GF00&activeTab=summary|https://planning.bradford.gov.uk/online-applications/applicationDetails.do?keyVal=ONZH9MDH0IL00&activeTab=summary|https://planning.bradford.gov.uk/online-applications/applicationDetails.do?keyVal=7404897REG&activeTab=summary|https://planning.bradford.gov.uk/online-applications/applicationDetails.do?keyVal=NXQU97DHLT000&activeTab=summary|https://planning.bradford.gov.uk/online-applications/applicationDetails.do?keyVal=OOX8KLDHIRT00&activeTab=summary|https://planning.bradford.gov.uk/online-applications/applicationDetails.do?keyVal=0101287PN&activeTab=summary|https://planning.bradford.gov.uk/online-applications/applicationDetails.do?keyVal=NEIHXADH02F00&activeTab=summary", "ownership-status": "not owned by a public authority", "notes": "Details pending consideration. Site with permission to redevelop site for 11 homes", "site": "SH/049", "planning-permission-date": "2016-02-12", "start-date": "2017-11-01", "organisation": "local-authority-eng:BRD", "minimum-net-dwellings": "0", "planning-permission-status": "permissioned", "planning-permission-type": "full planning permission", "name": "SH/049", "site-address": "Saltaire Road, Saltaire", "deliverable": "yes", "site-plan-url": "http://cbmdc.maps.arcgis.com/apps/webappviewer/index.html?id=2134938ccf5843649ef0e555c0926dae&extent=413954.75,437739.5564,414018.2,437781.45,27700", "slug": "/brownfield-land/local-authority-eng/BRD/SH-049", "entry-date": "2017-11-01"}}