{"type": "Feature", "geometry": {"type": "Point", "coordinates": [-1.806025, 52.560968]}, "properties": {"start-date": "2017-12-19", "hectares": "0.2", "name": "N251", "site": "N251", "site-address": "Site and garages rear of 54-58 Mount View, Sutton Reddicap", "planning-permission-status": "Not Permissioned", "organisation": "local-authority-eng:BIR", "maximum-net-dwellings": "6", "minimum-net-dwellings": "6", "notes": "Identified by Consultants", "ownership-status": "owned by a public authority", "site-plan-url": "https://localview.birmingham.gov.uk/Planning/Sites/SHLAA/", "point": "POINT(-1.806025 52.560968)", "slug": "/brownfield-land/local-authority-eng/BIR/N251", "entry-date": "2018-09-21"}}