{"type": "Feature", "geometry": {"type": "Point", "coordinates": [-2.5347, 51.59375]}, "properties": {"resource": "8a5308d4b8e5c240e9120685c52b3b94e44e0c87dbf582eb09f6dfe928bb9d2a", "site-address": "The Gables Costers Close Alveston Bristol South Gloucestershire BS35 3HZ", "deliverable": "yes", "end-date": "", "entry-date": "2018-12-31", "hazardous-substances": "", "hectares": "0.3", "maximum-net-dwellings": "9", "minimum-net-dwellings": "9", "notes": "Demolition of existing industrial building and dwelling. Erection of 10no. dwellings with alteration to access, car parking and associated works. 0 units completed at 18/19 Residential Land Survey.", "organisation": "local-authority-eng:SGC", "ownership-status": "not owned by a public authority", "planning-permission-date": "2017-02-27", "planning-permission-history": "https://developments.southglos.gov.uk/online-applications/applicationDetails.do?activeTab=summary&keyVal=NZV1HZOK0C500", "planning-permission-status": "permissioned", "planning-permission-type": "full planning permission", "point": "POINT(-2.5347 51.59375)", "site": "70", "site-plan-url": "https://developments.southglos.gov.uk/online-applications/applicationDetails.do?activeTab=map&keyVal=NZV1HZOK0C500", "start-date": "2017-12-31", "id": "8a5308d4b8e5c240e9120685c52b3b94e44e0c87dbf582eb09f6dfe928bb9d2a:59391"}}