{"type": "Feature", "geometry": {"type": "Point", "coordinates": [-1.526421, 52.395506]}, "properties": {"resource": "ec1ff31625d546423b174d6e6eafca40efa4f10525199b0cbc6990ceb7d748a9", "site-address": "Former Wisteria Lodge, Earlsdon Avenue South", "deliverable": "yes", "end-date": "", "entry-date": "2019-11-30", "hazardous-substances": "", "hectares": "0.49", "maximum-net-dwellings": "12", "minimum-net-dwellings": "12", "notes": "Vacant site considered to be a viable redevelopment option that is available. Development will need to conisder the trees that could be identified for protection.", "organisation": "local-authority-eng:COV", "ownership-status": "owned by a public authority", "planning-permission-date": "", "planning-permission-history": "", "planning-permission-status": "not permissioned", "planning-permission-type": "", "point": "POINT(-1.526421 52.395506)", "site": "E1", "site-plan-url": "http://www.coventry.gov.uk/downloads/file/19663/lp53_shlaa_2016_report_and_appendices", "start-date": "", "id": "ec1ff31625d546423b174d6e6eafca40efa4f10525199b0cbc6990ceb7d748a9:44092"}}