{"type": "Feature", "geometry": {"type": "Point", "coordinates": [-1.601188, 53.170451]}, "properties": {"resource": "0f3b2d5a03867a8e830d904bb9f9819b9f5683a476bf4618c3e6ec3813b59424", "site-address": "Land at Stancliffe Quarry", "deliverable": "", "end-date": "", "entry-date": "2017-12-06", "hazardous-substances": "", "hectares": "10.16", "maximum-net-dwellings": "100", "minimum-net-dwellings": "100", "notes": "Allocated in the Local Plan Policies HC2 (m) and DS3.. Housing land allocation in the Local Plan HC2 (m), strategic site allocation in the Local Plan Policy DS3.", "organisation": "local-authority-eng:DEB", "ownership-status": "not owned by a public authority", "planning-permission-date": "", "planning-permission-history": "https://planning.derbyshiredales.gov.uk/online-applications/propertyDetails.do?activeTab=relatedCases&keyVal=J26K3BFUT0000", "planning-permission-status": "not permissioned", "planning-permission-type": "", "point": "POINT(-1.601188 53.170451)", "site": "SHLAA281", "site-plan-url": "http://www.derbyshiredales.gov.uk/images/documents/B/Brownfield_Land_Register_Part_One_SHLAA281_-_Land_At_Stancliffe_Quarry.pdf", "start-date": "2017-12-06", "id": "SHLAA281"}}