{"type": "Feature", "geometry": {"type": "Point", "coordinates": [-0.290867, 51.553912]}, "properties": {"resource": "a2751587f6c9df3a75ff4058b9460d616a0e533640684659662057a89217d8b2", "site-address": "402-408 INC, High Road, Wembley, HA9 6AL", "deliverable": "", "end-date": "", "entry-date": "2017-12-15", "hazardous-substances": "", "hectares": "0.05", "maximum-net-dwellings": "6", "minimum-net-dwellings": "5", "notes": "Conversion of part ground floor, first and second floor office accommodation (Class B1(a)) into six self-contained residential flats (Class C3)", "organisation": "local-authority-eng:BEN", "ownership-status": "not owned by a public authority", "planning-permission-date": "2013-11-19", "planning-permission-history": "https://pa.brent.gov.uk/online-applications/propertyDetails.do?activeTab=relatedCases&keyVal=PROPLPI_202087166_1", "planning-permission-status": "permissioned", "planning-permission-type": "full planning permission", "point": "POINT(-0.290867 51.553912)", "site": "BR00001", "site-plan-url": "https://maps.london.gov.uk/brownfield-site-register", "start-date": "2017-12-15", "id": "a2751587f6c9df3a75ff4058b9460d616a0e533640684659662057a89217d8b2:45064"}}