{"type": "Feature", "geometry": {"type": "Point", "coordinates": [-3.617454, 50.529619]}, "properties": {"resource": "fcf7f7f421c61724aefa0dabdd3285e2d314d3046d0d95ff58709166f4f77289", "site-address": "Bradley Lane, Newton Abbot", "deliverable": "yes", "end-date": "", "entry-date": "2017-12-13", "hazardous-substances": "", "hectares": "5.6", "maximum-net-dwellings": "170", "minimum-net-dwellings": "170", "notes": "Allocation for 170", "organisation": "local-authority-eng:TEI", "ownership-status": "owned by a public authority", "planning-permission-date": "", "planning-permission-history": "", "planning-permission-status": "not permissioned", "planning-permission-type": "other", "point": "POINT(-3.617454 50.529619)", "site": "BFR030", "site-plan-url": "https://www.teignbridge.gov.uk/media/1814/local-plan-heart-of-teignbridge.pdf", "start-date": "2017-11-01", "id": "fcf7f7f421c61724aefa0dabdd3285e2d314d3046d0d95ff58709166f4f77289:28952"}}