{"type": "Feature", "geometry": {"type": "Point", "coordinates": [-2.062226, 51.907653]}, "properties": {"resource": "98ff862128f89160bc588a38e45573c88b1123c4e7190fa395054350215ac4c2", "site-address": "96, 100, 104 Prestbury Road", "deliverable": "yes", "end-date": "", "entry-date": "2019-12-31", "hazardous-substances": "", "hectares": "0.49", "maximum-net-dwellings": "15", "minimum-net-dwellings": "15", "notes": "", "organisation": "local-authority-eng:CHT", "ownership-status": "not owned by a public authority", "planning-permission-date": "", "planning-permission-history": "", "planning-permission-status": "not permissioned", "planning-permission-type": "", "point": "POINT(-2.062226 51.907653)", "site": "BFR005", "site-plan-url": "https://maps.cheltenham.gov.uk/map/Aurora.svc/run?script=%5cAurora%5cCBC+Brownfield+register.AuroraScript%24&nocache=416161679&resize=always&inspect_query=CBCBrownfield&inspect_value=005&scale=1024", "start-date": "2017-12-31", "id": "98ff862128f89160bc588a38e45573c88b1123c4e7190fa395054350215ac4c2:15941"}}