{"type": "Feature", "geometry": {"type": "Point", "coordinates": [-1.96121, 52.353628]}, "properties": {"site": "BBLR7", "site-address": "50,52 & 54 Rear of Red Lion Street, Alvechurch", "point": "POINT(-1.96121 52.353628)", "hectares": "0.25", "name": "BBLR7", "site-plan-url": "http://www.bromsgrove.gov.uk/media/3409792/BBLR7.pdf", "minimum-net-dwellings": "50", "maximum-net-dwellings": "50", "deliverable": "yes", "planning-permission-status": "permissioned", "ownership-status": "not owned by a public authority", "start-date": "2016-10-10", "organisation": "local-authority-eng:BRM", "slug": "/brownfield-land/local-authority-eng/BRM/BBLR7", "entry-date": "2019-12-14", "planning-permission-history": "https://publicaccess.bromsgroveandredditch.gov.uk/online-applications/applicationDetails.do?activeTab=summary&keyVal=NYBWNHDPJ2U00", "planning-permission-type": "full planning permission", "notes": "Potential Residential", "planning-permission-date": "2016-06-13"}}