{"type": "Feature", "geometry": {"type": "Point", "coordinates": [-0.411712, 51.875393]}, "properties": {"resource": "2f7c0fef68e882c3acba02073190cf0e6de4e616807f81fd211a0c1b03a10cad", "site-address": "The Windsor Castle, 12 Albert Road", "deliverable": "yes", "end-date": "", "entry-date": "2019-11-18", "hazardous-substances": "", "hectares": "0.08", "maximum-net-dwellings": "131", "minimum-net-dwellings": "119", "notes": "The permission applies across this site and site reference SHLAA222", "organisation": "local-authority-eng:LUT", "ownership-status": "", "planning-permission-date": "2017-06-16", "planning-permission-history": "https://planning.luton.gov.uk/online-applications/propertyDetails.do?activeTab=relatedCases&keyVal=M8UM6IKG09600", "planning-permission-status": "permissioned", "planning-permission-type": "full planning permission", "point": "POINT(-0.411712 51.875393)", "site": "SHLAA183", "site-plan-url": "http://www.luton.gov.uk/Environment/Lists/LutonDocuments/PDF/SHLAA-2017/Maps/182-and-183.pdf", "start-date": "2017-12-01", "id": "2f7c0fef68e882c3acba02073190cf0e6de4e616807f81fd211a0c1b03a10cad:2717"}}