{"type": "Feature", "geometry": {"type": "Point", "coordinates": [0.323759, 51.444732]}, "properties": {"site-address": "Land at Station Road, Northfleet", "organisation": "local-authority-eng:GRA", "site": "GB160", "ownership-status": "owned by a public authority", "start-date": "2017-12-20", "planning-permission-history": "https://plan.gravesham.gov.uk/online-applications/applicationDetails.do?activeTab=relatedCases&keyVal=ZZZZZ0HPXC287", "hectares": "0.53", "maximum-net-dwellings": "19", "site-plan-url": "https://localplan.gravesham.gov.uk/consult.ti/REG18S2/consultationHome", "minimum-net-dwellings": "19", "planning-permission-status": "not permissioned", "point": "POINT(0.323759 51.444732)", "name": "GB160", "deliverable": "yes", "notes": "Site sourced from draft SHLAA (2020). https://plan.gravesham.gov.uk/online-applications/applicationDetails.do?activeTab=constraints&keyVal=ZZZZZ0HPXC287", "slug": "/brownfield-land/local-authority-eng/GRA/GB160", "entity": null, "entry-date": "2021-01-25"}}