{"type": "Feature", "geometry": {"type": "Point", "coordinates": [-2.61481, 52.006652]}, "properties": {"planning-permission-type": "full planning permission", "notes": "Proposed new dwelling.", "site": "152955", "organisation": "local-authority-eng:HEF", "site-plan-url": "https://www.herefordshire.gov.uk/info/200142/planning_services/planning_application_search/details?id=152955", "hectares": "0.22", "name": "152955", "planning-permission-date": "2016-01-06", "planning-permission-status": "permissioned", "site-address": "New Inn, Fownhope, Hereford, HR1 4PE", "point": "POINT(-2.61481 52.006652)", "slug": "/brownfield-land/local-authority-eng/HEF/152955", "entry-date": "2020-01-07"}}