{"type": "Feature", "geometry": {"type": "Point", "coordinates": [-2.136158, 52.500962]}, "properties": {"site-address": "Former Male and Son, Corbyns Hall Lane, Pensnett", "start-date": "2020-03-12", "organisation": "local-authority-eng:DUD", "site-plan-url": "https://mapping.dudley.gov.uk/atMyDudley.aspx?MapSource=DMBC/AllMaps&SearchLayer=brownfield_register&SearchField=br_reference&SearchValue=DEVOPP0079", "planning-permission-status": "not permissioned", "maximum-net-dwellings": "18", "site": "DEVOPP0079", "point": "POINT(-2.136158 52.500962)", "ownership-status": "not owned by a public authority", "minimum-net-dwellings": "18", "hectares": "0.57", "planning-permission-history": "https://mapping.dudley.gov.uk/atMyDudley.aspx", "name": "DEVOPP0079", "slug": "/brownfield-land/local-authority-eng/DUD/DEVOPP0079", "entity": 481491, "entry-date": "2020-03-12"}}