{"type": "Feature", "geometry": {"type": "Point", "coordinates": [-1.56655, 55.00973]}, "properties": {"organisation": "local-authority-eng:NTY", "planning-permission-status": "permissioned", "minimum-net-dwellings": "51", "maximum-net-dwellings": "51", "hectares": "2.25", "planning-permission-history": "https://idoxpublicaccess.northtyneside.gov.uk/online-applications/simpleSearchResults.do?action=firstPage", "start-date": "2017-12-22", "site-address": "Land south of Whitley Road, Benton", "planning-permission-date": "2012-06-06", "site-plan-url": "http://my.northtyneside.gov.uk/category/1134/housing-and-employment", "deliverable": "yes", "point": "POINT(-1.56655 55.00973)", "planning-permission-type": "outline planning permission", "ownership-status": "owned by a public authority", "site": "223", "name": "223", "notes": "Outline application for erection of 51 dwellings and creation of an additional 18 drop off spaces on Tyneview Road", "slug": "/brownfield-land/local-authority-eng/NTY/223", "entry-date": "2020-04-15", "end-date": "2019-12-31"}}