{"type": "Feature", "geometry": {"type": "Point", "coordinates": [-2.630273, 51.355168]}, "properties": {"resource": "0938ddfe15027c0efc4d998795717ad812a5a5fc09572ce472b43ae165811b6f", "site-address": "Employment Building Unit 2, Bell Lane, Chew Stoke, Bristol,", "deliverable": "yes", "end-date": "", "entry-date": "2018-12-21", "hazardous-substances": "", "hectares": "1.5", "maximum-net-dwellings": "5", "minimum-net-dwellings": "5", "notes": "17/05325/OUT", "organisation": "local-authority-eng:BAS", "ownership-status": "not owned by a public authority", "planning-permission-date": "2018-07-02", "planning-permission-history": "", "planning-permission-status": "permissioned", "planning-permission-type": "outline planning permission", "point": "POINT(-2.630273 51.355168)", "site": "", "site-plan-url": "https://isharemaps.bathnes.gov.uk/atMyCouncil.aspx", "start-date": "2018-12-21", "id": "0938ddfe15027c0efc4d998795717ad812a5a5fc09572ce472b43ae165811b6f:1521"}}