{"type": "Feature", "geometry": {"type": "Point", "coordinates": [-1.116542, 52.995703]}, "properties": {"resource": "fb922e16e6cfbb68f5d618b418e5773adf2cf6d48eaa8953685317e6667629e2", "site-address": "Derwent Crescent, Derwent Crescent, Arnold", "deliverable": "", "end-date": "", "entry-date": "2019-12-13", "hazardous-substances": "", "hectares": "0.55", "maximum-net-dwellings": "16", "minimum-net-dwellings": "9", "notes": "Information from the SHLAA 2019 consultation states that the garages are owned by individual leaseholders and each lease needs to be amended for the sale of the garages to a developer before any works can take place.", "organisation": "local-authority-eng:GED", "ownership-status": "not owned by a public authority", "planning-permission-date": "", "planning-permission-history": "", "planning-permission-status": "not permissioned", "planning-permission-type": "", "point": "POINT(-1.116542 52.995703)", "site": "6\\1034", "site-plan-url": "http://gedlingbc.maps.arcgis.com/apps/webappviewer/index.html?id=57b3b3cce7c44532b0cface13f74177e&find=6%5C1034", "start-date": "2017-04-01", "id": "fb922e16e6cfbb68f5d618b418e5773adf2cf6d48eaa8953685317e6667629e2:65994"}}