{"type": "Feature", "geometry": {"type": "Point", "coordinates": [0.110838, 52.225843]}, "properties": {"maximum-net-dwellings": "26", "name": "15/0519/OUT", "site-plan-url": "https://www.cambridge.gov.uk/sites/default/files/brownfield-site-15-0519-out.pdf", "site-address": "295 to 301 Histon Road", "notes": "Also housing allocation 5.17 in the Cambridge Local Plan 2006. Outline application with all matters reserved except for access for the demolition of all structures on site and development of 27 dwellings. https://idox.cambridge.gov.uk/online-applications/", "deliverable": "yes", "point": "POINT(0.110838 52.225843)", "organisation": "local-authority-eng:CAB", "hectares": "0.71", "minimum-net-dwellings": "26", "planning-permission-type": "outline planning permission", "start-date": "2017-12-15", "ownership-status": "not owned by a public authority", "planning-permission-date": "2016-09-27", "planning-permission-history": "https://idox.cambridge.gov.uk/online-applications/", "site": "15/0519/OUT", "planning-permission-status": "permissioned", "slug": "/brownfield-land/local-authority-eng/CAB/15-0519-OUT", "entry-date": "2017-12-15"}}