{"type": "Feature", "geometry": {"type": "Point", "coordinates": [-2.234791, 53.007315]}, "properties": {"resource": "7c33c5477fe09f1182accd5996db0ad3303fd94fd7fcb5ce9b5647b3dc390c04", "site-address": "35 Higherland, Newcastle", "deliverable": "yes", "end-date": "", "entry-date": "2017-12-18", "hazardous-substances": "", "hectares": "0.2", "maximum-net-dwellings": "12", "minimum-net-dwellings": "12", "notes": "16/00405/REM. Application for the approval of the details of appearance, the internal access arrangement, the layout and scale of the development, and the landscaping of the site relating to 15/00077/OUT - Erection of up to 12 dwellings.", "organisation": "local-authority-eng:NEC", "ownership-status": "not owned by a public authority", "planning-permission-date": "2016-09-15", "planning-permission-history": "https://publicaccess.newcastle-staffs.gov.uk/online-applications/applicationDetails.do?activeTab=summary&keyVal=O72N0PBMJZ900", "planning-permission-status": "permissioned", "planning-permission-type": "full planning permission", "point": "POINT(-2.234791 53.007315)", "site": "TB22", "site-plan-url": "https://publicaccess.newcastle-staffs.gov.uk/online-applications/applicationDetails.do?activeTab=map&keyVal=O72N0PBMJZ900", "start-date": "2017-12-18", "id": "7c33c5477fe09f1182accd5996db0ad3303fd94fd7fcb5ce9b5647b3dc390c04:34004"}}