{"type": "Feature", "geometry": {"type": "Point", "coordinates": [-0.216555, 51.425072]}, "properties": {"site-plan-url": "https://maps.london.gov.uk/brownfield-site-register", "minimum-net-dwellings": "8", "ownership-status": "not owned by a public authority", "hectares": "0.05", "name": "09/P1848", "maximum-net-dwellings": "8", "notes": "PROPOSED DEMOLITION OF EXISTING AND DEVELOPMENT OF 4 STOREY BUILDING (PLUS BASEMENT) WITH A1/A2 USE AT GROUND FLOOR AND 8 FLATS ON UPPER FLOORS WITH ASSOCIATED PARKING AND REFUSE TO THE REAR", "planning-permission-type": "full planning permission", "start-date": "2017-12-31", "site": "09/P1848", "organisation": "local-authority-eng:MRT", "planning-permission-date": "2012-07-11", "planning-permission-status": "permissioned", "point": "POINT(-0.216555 51.425072)", "site-address": "85 - 86 High Street, Wimbledon, SW19 5EG", "slug": "/brownfield-land/local-authority-eng/MRT/09-P1848", "entry-date": "2017-12-31"}}