{"type": "Feature", "geometry": {"type": "Point", "coordinates": [0.02324, 51.545142]}, "properties": {"resource": "86dee119f806d0c7f62295e6aae502851827e848202c4e43e833126ed62773db", "site-address": "236 Romford Road, Forest Gate, London, E7 9HZ", "deliverable": "yes", "end-date": "", "entry-date": "2018-12-18", "hazardous-substances": "", "hectares": "0.054307534751200003", "maximum-net-dwellings": "17", "minimum-net-dwellings": "10", "notes": "Pending signing of S106 agreement. Lapsed permission for 14 units. Erection of a 4 storey building to provide 11 self contained dwellings comprised of 3x 1 bed flats, 4x 2 bed flats & 4x. 3 bed flats. With associated landscape and boundary treatments. (This applcatio", "organisation": "local-authority-eng:NWM", "ownership-status": "owned by a public authority", "planning-permission-date": "", "planning-permission-history": "", "planning-permission-status": "pending decision", "planning-permission-type": "full planning permission", "point": "POINT(0.02324 51.545142)", "site": "HSG6", "site-plan-url": "https://maps.london.gov.uk/brownfield-site-register", "start-date": "2017-11-30", "id": "86dee119f806d0c7f62295e6aae502851827e848202c4e43e833126ed62773db:25849"}}