{"type": "Feature", "geometry": {"type": "Point", "coordinates": [0.17453, 51.592264]}, "properties": {"resource": "e4481ca3b600a31f3c4098bc0b2a53873a034544c1d980e9793b6bbf410e15d1", "site-address": "", "deliverable": "", "end-date": "", "entry-date": "2018-12-31", "hazardous-substances": "", "hectares": "0.25", "maximum-net-dwellings": "", "minimum-net-dwellings": "", "notes": "Pre-application advice sought", "organisation": "local-authority-eng:HAV", "ownership-status": "", "planning-permission-date": "", "planning-permission-history": "", "planning-permission-status": "", "planning-permission-type": "", "point": "POINT(0.17453 51.592264)", "site": "PET1", "site-plan-url": "https://www.havering.gov.uk/download/downloads/id/2971/map_pettits_december_2018.pdf", "start-date": "2018-12-31", "id": "e4481ca3b600a31f3c4098bc0b2a53873a034544c1d980e9793b6bbf410e15d1:60502"}}