{"type": "Feature", "geometry": {"type": "Point", "coordinates": [-1.775528, 51.553553]}, "properties": {"site": "s0148", "planning-permission-date": "2018-06-14", "planning-permission-type": "other", "organisation": "local-authority-eng:SWD", "minimum-net-dwellings": "46", "site-address": "Wyvern Theatre and Car Park", "name": "s0148", "maximum-net-dwellings": "46", "hectares": "0.33", "planning-permission-status": "not permissioned", "deliverable": "yes", "point": "POINT(-1.775528 51.553553)", "slug": "/brownfield-land/local-authority-eng/SWD/s0148", "entity": 495416, "entry-date": "2020-12-23", "planning-permission-history": "https://pa1.swindon.gov.uk/publicaccess/", "ownership-status": "not owned by a public authority", "start-date": "2018-12-31", "site-plan-url": "https://pa1.swindon.gov.uk/publicaccess/", "notes": "s0148 - s0148 | Erection of a new roof over existing roof terrace and walkways. Permission has been granted 28/02/2014Ref. : S/SP/13/1910Decision Issued Date: 28/02/2014"}}