{"type": "Feature", "geometry": {"type": "Point", "coordinates": [-2.255443, 53.047141]}, "properties": {"resource": "a64c898d75a0c57e1f3566a2fc6e7f9bc1ee3bf70eb81895b61a8203c61ff746", "site-address": "Hulston Site, Birch House Road, Chesterton, Newcastle-under-Lyme", "deliverable": "yes", "end-date": "", "entry-date": "2019-12-12", "hazardous-substances": "", "hectares": "0.61", "maximum-net-dwellings": "", "minimum-net-dwellings": "", "notes": "17/01033/FUL - Demolition of former Community Centre and construction of 30 dwellings", "organisation": "local-authority-eng:NEC", "ownership-status": "not owned by a public authority", "planning-permission-date": "2019-05-29", "planning-permission-history": "https://publicaccess.newcastle-staffs.gov.uk/online-applications/propertyDetails.do?activeTab=relatedCases&keyVal=001ND6BMLI000", "planning-permission-status": "permissioned", "planning-permission-type": "full planning permission", "point": "POINT(-2.255443 53.047141)", "site": "CT9", "site-plan-url": "https://publicaccess.newcastle-staffs.gov.uk/online-applications/applicationDetails.do?activeTab=map&keyVal=P1COTGBMMNA00", "start-date": "2018-12-11", "id": "CT9"}}