{"type": "Feature", "geometry": {"type": "Point", "coordinates": [-1.526271, 55.132021]}, "properties": {"resource": "861b110ca9fb6ce201b997d8c904056946a15f6e596400415558060fc0a7699a", "site-address": "Land At Crawford Street, Blyth", "deliverable": "", "end-date": "29/11/2019", "entry-date": "2019-12-17", "hazardous-substances": "", "hectares": "0.23", "maximum-net-dwellings": "0", "minimum-net-dwellings": "0", "notes": "Redevelopment of vacant land to provide 16 units for supported living was completed in 2018/19 (15/03129/FUL).", "organisation": "local-authority-eng:NBL", "ownership-status": "not owned by a public authority", "planning-permission-date": "2016-02-12", "planning-permission-history": "https://publicaccess.northumberland.gov.uk/online-applications/applicationDetails.do?keyVal=NUVRANQSL2B00&activeTab=summary", "planning-permission-status": "permissioned", "planning-permission-type": "full planning permission", "point": "POINT(-1.526271 55.132021)", "site": "9020", "site-plan-url": "http://northumberland.maps.arcgis.com/apps/webappviewer/index.html?id=c1b801d50f8040efbf8c9bc9f916cfae", "start-date": "2016-06-30", "id": "9020"}}