{"type": "Feature", "geometry": {"type": "Point", "coordinates": [-0.393385, 51.67155]}, "properties": {"resource": "fd079fda542990e51591868c0ea88acb52a5ab48268b8ccde04005fa26f52831", "site-address": "Garages at Balmoral Road, adjacent to railway line and The Gym", "deliverable": "", "end-date": "", "entry-date": "2017-09-29", "hazardous-substances": "", "hectares": "0.06", "maximum-net-dwellings": "11", "minimum-net-dwellings": "11", "notes": "", "organisation": "local-authority-eng:WAT", "ownership-status": "owned by a public authority", "planning-permission-date": "", "planning-permission-history": "", "planning-permission-status": "pending decision", "planning-permission-type": "", "point": "POINT(-0.393385 51.67155)", "site": "B025", "site-plan-url": "", "start-date": "2017-09-29", "id": "fd079fda542990e51591868c0ea88acb52a5ab48268b8ccde04005fa26f52831:66498"}}