{"type": "Feature", "geometry": {"type": "Point", "coordinates": [-1.908506, 52.498228]}, "properties": {"start-date": "2017-12-19", "name": "N67", "ownership-status": "owned by a public authority", "notes": "Aston, Newtown and Lozells AAP", "point": "POINT(-1.908506 52.498228)", "minimum-net-dwellings": "7", "site-address": "North Newtown Area 2 Opp1, Newtown", "site": "N67", "planning-permission-status": "Not Permissioned", "site-plan-url": "https://localview.birmingham.gov.uk/Planning/Sites/SHLAA/", "organisation": "local-authority-eng:BIR", "maximum-net-dwellings": "7", "hectares": "0.1", "slug": "/brownfield-land/local-authority-eng/BIR/N67", "entity": 476255, "entry-date": "2018-09-21"}}