{"type": "Feature", "geometry": {"type": "Point", "coordinates": [0.57014, 51.323605]}, "properties": {"organisation": "local-authority-eng:MAI", "planning-permission-type": "full planning permission", "planning-permission-status": "permissioned", "deliverable": "yes", "maximum-net-dwellings": "4", "start-date": "2018-06-01", "site-address": "Bredhurst Garden Centre, Dunn Street, Bredhurst, Gillingham, Kent, ME7 3ND", "minimum-net-dwellings": "4", "ownership-status": "not owned by a public authority", "name": "17/502100", "site": "17/502100", "hectares": "1.72", "point": "POINT(0.57014 51.323605)", "slug": "/brownfield-land/local-authority-eng/MAI/17-502100", "entity": 486902, "entry-date": "2018-06-01"}}