{"type": "Feature", "geometry": {"type": "Point", "coordinates": [-2.150273, 52.59171]}, "properties": {"resource": "3938ddedb2fedca20fa409e23118564ff80bfd283b05852eb5d968affc13697d", "site-address": "46 Riches Street Wolverhampton WV6 0DR", "deliverable": "", "end-date": "", "entry-date": "", "hazardous-substances": "", "hectares": "0.0186", "maximum-net-dwellings": "", "minimum-net-dwellings": "", "notes": "", "organisation": "local-authority-eng:WLV", "ownership-status": "", "planning-permission-date": "", "planning-permission-history": "", "planning-permission-status": "permissioned", "planning-permission-type": "", "point": "POINT(-2.150273 52.59171)", "site": "37510", "site-plan-url": "", "start-date": "", "slug": "local-authority-eng/WLV/37510"}}