{"type": "Feature", "geometry": {"type": "Point", "coordinates": [0.014303, 50.873637]}, "properties": {"site": "SDB031", "organisation": "national-park-authority:Q20198711", "site-address": "40-42 Friars Walk, Lewes East Sussex BN7 2XW", "deliverable": "yes", "name": "SDB031", "site-plan-url": "http://planningpublicaccess.southdowns.gov.uk/online-applications/applicationDetails.do?activeTab=summary&keyVal=OPF8OUTU0HT00", "planning-permission-type": "other", "planning-permission-date": "2017-06-30", "maximum-net-dwellings": "24", "ownership-status": "not owned by a public authority", "point": "POINT(0.014303 50.873637)", "planning-permission-status": "Prior approval", "minimum-net-dwellings": "24", "start-date": "2017-12-31", "hectares": "0.05", "slug": "/brownfield-land/national-park-authority/Q20198711/SDB031", "entry-date": "2017-12-31"}}