{"type": "Feature", "geometry": {"type": "Point", "coordinates": [-1.712294, 53.772095]}, "properties": {"resource": "392f3e0ee0fa2c8b209c8197d34069a06e7c7dbdeadcdaecd4eb2a0d3625f63a", "site-address": "Laisterdyke Lane, Laisterdyke", "deliverable": "yes", "end-date": "", "entry-date": "2017-11-01", "hazardous-substances": "", "hectares": "1.99", "maximum-net-dwellings": "90", "minimum-net-dwellings": "73", "notes": "Cleared, enclosed and tipped land where a number of planning enquiries relating to bringing the site forward have been made. An application is expected in the near future", "organisation": "local-authority-eng:BRD", "ownership-status": "not owned by a public authority", "planning-permission-date": "", "planning-permission-history": "https://planning.bradford.gov.uk/online-applications/applicationDetails.do?keyVal=9601182REG&activeTab=summary", "planning-permission-status": "not permissioned", "planning-permission-type": "", "point": "POINT(-1.712294 53.772095)", "site": "SE/026", "site-plan-url": "http://cbmdc.maps.arcgis.com/apps/webappviewer/index.html?id=2134938ccf5843649ef0e555c0926dae&extent=419023.18,430644.82,419089.54,430708.06,27700", "start-date": "2017-11-01", "slug": "local-authority-eng/BRD/SE-026"}}