{"type": "Feature", "geometry": {"type": "Point", "coordinates": [-1.466604, 53.402979]}, "properties": {"site": "S01442", "planning-permission-status": "not permissioned", "planning-permission-history": "https://planningapps.sheffield.gov.uk/online-applications/applicationDetails.do?activeTab=summary&keyVal=N5ZJISNYFY000", "point": "POINT(-1.466604 53.402979)", "planning-permission-date": "2015-01-22", "hectares": "0.25", "ownership-status": "owned by a public authority", "planning-permission-type": "full planning permission", "name": "S01442", "maximum-net-dwellings": "10", "notes": "Estimated to comprise of 1 Apartments and 9 Houses", "site-plan-url": "https://www.sheffield.gov.uk/content/sheffield/home/planning-development/housing-land-sites.html", "start-date": "2017-12-05", "site-address": "Firs Hill Sheltered Scheme, Firshill Crescent S4 7BS", "organisation": "local-authority-eng:SHF", "minimum-net-dwellings": "10", "slug": "/brownfield-land/local-authority-eng/SHF/S01442", "entity": 493060, "entry-date": "2018-12-18"}}