{"type": "Feature", "geometry": {"type": "Point", "coordinates": [-0.068939, 51.606133]}, "properties": {"name": "HGY/2007/0850", "hectares": "0.09", "planning-permission-status": "permissioned", "organisation": "local-authority-eng:HRY", "maximum-net-dwellings": "3", "ownership-status": "not owned by a public authority", "planning-permission-type": "full planning permission", "planning-permission-date": "2007-07-10", "deliverable": "yes", "notes": "Permission has lapsed. Demolition of existing buildings and erection of 3 storey office block and 3 x 2 storey two bed houses.. http://www.planningservices.haringey.gov.uk/portal/servlets/ApplicationSearchServlet?PKID=154035", "site": "HGY/2007/0850", "site-address": "Percival Court, High Road London N17 8ER London", "minimum-net-dwellings": "3", "start-date": "2017-12-31", "site-plan-url": "http://www.planningservices.haringey.gov.uk/portal/servlets/ApplicationSearchServlet?PKID=154035", "slug": "/brownfield-land/local-authority-eng/HRY/HGY-2007-0850", "entity": 484358, "entry-date": "2021-02-02", "point": "POINT(-0.068939 51.606133)"}}