{"type": "Feature", "geometry": {"type": "Point", "coordinates": [-0.167037, 51.420854]}, "properties": {"resource": "c906cff32aaa59dc601f5ec819e3299dd44621b69cb6f402413eb9ed4b272eab", "site-address": "94-94a Longley Road", "deliverable": "yes", "end-date": "", "entry-date": "2019-03-31", "hazardous-substances": "", "hectares": "0.07", "maximum-net-dwellings": "9", "minimum-net-dwellings": "9", "notes": "", "organisation": "local-authority-eng:WND", "ownership-status": "not owned by a public authority", "planning-permission-date": "2017-11-24", "planning-permission-history": "https://planning1.wandsworth.gov.uk/Northgate/PlanningExplorer/DisplayAppDetails.aspx?AppNo=2017/3823", "planning-permission-status": "permissioned", "planning-permission-type": "full planning permission", "point": "POINT(-0.167037 51.420854)", "site": "WBR/17/0007", "site-plan-url": "https://maps.wandsworth.gov.uk/map/Aurora.svc/run?script=%5cAurora%5cpublic_Brownfield_Sites.AuroraScript%24&nocache=614915663&resize=always", "start-date": "2017-12-13", "id": "WBR-17-0007"}}