{"type": "Feature", "geometry": {"type": "Point", "coordinates": [-0.21599, 51.522811]}, "properties": {"planning-permission-history": "https://www.rbkc.gov.uk/PP/16/01350", "name": "RBKC026", "planning-permission-type": "full planning permission", "planning-permission-date": "2016-07-22", "ownership-status": "not owned by a public authority", "site-address": "15 - 17 Hewer Street W10 6DU", "start-date": "2017-12-31", "point": "POINT(-0.21599 51.522811)", "minimum-net-dwellings": "14", "maximum-net-dwellings": "14", "hectares": "0.08", "deliverable": "yes", "planning-permission-status": "permissioned", "site-plan-url": "https://data.london.gov.uk/dataset/brownfield-land-register", "organisation": "local-authority-eng:KEC", "site": "RBKC026", "slug": "/brownfield-land/local-authority-eng/KEC/RBKC026", "entry-date": "2017-12-31", "notes": "Change of use of buildings from mixed sui generis and residential (Class C3) to 16 no. residential units (Class C3) within main buildings and office/studio (Class B1a) within existing gatehouse inclu. https://www.rbkc.gov.uk/PP/16/01350"}}