{"type": "Feature", "geometry": {"type": "Point", "coordinates": [0.218657, 51.450015]}, "properties": {"resource": "5cbbd9319d25d3aa6e7d21f781d457a346cffc85f558753b0fc74416eefb35c6", "site-address": "Steam Crane Wharf, Lower Hythe Street, Dartford, Kent", "deliverable": "", "end-date": "", "entry-date": "2018-12-17", "hazardous-substances": "", "hectares": "0.48", "maximum-net-dwellings": "19", "minimum-net-dwellings": "19", "notes": "Vacant site.. No - flood risk issues and HSE consultation zones unlikely to be mitigated.", "organisation": "local-authority-eng:DAR", "ownership-status": "not owned by a public authority", "planning-permission-date": "", "planning-permission-history": "", "planning-permission-status": "not permissioned", "planning-permission-type": "", "point": "POINT(0.218657 51.450015)", "site": "10", "site-plan-url": "https://www.dartford.gov.uk/__data/assets/pdf_file/0003/436521/10-Steam-Crane-Wharf-Brownfiled-Land.pdf", "start-date": "", "id": "5cbbd9319d25d3aa6e7d21f781d457a346cffc85f558753b0fc74416eefb35c6:61366"}}