{"type": "Feature", "geometry": {"type": "Point", "coordinates": [0.559405, 51.678966]}, "properties": {"hectares": "0.03", "site": "20/00103/FUL", "site-plan-url": "https://publicaccess.chelmsford.gov.uk/online-applications/search.do", "planning-permission-status": "permissioned", "name": "20/00103/FUL", "point": "POINT(0.559405 51.678966)", "planning-permission-date": "2020-04-14", "ownership-status": "not owned by a public authority", "organisation": "local-authority-eng:CHL", "start-date": "2020-04-14", "site-address": "Site At Mariposa Old Church Road East Hanningfield Chelmsford", "deliverable": "yes", "planning-permission-type": "full planning permission", "slug": "/brownfield-land/local-authority-eng/CHL/20-00103-FUL", "entry-date": "2020-04-14"}}