{"type": "Feature", "geometry": {"type": "Point", "coordinates": [-0.054965, 51.139026]}, "properties": {"notes": "Erection of 3 detached dwellings, detached double garage, amendment to existing access and associated landscaping.. http://www.cartogold.co.uk/tandridgelocalplan/", "planning-permission-type": "full planning permission", "name": "2015/1927", "maximum-net-dwellings": "3", "start-date": "2018-12-04", "site-address": "Pixiewood Farm, Rowplatt Lane, Felbridge RH19 2PA", "organisation": "local-authority-eng:TAN", "site-plan-url": "https://www.tandridge.gov.uk/Planning-and-building/Planning-strategies-and-policies/Local-Plan-2033-emerging-planning-policies/Local-Plan-2033/Housing-and-Economic-Land-Availability-Assessment-HELAA-and-Brownfield-Register", "deliverable": "yes", "hectares": "0.81", "point": "POINT(-0.054965 51.139026)", "planning-permission-date": "2015-12-31", "site": "2015/1927", "ownership-status": "not owned by a public authority", "minimum-net-dwellings": "3", "planning-permission-status": "permissioned", "slug": "/brownfield-land/local-authority-eng/TAN/2015-1927", "entry-date": "2019-11-21"}}