{"type": "Feature", "geometry": {"type": "Point", "coordinates": [0.560915, 51.572058]}, "properties": {"resource": "749ea8acd0bf85b9610e9ede074eb8475eed2b1eb4f2404f8353f1ffc9a99c96", "site-address": "Rear of 179-181 Church Road, Thundersley", "deliverable": "yes", "end-date": "", "entry-date": "2018-09-12", "hazardous-substances": "", "hectares": "0.31", "maximum-net-dwellings": "40", "minimum-net-dwellings": "40", "notes": "No current planning permission. Permission previously granted for one property on small section of the site. Delivery lead in time 2 years. 12/09/18.. https://publicaccess.castlepoint.gov.uk/online-applications/", "organisation": "local-authority-eng:CAS", "ownership-status": "not owned by a public authority", "planning-permission-date": "", "planning-permission-history": "https://publicaccess.castlepoint.gov.uk/online-applications/", "planning-permission-status": "not permissioned", "planning-permission-type": "", "point": "POINT(0.560915 51.572058)", "site": "CP0030", "site-plan-url": "https://www.castlepoint.gov.uk/download.cfm?doc=docm93jijm4n3954.pdf&ver=6658", "start-date": "2018-09-12", "id": "CP0030"}}