{"type": "Feature", "geometry": {"type": "Point", "coordinates": [-0.055667, 51.478771]}, "properties": {"resource": "69584001774ee43f8bc3e6df5517c2b8eb3109bcb6db5e1e5103e9ff594f2c22", "name": "19-AP-1322", "site-address": "840 Old Kent Road London SE15 1NQ", "deliverable": "", "end-date": "", "entry-date": "2020-03-24", "hazardous-substances": "", "hectares": "0.46", "maximum-net-dwellings": "170", "minimum-net-dwellings": "170", "notes": "Demolition of existing building and redevelopment of the site to provide a new building of up to 13 and 21 storeys in height (maximum height 73.60m above ground level). Redevelopment to comprise 170 residential units (Class C3), a 1,778 sqm (GIA) retail unit (Class A1) and a 52 sqm (GIA) flexible retail unit (Class A1/A3), with associated landscaping, car parking, servicing, refuse and plant areas, and all ancillary or associated works.", "organisation": "local-authority-eng:SWK", "ownership-status": "", "planning-permission-date": "", "planning-permission-history": "", "planning-permission-status": "permissioned", "planning-permission-type": "", "point": "POINT(-0.055667 51.478771)", "site": "19-AP-1322", "site-plan-url": "", "start-date": "2020-03-24", "slug": "/brownfield-land/local-authority-eng/SWK/19-AP-1322"}}