{"type": "Feature", "geometry": {"type": "Point", "coordinates": [1.725011, 52.585926]}, "properties": {"resource": "d1b37c7ad6a7997598fcd0de2882081d7c063e3b14099e12fc2bb69d06ea2d3b", "site-address": "Former Ivy House & The Hollies, Burnt Lane / Addison Road , Great Yarmouth", "deliverable": "yes", "end-date": "", "entry-date": "2018-12-20", "hazardous-substances": "", "hectares": "0.26", "maximum-net-dwellings": "18", "minimum-net-dwellings": "18", "notes": "06/16/0189/F. Redevelopment (demolition) of 2 existing buildings and replacement with 18 flats", "organisation": "local-authority-eng:GRY", "ownership-status": "not owned by a public authority", "planning-permission-date": "2017-11-28", "planning-permission-history": "", "planning-permission-status": "permissioned", "planning-permission-type": "full planning permission", "point": "POINT(1.725011 52.585926)", "site": "BFR5", "site-plan-url": "https://www.great-yarmouth.gov.uk/CHttpHandler.ashx?id=2572&p=0", "start-date": "2017-12-20", "id": "d1b37c7ad6a7997598fcd0de2882081d7c063e3b14099e12fc2bb69d06ea2d3b:55841"}}