{"type": "Feature", "geometry": {"type": "Point", "coordinates": [-1.91161, 52.557876]}, "properties": {"resource": "bcaf9d1205c901188d42fa43e9d9566232b54a1fb437546a03b66fa2553120c4", "site-address": "152 BEACON ROAD, GREAT BARR", "deliverable": "", "end-date": "", "entry-date": "2017-12-29", "hazardous-substances": "", "hectares": "0.11", "maximum-net-dwellings": "6", "minimum-net-dwellings": "6", "notes": "planning permission expired", "organisation": "local-authority-eng:WLL", "ownership-status": "not owned by a public authority", "planning-permission-date": "", "planning-permission-history": "", "planning-permission-status": "not permissioned", "planning-permission-type": "", "point": "POINT(-1.91161 52.557876)", "site": "HO1359", "site-plan-url": "", "start-date": "2017-12-29", "id": "bcaf9d1205c901188d42fa43e9d9566232b54a1fb437546a03b66fa2553120c4:50258"}}