{"type": "Feature", "geometry": {"type": "Point", "coordinates": [-1.234775, 54.578479]}, "properties": {"resource": "3f54078d1f55cb266b7a6751ebe44695d12a136675174e3d5bcddf130ef61801", "site-address": "Pullman House, Zetland Road", "deliverable": "yes", "end-date": "", "entry-date": "2019-03-15", "hazardous-substances": "", "hectares": "0.04", "maximum-net-dwellings": "22", "minimum-net-dwellings": "22", "notes": "Site under construction as of October 2018. Change of use of ground, 1st, 2nd and 3rd floor offices (B1) to 29no self-contained flats (C3)", "organisation": "local-authority-eng:MDB", "ownership-status": "not owned by a public authority", "planning-permission-date": "2017-09-05", "planning-permission-history": "https://publicaccess.middlesbrough.gov.uk/online-applications/applicationDetails.do?activeTab=summary&keyVal=OSXBL7KU00300", "planning-permission-status": "permissioned", "planning-permission-type": "other", "point": "POINT(-1.234775 54.578479)", "site": "BR50", "site-plan-url": "https://www.middlesbrough.gov.uk/files/brownfields-register-br50-pullman-housejpg", "start-date": "2017-12-11", "id": "3f54078d1f55cb266b7a6751ebe44695d12a136675174e3d5bcddf130ef61801:14739"}}