{"type": "Feature", "geometry": {"type": "Point", "coordinates": [-2.423498, 50.710069]}, "properties": {"site-plan-url": "https://westdorsetdc.maps.arcgis.com/apps/webappviewer/index.html?id=9c2ae08ea4bf4b47b1aaa284d709b407&level=19&center=370194,90134,27700", "minimum-net-dwellings": "12", "name": "WD/DORC/018", "site-address": "Jonson Trading Park", "planning-permission-status": "not permissioned", "site": "WD/DORC/018", "start-date": "2017-12-31", "ownership-status": "not owned by a public authority", "maximum-net-dwellings": "12", "notes": "https://webapps.westdorset-weymouth.gov.uk/ShelaaWebsite/pages/Site.aspx?i=603", "organisation": "local-authority-eng:WDO", "hectares": "0.29", "point": "POINT(-2.423498 50.710069)", "slug": "/brownfield-land/local-authority-eng/WDO/WD-DORC-018", "entity": 497381, "entry-date": "2017-12-15"}}