{"type": "Feature", "geometry": {"type": "Point", "coordinates": [-0.443194, 51.894274]}, "properties": {"resource": "6dd5b4e8f86c741a0a8e35c075edce0293288ff38ef1abe2f3dd35c85b259aa5", "site-address": "Petrol Station, 116-124 Wingate Road", "deliverable": "", "end-date": "", "entry-date": "2017-12-01", "hazardous-substances": "", "hectares": "0.32", "maximum-net-dwellings": "13", "minimum-net-dwellings": "13", "notes": "Erection of 8 three bedroom and 5 four bedroom house and associated works", "organisation": "local-authority-eng:LUT", "ownership-status": "", "planning-permission-date": "2017-06-05", "planning-permission-history": "https://planning.luton.gov.uk/online-applications/propertyDetails.do?activeTab=relatedCases&keyVal=001S3ZKGLI000", "planning-permission-status": "permissioned", "planning-permission-type": "outline planning permission", "point": "POINT(-0.443194 51.894274)", "site": "SHLAA321", "site-plan-url": "http://www.luton.gov.uk/Environment/Lists/LutonDocuments/PDF/SHLAA-2017/Maps/320-and-321.pdf", "start-date": "2017-12-01", "id": "SHLAA321"}}