{"type": "Feature", "geometry": {"type": "Point", "coordinates": [-0.351426, 51.818349]}, "properties": {"resource": "a8cc3bf15d26db7d4ee1d02078bec9529105da509d699f307d19b288bc9b9086", "site-address": "The Red House Harpenden Memorial Hospital", "deliverable": "yes", "end-date": "", "entry-date": "2017-05-23", "hazardous-substances": "", "hectares": "1.63", "maximum-net-dwellings": "55", "minimum-net-dwellings": "55", "notes": "", "organisation": "local-authority-eng:SAL", "ownership-status": "owned by a public authority", "planning-permission-date": "", "planning-permission-history": "", "planning-permission-status": "Not Permissioned", "planning-permission-type": "", "point": "POINT(-0.351426 51.818349)", "site": "331", "site-plan-url": "http://gis.stalbans.gov.uk/WebMapLayers8/map.aspx?x=513618&y=214637&resolution=0.1&epsg=27700&mapname=stalbans&baseLayer=Black%20and%20White%20Maps&datalayers=Brownfield%20Land%20Register%2CselectFeaturesControl_container", "start-date": "2017-02-07", "id": "a8cc3bf15d26db7d4ee1d02078bec9529105da509d699f307d19b288bc9b9086:36168"}}