{"type": "Feature", "geometry": {"type": "Point", "coordinates": [-2.244657, 53.428747]}, "properties": {"hectares": "1.92", "planning-permission-status": "permissioned", "point": "POINT(-2.244657 53.428747)", "start-date": "2017-12-31", "deliverable": "yes", "organisation": "local-authority-eng:MAN", "maximum-net-dwellings": "74", "notes": "Erection of 74x 2 and 3 storey residential units (Use Class C3)", "site-plan-url": "https://mappinggm.org.uk/gmodin/", "planning-permission-date": "2016-12-16", "planning-permission-history": "http://pa.manchester.gov.uk/online-applications/", "minimum-net-dwellings": "74", "site": "113937/MO/2016/ 109777", "planning-permission-type": "reserved matters approval", "site-address": "Withington Hospital Site (Cavendish Road)", "name": "113937/MO/2016/ 109777", "slug": "/brownfield-land/local-authority-eng/MAN/113937-MO-2016--109777", "entry-date": "2017-12-31"}}