{"type": "Feature", "geometry": {"type": "Point", "coordinates": [0.150673, 51.528225]}, "properties": {"resource": "86dee119f806d0c7f62295e6aae502851827e848202c4e43e833126ed62773db", "site-address": "Former Ford Stamping Plant", "deliverable": "", "end-date": "", "entry-date": "2017-12-31", "hazardous-substances": "", "hectares": "18.530000000000001", "maximum-net-dwellings": "2900", "minimum-net-dwellings": "2900", "notes": "", "organisation": "local-authority-eng:BDG", "ownership-status": "not owned by a public authority", "planning-permission-date": "", "planning-permission-history": "", "planning-permission-status": "Not permissioned", "planning-permission-type": "", "point": "POINT(0.150673 51.528225)", "site": "LBBD49", "site-plan-url": "https://maps.london.gov.uk/brownfield-site-register", "start-date": "2017-12-31", "id": "86dee119f806d0c7f62295e6aae502851827e848202c4e43e833126ed62773db:25550"}}