{"type": "Feature", "geometry": {"type": "Point", "coordinates": [-1.99374, 52.502248]}, "properties": {"hectares": "2.89", "planning-permission-date": "2012-01-01", "notes": "Few small areas in SMBC ownership", "name": "3014", "ownership-status": "owned by a public authority", "minimum-net-dwellings": "102", "site": "3014", "organisation": "local-authority-eng:SAW", "start-date": "2016-06-30", "maximum-net-dwellings": "102", "site-plan-url": "http://www.sandwell.gov.uk/info/200317/planning_policy/3809/sandwell_brownfield_register", "site-address": "Oldbury Road, Oldbury, B66 1NJ", "planning-permission-type": "Other", "point": "POINT(-1.99374 52.502248)", "slug": "/brownfield-land/local-authority-eng/SAW/3014", "entity": 492136, "entry-date": "2016-06-30"}}