{"type": "Feature", "geometry": {"type": "Point", "coordinates": [0.79426, 50.934548]}, "properties": {"resource": "78cff0703156173e855e451949b5010fc381d8b8a5f0fd72c9172d563c395eca", "site-address": "Land at the Former Putting Green Site, Camber", "deliverable": "", "end-date": "", "entry-date": "2017-10-01", "hazardous-substances": "", "hectares": "0.2", "maximum-net-dwellings": "10", "minimum-net-dwellings": "10", "notes": "This site is proposed to be allocated in the DaSA for some 10 dwellings, as well as commercial. The site lies within Flood Zones 2 and 3. A Flood Risk Assessment would need to be submitted as part of any planning application. Residential development should not be provided on the ground floor due to flood risk but commercial uses would be acceptable. The site is next to an SSSI. Development should not destabilise the integrity of the dunes. Built development should be focused on the southern section of the site to avoid overlooking and rights to light issues for the existing adjacent buildings to the north and west in particular. Proposals should seek to provide \u2018active\u2019 frontages on the southern edge to the Old Lydd Road. See draft Policy CAM1 in the DaSA. Regard should also be given to the Council\u2019s adopted Camber Village Supplementary Planning Document (2014) (https://www.rother.gov.uk/CHttpHandler.ashx?id=27128&p=0)", "organisation": "local-authority-eng:ROH", "ownership-status": "owned by a public authority", "planning-permission-date": "", "planning-permission-history": "http://planweb01.rother.gov.uk/OcellaWeb/planningDetails?reference=RR/2010/2061/3R&from=planningSearch|http://planweb01.rother.gov.uk/OcellaWeb/planningDetails?reference=RR/2009/1948/P&from=planningSearch|http://planweb01.rother.gov.uk/OcellaWeb/planningDetails?reference=RR/2006/156/P&from=planningSearch|http://planweb01.rother.gov.uk/OcellaWeb/planningDetails?reference=RR/2005/2415/P&from=planningSearch", "planning-permission-status": "not permissioned", "planning-permission-type": "", "point": "POINT(0.79426 50.934548)", "site": "RDCBLR0020", "site-plan-url": "https://www.rother.gov.uk/CHttpHandler.ashx?id=29518", "start-date": "2017-10-01", "id": "78cff0703156173e855e451949b5010fc381d8b8a5f0fd72c9172d563c395eca:65128"}}