{"type": "Feature", "geometry": {"type": "Point", "coordinates": [-0.016227, 51.558909]}, "properties": {"resource": "86dee119f806d0c7f62295e6aae502851827e848202c4e43e833126ed62773db", "site-address": "Osier Way (Bywaters Waste Site - NOF Site 7 also BEA3)", "deliverable": "yes", "end-date": "", "entry-date": "2017-12-06", "hazardous-substances": "", "hectares": "5.1600000000000001", "maximum-net-dwellings": "731", "minimum-net-dwellings": "731", "notes": "", "organisation": "local-authority-eng:WFT", "ownership-status": "not owned by a public authority", "planning-permission-date": "", "planning-permission-history": "", "planning-permission-status": "Not permissioned", "planning-permission-type": "", "point": "POINT(-0.016227 51.558909)", "site": "LHCSS17310275", "site-plan-url": "https://maps.london.gov.uk/brownfield-site-register", "start-date": "2017-12-06", "id": "86dee119f806d0c7f62295e6aae502851827e848202c4e43e833126ed62773db:38081"}}