{"type": "Feature", "geometry": {"type": "Point", "coordinates": [-0.143984, 51.560563]}, "properties": {"resource": "53ff7410d03797e7747d4df128ca450bbe808f4eacc79d0e2d18623ab4a99554", "site-address": "Mansfield Bowling Club Croftdown Road London NW5 1EP", "deliverable": "yes", "end-date": "", "entry-date": "2018-10-12", "hazardous-substances": "", "hectares": "0.83999999999999997", "maximum-net-dwellings": "21", "minimum-net-dwellings": "21", "notes": "Creation of a new publicly accessible open space; enhanced tennis facilities including the reconfiguration and extension of the courts to provide an additional court and increased playing area to acco", "organisation": "local-authority-eng:CMD", "ownership-status": "", "planning-permission-date": "2019-03-01", "planning-permission-history": "http://planningrecords.camden.gov.uk/Northgate/PlanningExplorer17/Generic/StdResults.aspx?PT=Planning%20Applications%20On-Line&SC=Application%20Number%20is%202015/1444/P%20and%20Date%20Validated%20is%", "planning-permission-status": "permissioned", "planning-permission-type": "full planning permission", "point": "POINT(-0.143984 51.560563)", "site": "LBCBLR079", "site-plan-url": "https://opendata.camden.gov.uk/Environment/Camden-Brownfield-Register-Polygons/wi65-z696/data", "start-date": "2018-10-12", "id": "53ff7410d03797e7747d4df128ca450bbe808f4eacc79d0e2d18623ab4a99554:40401"}}