{"type": "Feature", "geometry": {"type": "Point", "coordinates": [0.029452, 51.458471]}, "properties": {"resource": "86dee119f806d0c7f62295e6aae502851827e848202c4e43e833126ed62773db", "site-address": "\u201cKidbrooke Village Phase 5, Kidbrooke Park Rd Kidbrooke\u201c", "deliverable": "yes", "end-date": "", "entry-date": "2017-12-22", "hazardous-substances": "", "hectares": "4.7800000000000002", "maximum-net-dwellings": "1144", "minimum-net-dwellings": "1144", "notes": "\u201cStarted. \u201c14/2611/F. Demolition of existing buildings and construction of 1,144 residential units (an increase of 258 residential units over and above the 2013 consent figure of 886 dwellings), publicly access", "organisation": "local-authority-eng:GRE", "ownership-status": "", "planning-permission-date": "2015-03-27", "planning-permission-history": "", "planning-permission-status": "permissioned", "planning-permission-type": "full planning permission", "point": "POINT(0.029452 51.458471)", "site": "RBG-27", "site-plan-url": "", "start-date": "2017-12-22", "id": "86dee119f806d0c7f62295e6aae502851827e848202c4e43e833126ed62773db:38078"}}