{"type": "Feature", "geometry": {"type": "Point", "coordinates": [-2.269375, 53.016712]}, "properties": {"hectares": "0.12", "planning-permission-date": "2016-03-30", "ownership-status": "not owned by a public authority", "maximum-net-dwellings": "6", "planning-permission-status": "permissioned", "deliverable": "yes", "planning-permission-type": "full planning permission", "name": "KS19", "minimum-net-dwellings": "6", "site-address": "Land at junction of Church Street and Chapel Street, Silverdale", "start-date": "2017-12-18", "point": "POINT(-2.269375 53.016712)", "organisation": "local-authority-eng:NEC", "site-plan-url": "https://publicaccess.newcastle-staffs.gov.uk/online-applications/applicationDetails.do?activeTab=map&keyVal=O1WRHBBMJ3D00", "notes": "16/00088/FUL - 6 dwellings. Now completed.", "site": "KS19", "planning-permission-history": "https://publicaccess.newcastle-staffs.gov.uk/online-applications/propertyDetails.do?activeTab=relatedCases&keyVal=001LWOBMLI000", "slug": "/brownfield-land/local-authority-eng/NEC/KS19", "entry-date": "2020-12-12", "end-date": "2019-12-12"}}