{"type": "Feature", "geometry": {"type": "Point", "coordinates": [-2.419836, 53.448656]}, "properties": {"planning-permission-date": "2018-10-31", "site-address": "25-27 Chapel Road, Irlam, M44 6EE", "site-plan-url": "https://map.salford.gov.uk/?lyrs=v_brownfield_land_register_2019#19/53.448656/-2.419836", "point": "POINT(-2.419836 53.448656)", "name": "S/IRL/034", "minimum-net-dwellings": "2", "ownership-status": "not owned by a public authority", "organisation": "local-authority-eng:SLF", "planning-permission-status": "permissioned", "deliverable": "yes", "planning-permission-type": "outline planning permission", "maximum-net-dwellings": "2", "notes": "Outline planning permission - 18/72149/OUT - Construction not started as of 31 March 2019. Planning permission details as of 31 March 2019.", "hectares": "0.05", "start-date": "2019-12-11", "site": "S/IRL/034", "slug": "/brownfield-land/local-authority-eng/SLF/S-IRL-034", "entry-date": "2019-12-11"}}