{"type": "Feature", "geometry": {"type": "Point", "coordinates": [0.071452, 51.558162]}, "properties": {"name": "BRLBR0028", "planning-permission-history": "http://planning.redbridge.gov.uk/swiftlg/apas/run/wphappcriteria.display", "planning-permission-type": "full planning permission", "maximum-net-dwellings": "5", "site-plan-url": "https://my.redbridge.gov.uk/map/brownfield-land-register/BRLBR0028", "organisation": "local-authority-eng:RDB", "planning-permission-date": "2017-08-07", "start-date": "2019-07-12", "hectares": "0.03", "minimum-net-dwellings": "5", "point": "POINT(0.071452 51.558162)", "deliverable": "yes", "site": "BRLBR0028", "site-address": "rear of 2-4 Clements Road, Ilford", "planning-permission-status": "permissioned", "notes": "Approved Planning Application - 0770/16 - Located within Ilford Housing Zone - Local Plan allocation site number: 32", "slug": "/brownfield-land/local-authority-eng/RDB/BRLBR0028", "entry-date": "2019-07-12"}}