{"type": "Feature", "geometry": {"type": "Point", "coordinates": [-2.412, 53.769]}, "properties": {"notes": "Deliverable - Yes - part of 5YHLS Planning permission 11/15/0399 is for this site and # 29 on register (Wheatfield Mill). Further applications for discharge of conds.. 15/0399 Full Major Erection of 75 No dwellings with garages and/or parking spaces together with the provision of open space and associated roads and sewers A/C 23/05/2016_. https://www.hyndburnbc.gov.uk/search-for-planning-information-using-online-mapping-2/11/", "point": "POINT(-2.412 53.769)", "planning-permission-type": "full planning permission", "hectares": "1.2", "name": "30", "site-plan-url": "https://www.hyndburnbc.gov.uk/download-package/brownfield-register-siteplans/", "minimum-net-dwellings": "35", "planning-permission-history": "http://planning.hyndburnbc.gov.uk/WAM/searchsubmit/performOption.do?action=search&appType=Planning", "start-date": "2016-06-22", "hazardous-substances": "yes", "maximum-net-dwellings": "35", "planning-permission-status": "permissioned", "site-address": "Parker Street, Rishton BB1 4JD", "site": "30", "planning-permission-date": "2016-05-23", "deliverable": "yes", "organisation": "local-authority-eng:HYN", "ownership-status": "not owned by a public authority", "slug": "/brownfield-land/local-authority-eng/HYN/30", "entry-date": "2017-12-04"}}