{"type": "Feature", "geometry": {"type": "Point", "coordinates": [-2.250269, 53.487193]}, "properties": {"start-date": "2017-12-01", "notes": "Construction not started as of 31 March 2019. Planning permission details as of 31 March 2019.", "site-address": "Land Bounded By Trinity Way, Queen Street, Collier Street and Gravel Lane", "organisation": "local-authority-eng:SLF", "maximum-net-dwellings": "1200", "minimum-net-dwellings": "1200", "name": "S/ORD/014", "hectares": "1.67", "ownership-status": "not owned by a public authority", "point": "POINT(-2.250269 53.487193)", "site-plan-url": "https://map.salford.gov.uk/?lyrs=v_brownfield_land_register_2019#18/53.487193/-2.250269", "site": "S/ORD/014", "planning-permission-status": "not permissioned", "slug": "/brownfield-land/local-authority-eng/SLF/S-ORD-014", "entity": 493840, "entry-date": "2019-12-11"}}