{"type": "Feature", "geometry": {"type": "Point", "coordinates": [-0.078104, 51.305563]}, "properties": {"organisation": "local-authority-eng:TAN", "deliverable": "yes", "planning-permission-type": "full planning permission", "minimum-net-dwellings": "3", "start-date": "2019-11-21", "maximum-net-dwellings": "3", "planning-permission-status": "permissioned", "site-address": "354-356 Godstone Road, Whyteleafe CR3 0BA", "site": "2017/2659", "planning-permission-date": "2019-02-21", "notes": "Joining together of two parts of semi-detached building and erection of a two storey extension to the rear to create 5no. new flats. http://www.cartogold.co.uk/tandridgelocalplan/", "name": "2017/2659", "site-plan-url": "https://www.tandridge.gov.uk/Planning-and-building/Planning-strategies-and-policies/Local-Plan-2033-emerging-planning-policies/Local-Plan-2033/Housing-and-Economic-Land-Availability-Assessment-HELAA-and-Brownfield-Register", "ownership-status": "not owned by a public authority", "point": "POINT(-0.078104 51.305563)", "hectares": "0.08", "slug": "/brownfield-land/local-authority-eng/TAN/2017-2659", "entry-date": "2019-11-21"}}