{"type": "Feature", "geometry": {"type": "Point", "coordinates": [-2.585219, 51.486545]}, "properties": {"site-plan-url": "http://planningonline.bristol.gov.uk/online-applications/applicationDetails.do?activeTab=map&keyVal=NKOJTKDNHUH00", "start-date": "2017-12-19", "planning-permission-history": "http://planningonline.bristol.gov.uk/online-applications/applicationDetails.do?activeTab=summary&keyVal=NKOJTKDNHUH00", "site-address": "487A Gloucester Road Horfield Bristol BS7 8UA", "maximum-net-dwellings": "6", "hectares": "0.03", "planning-permission-status": "permissioned", "point": "POINT(-2.585219 51.486545)", "planning-permission-type": "full planning permission", "notes": "6 Dwellings", "organisation": "local-authority-eng:BST", "name": "15/01092/F", "planning-permission-date": "2015-05-18", "site": "15/01092/F", "minimum-net-dwellings": "6", "deliverable": "yes", "slug": "/brownfield-land/local-authority-eng/BST/15-01092-F", "entry-date": "2017-12-19"}}