{"type": "Feature", "geometry": {"type": "Point", "coordinates": [-1.456517, 53.235298]}, "properties": {"resource": "a298e7d789189f540d645491797ed62117b693f964796d4312e4e109c686c481", "site-address": "Brampton Manor, Old Road, Chesterfield", "deliverable": "yes", "end-date": "", "entry-date": "2017-12-19", "hazardous-substances": "", "hectares": "0.92", "maximum-net-dwellings": "6", "minimum-net-dwellings": "1", "notes": "Parts of the site have potential for future residential develoment subject to consideration of the impact upon listed structures/buildings and scheduled ancient monuments.", "organisation": "local-authority-eng:CHS", "ownership-status": "", "planning-permission-date": "", "planning-permission-history": "https://publicaccess.chesterfield.gov.uk/online-applications/propertyDetails.do?activeTab=relatedCases&keyVal=0016PUEPLI000", "planning-permission-status": "not permissioned", "planning-permission-type": "", "point": "POINT(-1.456517 53.235298)", "site": "15", "site-plan-url": "https://www.chesterfield.gov.uk/media/562063/15-brampton-manor-old-road-chesterfield.pdf", "start-date": "2017-12-19", "id": "a298e7d789189f540d645491797ed62117b693f964796d4312e4e109c686c481:45348"}}