{"type": "Feature", "geometry": {"type": "Point", "coordinates": [-0.155284, 50.832193]}, "properties": {"resource": "705ceb15dcf386c1df3b529f229bea20a994c75e1b8ddc1a76c171a15520586b", "site-address": "4-6 Montefiore Road Hove", "deliverable": "yes", "end-date": "", "entry-date": "2017-12-18", "hazardous-substances": "", "hectares": "0.07", "maximum-net-dwellings": "9", "minimum-net-dwellings": "9", "notes": "Change of use and redevelopment of existing mortuary (Sui Generis) and 2 no flats comprising of conversion enlargement and alterations of existing building to create an additional 9 residential units. Incorporating 10 flats and 1 studio within former mortuary building", "organisation": "local-authority-eng:BNH", "ownership-status": "not owned by a public authority", "planning-permission-date": "2014-02-26", "planning-permission-history": "http://ww3.brighton-hove.gov.uk/index.cfm?request=c1199915&action=showDetail&APPLICATION_NUMBER=BH2014%2F01178|http://ww3.brighton-hove.gov.uk/index.cfm?request=c1199915&action=showDetail&APPLICATION_NUMBER=BH2013%2F03331|http://ww3.brighton-hove.gov.uk/index.cfm?request=c1199915&action=showDetail&APPLICATION_NUMBER=BH2013%2F00831", "planning-permission-status": "permissioned", "planning-permission-type": "full planning permission", "point": "POINT(-0.155284 50.832193)", "site": "SHLAA6022", "site-plan-url": "https://www.brighton-hove.gov.uk/sites/brighton-hove.gov.uk/files/SHLAA6022%204-6%20Montefiore%20Road%20Hove.pdf", "start-date": "2017-09-19", "id": "705ceb15dcf386c1df3b529f229bea20a994c75e1b8ddc1a76c171a15520586b:54887"}}