{"type": "Feature", "geometry": {"type": "Point", "coordinates": [-0.965601, 51.453074]}, "properties": {"site-plan-url": "https://www.reading.gov.uk/media/8107/Brownfield-Register-Maps-BL2001-2051/pdf/Brownfield_Land_Register_Maps_2019_2001_to_2051.pdf", "planning-permission-type": "full planning permission", "ownership-status": "not owned by a public authority", "notes": "Permission 181908. Change of use from office to 5x1 bed flats, ground floor enlargement to rear and rooflights", "deliverable": "yes", "name": "BL2048", "organisation": "local-authority-eng:RDG", "point": "POINT(-0.965601 51.453074)", "site-address": "36 Queens Road, Reading", "minimum-net-dwellings": "5", "planning-permission-date": "2019-07-05", "planning-permission-status": "permissioned", "hectares": "0.03", "start-date": "2019-12-16", "site": "BL2048", "maximum-net-dwellings": "5", "slug": "/brownfield-land/local-authority-eng/RDG/BL2048", "entry-date": "2019-12-16"}}