{"type": "Feature", "geometry": {"type": "Point", "coordinates": [-0.19066, 51.502496]}, "properties": {"resource": "bd4eda70f6275cd8eeac8da0480990fe4b4d546ed2a1baa9d2ddbb7db91b9b1f", "site-address": "62-70 Kensington High Street W8 4PE", "deliverable": "yes", "end-date": "", "entry-date": "2017-12-31", "hazardous-substances": "", "hectares": "0.067", "maximum-net-dwellings": "11", "minimum-net-dwellings": "11", "notes": "", "organisation": "local-authority-eng:KEC", "ownership-status": "not owned by a public authority", "planning-permission-date": "2013-05-30", "planning-permission-history": "https://www.rbkc.gov.uk/PP/12/04434", "planning-permission-status": "permissioned", "planning-permission-type": "full planning permission", "point": "POINT(-0.19066 51.502496)", "site": "RBKC011", "site-plan-url": "https://lbhf.maps.arcgis.com/apps/webappviewer/index.html?id=931fa3b3294b4147a518648579b12d4a", "start-date": "2017-12-31", "id": "bd4eda70f6275cd8eeac8da0480990fe4b4d546ed2a1baa9d2ddbb7db91b9b1f:50379"}}