{"type": "Feature", "geometry": {"type": "Point", "coordinates": [-1.150182, 52.957932]}, "properties": {"ownership-status": "not owned by a public authority", "site": "327", "maximum-net-dwellings": "0", "site-address": "Police garage and offices, 24-30 Shakespeare Street", "point": "POINT(-1.150182 52.957932)", "hectares": "0.19", "planning-permission-history": "http://publicaccess.nottinghamcity.gov.uk/online-applications/applicationDetails.do?activeTab=summary&keyVal=NQEEWSLYCB000", "notes": "DevelopmentDescription: 44 dwellings .Variation of condition S1 (external design changes) of 12/01581/PFUL3; SiteInformation: N/A; NonHousingDevelopment: N/A; ProposedForPIP: No; Notes: N/A", "site-plan-url": "http://maps.nottinghamcity.gov.uk/insightmapping/?l=0.21,9.63&xmin=457121.5524000004&xmax=457188.79920000024&ymin=340362.20160000026&ymax=340412.59720000066", "planning-permission-status": "Not Permissioned", "minimum-net-dwellings": "0", "organisation": "local-authority-eng:NGM", "start-date": "2017-12-14", "planning-permission-date": "2015-09-24", "name": "327", "slug": "/brownfield-land/local-authority-eng/NGM/327", "entity": 489299, "entry-date": "2017-12-14"}}