{"type": "Feature", "geometry": {"type": "Point", "coordinates": [-2.292445, 53.49226]}, "properties": {"planning-permission-type": "full planning permission", "planning-permission-date": "2019-03-15", "hectares": "0.03", "site": "S/LAN/088", "site-plan-url": "https://map.salford.gov.uk/?lyrs=v_brownfield_land_register_2019#19/53.492260/-2.292445", "name": "S/LAN/088", "notes": "Full planning permission - 19/72927/COU - Construction not started as of 31 March 2019. Planning permission details as of 31 March 2019.", "deliverable": "yes", "point": "POINT(-2.292445 53.49226)", "site-address": "8 Eccles Old Road Salford M6 7AF", "start-date": "2019-12-11", "maximum-net-dwellings": "1", "ownership-status": "not owned by a public authority", "planning-permission-status": "permissioned", "organisation": "local-authority-eng:SLF", "minimum-net-dwellings": "1", "slug": "/brownfield-land/local-authority-eng/SLF/S-LAN-088", "entry-date": "2019-12-11"}}