{"type": "Feature", "geometry": {"type": "Point", "coordinates": [-0.229522, 51.74459]}, "properties": {"planning-permission-status": "Not permissioned", "site": "Hat113", "name": "Hat113", "site-address": "Hatfield - Garages at Hollyfield", "organisation": "local-authority-eng:WEW", "ownership-status": "owned by a public authority", "minimum-net-dwellings": "14", "start-date": "2017-12-15", "maximum-net-dwellings": "14", "hectares": "0.27", "site-plan-url": "https://maps.welhat.gov.uk/GIS/CMFindIt/default.aspx?getmap=true&scale=750&location=522328.491699219^206574.243896484&layersidentifier=4335b0407667454c96b4319768b31556&menuconfig=Live&backgroundmap=MapDefaultLayerNames", "point": "POINT(-0.229522 51.74459)", "deliverable": "yes", "slug": "/brownfield-land/local-authority-eng/WEW/Hat113", "entity": 497467, "entry-date": "2017-12-15"}}