{"type": "Feature", "geometry": {"type": "Point", "coordinates": [1.157518, 51.793979]}, "properties": {"deliverable": "yes", "name": "MSA5", "point": "POINT(1.157518 51.793979)", "organisation": "local-authority-eng:TEN", "hectares": "1.58", "site-plan-url": "https://www.tendringdc.gov.uk/sites/default/files/documents/planning/planning%20policy/brownfield/MSA5%20Land%20Adjacent%20to%20RailwayStation%20and%20Sadds%20Yard.pdf", "site-address": "Land Adjacent to Railway Station and Sadd's Yard and St John's Yard, Skelmersdale Road, Clacton-on-Sea, Essex CO15 6BP", "maximum-net-dwellings": "60", "site": "MSA5", "minimum-net-dwellings": "60", "start-date": "2017-12-29", "planning-permission-status": "not permissioned", "ownership-status": "not owned by a public authority", "slug": "/brownfield-land/local-authority-eng/TEN/MSA5", "entity": 496510, "entry-date": "2019-03-31", "notes": "The site is allocated for housing development in the Local Plan", "planning-permission-history": "https://idox.tendringdc.gov.uk/online-applications/propertyDetails.do?activeTab=relatedCases&keyVal=0001ELQBLI000"}}