{"type": "Feature", "geometry": {"type": "Point", "coordinates": [-2.287749, 53.478027]}, "properties": {"site-address": "Former Stowell Technical Park, Montford Street, Salford", "minimum-net-dwellings": "4", "site-plan-url": "https://map.salford.gov.uk/maps/?lyrs=brownfield_land_register_2017#19/53.478027/-2.287749", "planning-permission-date": "2016-04-11", "deliverable": "yes", "notes": "Planning permission 16/67657/FUL. Construction status not started as of 31 March 2017. Planning permission details as of 27 October 2017.. Gross addition of 4 apartments.", "site": "S/ORD/122", "start-date": "2017-12-01", "ownership-status": "not owned by a public authority", "planning-permission-type": "full planning permission", "organisation": "local-authority-eng:SLF", "point": "POINT(-2.287749 53.478027)", "planning-permission-status": "permissioned", "maximum-net-dwellings": "4", "hectares": "0.09", "name": "S/ORD/122", "slug": "/brownfield-land/local-authority-eng/SLF/S-ORD-122", "entry-date": "2017-12-01"}}